{"type":"FeatureCollection", "features": [
{"type":"Feature","geometry":{"type":"Polygon","coordinates":[[[-91.26023,39.13985],[-91.26429,38.99276],[-91.18839,38.99214],[-91.18935,38.93215],[-91.11019,38.9319],[-91.11125,38.87271],[-91.00919,38.87202],[-90.95854,38.87087],[-90.95755,38.89329],[-90.93283,38.8859],[-90.90777,38.89087],[-90.8973,38.88605],[-90.86453,38.88787],[-90.81783,38.87597],[-90.81021,38.88561],[-90.80442,38.91114],[-90.77821,38.92249],[-90.75411,38.92075],[-90.74515,38.92949],[-90.72452,38.90979],[-90.69158,38.93424],[-90.66343,38.93422],[-90.67595,38.96214],[-90.67819,38.99185],[-90.71158,39.0468],[-90.71254,39.05706],[-90.68274,39.08835],[-90.68109,39.10059],[-90.68605,39.11779],[-90.70046,39.13544],[-90.70915,39.15511],[-90.71048,39.17637],[-90.7174,39.19741],[-90.71711,39.21391],[-90.72183,39.22411],[-90.78763,39.22395],[-90.89542,39.22508],[-91.00013,39.22445],[-91.07982,39.22517],[-91.18294,39.22723],[-91.18546,39.13905],[-91.26023,39.13985]]]},"properties":{"county":"Lincoln","geoid":"29113"}},
{"type":"Feature","geometry":{"type":"Polygon","coordinates":[[[-93.26697,39.70356],[-93.27857,39.69065],[-93.28589,39.66682],[-93.2746,39.65717],[-93.28342,39.65143],[-93.2618,39.62272],[-93.2781,39.61563],[-93.27025,39.60102],[-93.2745,39.58859],[-93.26689,39.57138],[-93.27001,39.5602],[-93.26352,39.54229],[-93.27713,39.52425],[-93.27691,39.51516],[-93.26595,39.49791],[-93.27654,39.49671],[-93.27593,39.48437],[-93.26634,39.47836],[-93.25805,39.46286],[-93.24741,39.45809],[-93.22809,39.47322],[-93.21955,39.45079],[-93.22875,39.4363],[-93.20594,39.42969],[-93.19193,39.43646],[-93.18354,39.43247],[-93.16555,39.43634],[-93.15475,39.42172],[-93.13913,39.42348],[-93.12065,39.41792],[-93.11568,39.38946],[-93.10448,39.38366],[-93.09258,39.38156],[-93.08029,39.37175],[-93.07805,39.34798],[-93.07291,39.33552],[-93.06153,39.32557],[-93.04475,39.31767],[-93.02378,39.31312],[-92.9768,39.31548],[-92.9598,39.31253],[-92.95327,39.29846],[-92.95898,39.28304],[-92.9474,39.27009],[-92.92362,39.26338],[-92.91547,39.25338],[-92.91957,39.23162],[-92.90614,39.22234],[-92.88414,39.2252],[-92.86523,39.2359],[-92.85493,39.23554],[-92.84922,39.22622],[-92.79037,39.34359],[-92.70737,39.32161],[-92.69659,39.61037],[-92.69215,39.61027],[-92.68933,39.69809],[-92.76488,39.69954],[-92.85792,39.69999],[-92.97103,39.70235],[-93.0828,39.70671],[-93.13534,39.70471],[-93.26697,39.70356]]]},"properties":{"county":"Chariton","geoid":"29041"}},
{"type":"Feature","geometry":{"type":"Polygon","coordinates":[[[-91.5288,37.78899],[-91.71152,37.79106],[-91.80622,37.79129],[-91.80671,37.70424],[-91.80818,37.70425],[-91.8091,37.59886],[-91.75479,37.59877],[-91.75504,37.42411],[-91.64663,37.42273],[-91.42732,37.41804],[-91.37084,37.41822],[-91.21186,37.41528],[-91.21098,37.50191],[-91.31424,37.50513],[-91.31246,37.59282],[-91.20944,37.58881],[-91.15507,37.58809],[-91.15334,37.69734],[-91.31065,37.70005],[-91.30831,37.78719],[-91.41876,37.78845],[-91.5288,37.78899]]]},"properties":{"county":"Dent","geoid":"29065"}},
{"type":"Feature","geometry":{"type":"Polygon","coordinates":[[[-89.95879,36.62933],[-89.96328,36.62547],[-89.96325,36.60121],[-89.95761,36.58481],[-89.95387,36.54564],[-89.96049,36.52746],[-89.95663,36.48062],[-89.96084,36.46676],[-89.95742,36.46016],[-89.96684,36.40811],[-89.97248,36.3896],[-89.96131,36.3888],[-89.89468,36.38628],[-89.75215,36.3864],[-89.74584,36.40428],[-89.74517,36.41842],[-89.73814,36.42597],[-89.7255,36.42721],[-89.69579,36.41639],[-89.67771,36.40127],[-89.66056,36.39886],[-89.63974,36.40079],[-89.61102,36.41121],[-89.5923,36.40381],[-89.58372,36.38303],[-89.57141,36.37342],[-89.55394,36.36722],[-89.54508,36.36],[-89.54501,36.33681],[-89.53182,36.33925],[-89.519,36.3486],[-89.50972,36.37363],[-89.51396,36.38489],[-89.54234,36.4201],[-89.54506,36.43491],[-89.52727,36.45155],[-89.51972,36.467],[-89.52267,36.48131],[-89.53923,36.49793],[-89.56034,36.52544],[-89.57124,36.54734],[-89.56682,36.56422],[-89.55264,36.57718],[-89.52758,36.58115],[-89.48484,36.57182],[-89.47334,36.55992],[-89.46776,36.54685],[-89.46589,36.52995],[-89.47246,36.51374],[-89.48543,36.49749],[-89.49349,36.4787],[-89.48621,36.46162],[-89.46415,36.45719],[-89.45308,36.46128],[-89.43676,36.47443],[-89.41727,36.49901],[-89.39868,36.54233],[-89.39591,36.55965],[-89.38276,36.5836],[-89.37545,36.61572],[-89.36555,36.62506],[-89.34375,36.63099],[-89.32759,36.63219],[-89.32748,36.64497],[-89.34597,36.65182],[-89.34619,36.66678],[-89.36433,36.67401],[-89.36412,36.68818],[-89.37317,36.68825],[-89.37374,36.70295],[-89.39146,36.70291],[-89.39167,36.71738],[-89.4007,36.72999],[-89.42795,36.74652],[-89.42807,36.76072],[-89.44589,36.76765],[-89.44561,36.78931],[-89.46323,36.78892],[-89.46359,36.8033],[-89.47256,36.80335],[-89.47211,36.81777],[-89.48323,36.81782],[-89.48339,36.83281],[-89.50204,36.8328],[-89.50209,36.84757],[-89.5197,36.8479],[-89.51981,36.86962],[-89.56666,36.86934],[-89.6046,36.86622],[-89.60596,36.86166],[-89.6916,36.85952],[-89.70483,36.85929],[-89.7001,36.74027],[-89.70268,36.73908],[-89.70125,36.68636],[-89.70095,36.62745],[-89.82875,36.62738],[-89.95879,36.62933]]]},"properties":{"county":"New Madrid","geoid":"29143"}},
{"type":"Feature","geometry":{"type":"Polygon","coordinates":[[[-89.86112,37.59929],[-89.86247,37.49645],[-89.86221,37.31066],[-89.86326,37.21904],[-89.8668,37.21898],[-89.86663,37.12623],[-89.76521,37.12607],[-89.75851,37.14061],[-89.72178,37.14056],[-89.72204,37.15507],[-89.7038,37.15505],[-89.70417,37.18396],[-89.68585,37.18401],[-89.686,37.19849],[-89.66743,37.19875],[-89.66742,37.20613],[-89.64946,37.20619],[-89.64966,37.21827],[-89.62046,37.21828],[-89.62026,37.23301],[-89.58348,37.23292],[-89.58347,37.24032],[-89.5465,37.24022],[-89.54645,37.2473],[-89.52049,37.24732],[-89.50708,37.24399],[-89.48873,37.25151],[-89.5023,37.26374],[-89.51834,37.2855],[-89.51184,37.31083],[-89.48652,37.33455],[-89.45472,37.33928],[-89.43604,37.34444],[-89.42818,37.35616],[-89.42204,37.38053],[-89.42246,37.39713],[-89.43413,37.42685],[-89.45097,37.45007],[-89.4712,37.46647],[-89.49205,37.49401],[-89.50023,37.51295],[-89.51645,37.53556],[-89.52173,37.56621],[-89.53493,37.57082],[-89.54339,37.56701],[-89.55536,37.57682],[-89.5772,37.57243],[-89.60357,37.59206],[-89.60283,37.60323],[-89.62578,37.58846],[-89.63773,37.59767],[-89.665,37.59839],[-89.67131,37.58484],[-89.68635,37.58835],[-89.71112,37.59943],[-89.721,37.59429],[-89.73495,37.60156],[-89.74348,37.59267],[-89.77783,37.59069],[-89.80221,37.59368],[-89.81663,37.59988],[-89.86112,37.59929]]]},"properties":{"county":"Cape Girardeau","geoid":"29031"}},
{"type":"Feature","geometry":{"type":"Polygon","coordinates":[[[-90.73233,38.6393],[-90.73263,38.5766],[-90.73617,38.46687],[-90.73051,38.48274],[-90.69562,38.47055],[-90.69349,38.4646],[-90.66464,38.44876],[-90.65473,38.45608],[-90.6607,38.47919],[-90.65556,38.48674],[-90.63375,38.48578],[-90.62862,38.47773],[-90.61368,38.47133],[-90.60265,38.47962],[-90.59112,38.50165],[-90.40533,38.5006],[-90.40795,38.48333],[-90.422,38.47817],[-90.40866,38.45254],[-90.39103,38.45056],[-90.35363,38.45822],[-90.33892,38.45535],[-90.33574,38.4482],[-90.34692,38.43615],[-90.34794,38.40536],[-90.34133,38.38821],[-90.31233,38.41455],[-90.29278,38.42865],[-90.28778,38.43923],[-90.27921,38.47245],[-90.26383,38.52051],[-90.25777,38.53201],[-90.27103,38.53868],[-90.27225,38.54817],[-90.29702,38.56237],[-90.31358,38.57877],[-90.32051,38.59415],[-90.31085,38.61821],[-90.30183,38.65564],[-90.25177,38.71885],[-90.22178,38.73013],[-90.19742,38.74924],[-90.18505,38.76483],[-90.18418,38.77429],[-90.16671,38.77227],[-90.12311,38.79805],[-90.11771,38.80575],[-90.12678,38.82133],[-90.14161,38.82945],[-90.15846,38.82879],[-90.18306,38.81805],[-90.19568,38.82126],[-90.25614,38.85213],[-90.27588,38.8723],[-90.29874,38.88776],[-90.32021,38.89115],[-90.33639,38.88257],[-90.34911,38.8417],[-90.36216,38.82786],[-90.38227,38.82194],[-90.41555,38.82888],[-90.44062,38.82765],[-90.44956,38.81989],[-90.47319,38.79098],[-90.48266,38.76347],[-90.49579,38.74826],[-90.52957,38.73275],[-90.53364,38.72687],[-90.53036,38.69863],[-90.53929,38.68678],[-90.55683,38.68152],[-90.56831,38.68393],[-90.58861,38.6805],[-90.6039,38.68198],[-90.6238,38.69028],[-90.66051,38.68855],[-90.67453,38.68219],[-90.67925,38.6656],[-90.69795,38.66037],[-90.71106,38.64474],[-90.73233,38.6393]]]},"properties":{"county":"St. Louis","geoid":"29189"}},
{"type":"Feature","geometry":{"type":"Polygon","coordinates":[[[-93.37439,40.58033],[-93.37522,40.55265],[-93.37482,40.47255],[-93.36697,40.47179],[-93.36693,40.383],[-93.19622,40.38544],[-93.08393,40.38645],[-92.95441,40.38494],[-92.85531,40.38589],[-92.85563,40.34274],[-92.74361,40.34248],[-92.68417,40.34347],[-92.68268,40.37602],[-92.68602,40.39427],[-92.67093,40.40999],[-92.67856,40.41839],[-92.69356,40.4229],[-92.70932,40.44589],[-92.70138,40.4494],[-92.70456,40.47422],[-92.69611,40.4872],[-92.67756,40.49564],[-92.68353,40.5052],[-92.68718,40.52401],[-92.70476,40.53277],[-92.69495,40.54858],[-92.68304,40.56025],[-92.71079,40.55718],[-92.70207,40.57098],[-92.70225,40.58098],[-92.7146,40.58956],[-92.75741,40.58891],[-92.94159,40.58774],[-93.0973,40.58401],[-93.26061,40.5808],[-93.37439,40.58033]]]},"properties":{"county":"Putnam","geoid":"29171"}},
{"type":"Feature","geometry":{"type":"Polygon","coordinates":[[[-90.67856,36.92649],[-90.67973,36.88311],[-90.66124,36.88291],[-90.66262,36.81145],[-90.62752,36.81095],[-90.62839,36.67954],[-90.59217,36.67937],[-90.593,36.59245],[-90.57476,36.59185],[-90.57618,36.49845],[-90.21769,36.4978],[-90.21706,36.52738],[-90.20841,36.5312],[-90.20995,36.54203],[-90.18911,36.54447],[-90.18855,36.55462],[-90.18068,36.56949],[-90.18692,36.57723],[-90.1797,36.59455],[-90.16429,36.60415],[-90.16856,36.61498],[-90.15604,36.61717],[-90.1484,36.63066],[-90.1388,36.64236],[-90.14662,36.65606],[-90.13684,36.66741],[-90.14915,36.67716],[-90.14053,36.69327],[-90.15068,36.69973],[-90.15805,36.72298],[-90.17253,36.74754],[-90.201,36.77721],[-90.20258,36.79227],[-90.19791,36.80414],[-90.2163,36.81459],[-90.21314,36.82108],[-90.22442,36.8324],[-90.21632,36.84281],[-90.2298,36.85012],[-90.23696,36.86268],[-90.25328,36.86957],[-90.24866,36.89758],[-90.25697,36.9092],[-90.25856,36.92204],[-90.35271,36.92605],[-90.42501,36.92594],[-90.52292,36.92687],[-90.63051,36.92617],[-90.67856,36.92649]]]},"properties":{"county":"Butler","geoid":"29023"}},
{"type":"Feature","geometry":{"type":"Polygon","coordinates":[[[-94.60951,38.7381],[-94.61186,38.62049],[-94.61287,38.4776],[-94.31215,38.47139],[-94.29751,38.45888],[-94.27295,38.4583],[-94.25716,38.45007],[-94.23983,38.46013],[-94.22717,38.45728],[-94.22335,38.44831],[-94.20751,38.45078],[-94.1741,38.44545],[-94.15908,38.45071],[-94.13277,38.45383],[-94.11829,38.45183],[-94.08732,38.45573],[-94.06571,38.44709],[-94.06782,38.46602],[-94.06432,38.56738],[-94.11966,38.56871],[-94.11641,38.65552],[-94.12937,38.65586],[-94.12506,38.74432],[-94.12282,38.75788],[-94.1191,38.83317],[-94.16543,38.83456],[-94.28759,38.83508],[-94.50907,38.8423],[-94.60803,38.84721],[-94.60762,38.82756],[-94.60951,38.7381]]]},"properties":{"county":"Cass","geoid":"29037"}},
{"type":"Feature","geometry":{"type":"Polygon","coordinates":[[[-93.07769,38.26309],[-93.08216,38.1865],[-93.05907,38.18569],[-93.0652,38.06248],[-93.06831,38.00427],[-93.07245,37.90263],[-92.98217,37.8994],[-92.85538,37.89574],[-92.62018,37.89252],[-92.61468,37.86354],[-92.60128,37.84924],[-92.60008,37.84034],[-92.58538,37.82804],[-92.57158,37.82364],[-92.56532,37.80697],[-92.54907,37.80054],[-92.53168,37.81114],[-92.51351,37.81093],[-92.50147,37.82773],[-92.48035,37.82902],[-92.45295,37.82408],[-92.44946,37.83536],[-92.4255,37.85218],[-92.40923,37.85918],[-92.40627,38.02118],[-92.51598,38.02234],[-92.51558,38.03694],[-92.53389,38.03747],[-92.53355,38.05181],[-92.55238,38.05215],[-92.55208,38.06634],[-92.57028,38.06664],[-92.56968,38.09593],[-92.58798,38.09613],[-92.58769,38.11064],[-92.59676,38.11075],[-92.59637,38.13979],[-92.6053,38.13989],[-92.60468,38.17073],[-92.64131,38.17163],[-92.64008,38.21303],[-92.67559,38.21283],[-92.69589,38.22203],[-92.7314,38.22159],[-92.75599,38.21247],[-92.76454,38.18962],[-92.96299,38.19723],[-92.95659,38.20373],[-92.93469,38.21113],[-92.93199,38.22023],[-92.95162,38.22931],[-92.96059,38.22836],[-92.97956,38.19773],[-92.9899,38.18838],[-93.0062,38.186],[-93.02228,38.19864],[-93.01204,38.21022],[-92.98489,38.21143],[-92.98619,38.22083],[-93.00565,38.22271],[-93.01374,38.24146],[-93.04247,38.26518],[-93.05667,38.27174],[-93.07769,38.26309]]]},"properties":{"county":"Camden","geoid":"29029"}},
{"type":"Feature","geometry":{"type":"Polygon","coordinates":[[[-93.51103,38.55621],[-93.51274,38.51248],[-93.29185,38.50632],[-93.29045,38.53539],[-93.17931,38.53407],[-93.06729,38.53],[-93.05997,38.69308],[-93.0545,38.81712],[-93.05045,38.92824],[-93.10598,38.9315],[-93.1642,38.93212],[-93.26857,38.93553],[-93.31109,38.93612],[-93.49638,38.94284],[-93.49728,38.92843],[-93.49862,38.8993],[-93.49312,38.89916],[-93.50044,38.77282],[-93.50917,38.64496],[-93.50756,38.63579],[-93.51103,38.55621]]]},"properties":{"county":"Pettis","geoid":"29159"}},
{"type":"Feature","geometry":{"type":"Polygon","coordinates":[[[-94.20596,39.74584],[-94.20582,39.70201],[-94.20769,39.54164],[-94.20842,39.5272],[-93.98457,39.5244],[-93.8702,39.52587],[-93.75918,39.52456],[-93.75836,39.61141],[-93.75899,39.78467],[-93.87053,39.7868],[-94.0263,39.78558],[-94.0932,39.78585],[-94.20584,39.78895],[-94.20596,39.74584]]]},"properties":{"county":"Caldwell","geoid":"29025"}},
{"type":"Feature","geometry":{"type":"Polygon","coordinates":[[[-95.55482,40.26446],[-95.55247,40.2619],[-95.51611,40.24919],[-95.4934,40.24956],[-95.4775,40.24272],[-95.46972,40.22791],[-95.47347,40.21348],[-95.48232,40.20067],[-95.4763,40.18199],[-95.46075,40.16917],[-95.43635,40.15872],[-95.43102,40.13841],[-95.41919,40.13059],[-95.39867,40.12642],[-95.39306,40.11118],[-95.41064,40.09153],[-95.40986,40.07432],[-95.42164,40.05895],[-95.41359,40.03842],[-95.40266,40.03057],[-95.38296,40.02711],[-95.36398,40.0315],[-95.34657,40.02827],[-95.33624,40.0191],[-95.31221,40.0094],[-95.30829,40],[-95.30251,39.98436],[-95.26989,39.9694],[-95.25765,39.95489],[-95.24138,39.94495],[-95.22021,39.94443],[-95.20128,39.93419],[-95.20573,39.90828],[-95.19382,39.90069],[-95.17945,39.90006],[-95.15983,39.90698],[-95.1438,39.90192],[-95.1406,39.88169],[-95.12817,39.87417],[-95.08153,39.86172],[-95.03777,39.86554],[-95.02793,39.87152],[-95.02595,39.88675],[-95.01874,39.89737],[-94.99341,39.89779],[-94.99339,39.91503],[-95.00543,39.92743],[-94.98881,39.94274],[-94.99239,39.95552],[-95.00301,39.95834],[-94.99629,39.97],[-95.0053,39.98028],[-95.00413,39.99723],[-95.01002,40.02279],[-95.01054,40.04676],[-95.02051,40.05203],[-95.03684,40.04613],[-95.03941,40.05974],[-95.05869,40.0661],[-95.05907,40.07474],[-95.04349,40.07845],[-95.04425,40.09829],[-95.0368,40.11556],[-95.04308,40.1301],[-95.05601,40.13598],[-95.06338,40.15889],[-95.06355,40.17622],[-95.0712,40.17964],[-95.07353,40.19554],[-95.06385,40.20586],[-95.06683,40.22825],[-95.05788,40.23909],[-95.0736,40.24338],[-95.07159,40.26086],[-95.12389,40.26056],[-95.18061,40.26171],[-95.20902,40.26229],[-95.40862,40.26308],[-95.55482,40.26446]]]},"properties":{"county":"Holt","geoid":"29087"}},
{"type":"Feature","geometry":{"type":"Polygon","coordinates":[[[-90.14678,37.64162],[-90.14676,37.59743],[-90.09176,37.59828],[-90.00021,37.59801],[-89.86112,37.59929],[-89.81663,37.59988],[-89.80221,37.59368],[-89.77783,37.59069],[-89.74348,37.59267],[-89.73495,37.60156],[-89.721,37.59429],[-89.71112,37.59943],[-89.68635,37.58835],[-89.67131,37.58484],[-89.665,37.59839],[-89.63773,37.59767],[-89.62578,37.58846],[-89.60283,37.60323],[-89.60357,37.59206],[-89.5772,37.57243],[-89.55536,37.57682],[-89.54339,37.56701],[-89.53493,37.57082],[-89.52173,37.56621],[-89.52152,37.57215],[-89.51654,37.5845],[-89.49405,37.58012],[-89.47755,37.58588],[-89.4784,37.59887],[-89.50656,37.62505],[-89.51772,37.64122],[-89.51615,37.66798],[-89.51201,37.68553],[-89.52573,37.69844],[-89.5667,37.70719],[-89.58332,37.71326],[-89.59657,37.73289],[-89.61559,37.74235],[-89.61728,37.74972],[-89.64953,37.7455],[-89.66555,37.75209],[-89.66799,37.75948],[-89.66038,37.7863],[-89.67442,37.80301],[-89.70284,37.81681],[-89.72943,37.83508],[-89.73987,37.84693],[-89.7541,37.84636],[-89.76522,37.85178],[-89.79609,37.85951],[-89.79804,37.87966],[-89.84479,37.90557],[-89.86295,37.89691],[-89.88147,37.87959],[-89.90183,37.86982],[-89.92318,37.87067],[-89.93819,37.87511],[-89.99992,37.82152],[-90.05152,37.7495],[-90.11054,37.67134],[-90.14678,37.64162]]]},"properties":{"county":"Perry","geoid":"29157"}},
{"type":"Feature","geometry":{"type":"Polygon","coordinates":[[[-92.43023,39.2488],[-92.50104,39.11283],[-92.53571,39.04868],[-92.56199,39.00318],[-92.57016,38.97973],[-92.55809,38.97069],[-92.54012,38.95372],[-92.51499,38.93811],[-92.49838,38.92208],[-92.47426,38.9016],[-92.48032,38.88131],[-92.47779,38.87411],[-92.45672,38.86027],[-92.44486,38.83834],[-92.43208,38.82507],[-92.41687,38.81887],[-92.39724,38.81983],[-92.38439,38.81549],[-92.37961,38.80008],[-92.39078,38.78061],[-92.40494,38.77426],[-92.40941,38.76428],[-92.40303,38.74559],[-92.39487,38.73913],[-92.36022,38.73013],[-92.34572,38.71767],[-92.34326,38.70507],[-92.36143,38.69204],[-92.35781,38.67952],[-92.33729,38.67314],[-92.29337,38.66656],[-92.27581,38.65822],[-92.26219,38.64641],[-92.22066,38.64317],[-92.21846,38.68905],[-92.22609,38.69785],[-92.21569,38.70249],[-92.21639,38.7145],[-92.19243,38.72613],[-92.18602,38.74561],[-92.17095,38.7653],[-92.16149,38.77206],[-92.16487,38.78251],[-92.15567,38.79581],[-92.13524,38.81389],[-92.15311,38.82801],[-92.14792,38.84548],[-92.15791,38.86462],[-92.1574,38.89255],[-92.16411,38.90703],[-92.1545,38.91788],[-92.15337,38.94358],[-92.14339,38.96772],[-92.14706,38.97758],[-92.13709,38.99189],[-92.1385,39.0059],[-92.13061,39.0253],[-92.13597,39.0324],[-92.13151,39.06448],[-92.11039,39.0642],[-92.10437,39.23981],[-92.19863,39.24235],[-92.31447,39.24645],[-92.43023,39.2488]]]},"properties":{"county":"Boone","geoid":"29019"}},
{"type":"Feature","geometry":{"type":"Polygon","coordinates":[[[-94.60538,40.03922],[-94.60401,39.87816],[-94.60283,39.81991],[-94.60226,39.7472],[-94.45146,39.74769],[-94.31859,39.7475],[-94.20596,39.74584],[-94.20584,39.78895],[-94.2053,39.9018],[-94.20346,40.03454],[-94.2188,40.03489],[-94.32997,40.03925],[-94.45262,40.03886],[-94.60538,40.03922]]]},"properties":{"county":"DeKalb","geoid":"29063"}},
{"type":"Feature","geometry":{"type":"Polygon","coordinates":[[[-93.49638,38.94284],[-93.31109,38.93612],[-93.26857,38.93553],[-93.1642,38.93212],[-93.10598,38.9315],[-93.05045,38.92824],[-93.04824,38.9726],[-92.93457,39.06455],[-92.91776,39.07358],[-92.90736,39.08421],[-92.90897,39.09555],[-92.94279,39.10353],[-92.94165,39.12589],[-92.92232,39.13092],[-92.90725,39.1445],[-92.9048,39.16616],[-92.89674,39.17591],[-92.87519,39.18701],[-92.86108,39.20015],[-92.84922,39.22622],[-92.85493,39.23554],[-92.86523,39.2359],[-92.88414,39.2252],[-92.90614,39.22234],[-92.91957,39.23162],[-92.91547,39.25338],[-92.92362,39.26338],[-92.9474,39.27009],[-92.95898,39.28304],[-92.95327,39.29846],[-92.9598,39.31253],[-92.9768,39.31548],[-93.02378,39.31312],[-93.04475,39.31767],[-93.06153,39.32557],[-93.07291,39.33552],[-93.07805,39.34798],[-93.08029,39.37175],[-93.09258,39.38156],[-93.10448,39.38366],[-93.1252,39.37768],[-93.13963,39.37864],[-93.15199,39.38716],[-93.16432,39.40501],[-93.17446,39.41103],[-93.18943,39.41049],[-93.20071,39.40179],[-93.1902,39.38179],[-93.19204,39.36571],[-93.20675,39.35239],[-93.22167,39.33133],[-93.23008,39.32788],[-93.24028,39.33639],[-93.25592,39.33784],[-93.27772,39.31155],[-93.29416,39.30921],[-93.33225,39.30961],[-93.34411,39.29718],[-93.34378,39.2871],[-93.32896,39.26548],[-93.33334,39.25001],[-93.35755,39.2407],[-93.36814,39.23331],[-93.40188,39.22691],[-93.41523,39.23492],[-93.41523,39.2418],[-93.4029,39.26005],[-93.41392,39.26775],[-93.44423,39.26852],[-93.46498,39.29237],[-93.47723,39.2928],[-93.48103,39.23225],[-93.49638,38.94284]]]},"properties":{"county":"Saline","geoid":"29195"}},
{"type":"Feature","geometry":{"type":"Polygon","coordinates":[[[-93.5732,37.82804],[-93.5741,37.81334],[-93.45831,37.81024],[-93.29372,37.80479],[-93.18791,37.80274],[-93.18265,37.90423],[-93.07245,37.90263],[-93.06831,38.00427],[-93.0652,38.06248],[-93.12018,38.0627],[-93.32468,38.06693],[-93.50395,38.07312],[-93.5121,37.91354],[-93.56871,37.91492],[-93.5732,37.82804]]]},"properties":{"county":"Hickory","geoid":"29085"}},
{"type":"Feature","geometry":{"type":"Polygon","coordinates":[[[-89.76521,37.12607],[-89.77552,37.1033],[-89.77452,37.09727],[-89.78682,37.08782],[-89.76642,37.0507],[-89.75861,37.05067],[-89.75386,37.0299],[-89.73564,37.01063],[-89.72003,36.98684],[-89.71488,36.95213],[-89.70313,36.94754],[-89.6867,36.92805],[-89.68708,36.914],[-89.69377,36.89964],[-89.68668,36.88702],[-89.69732,36.87413],[-89.6916,36.85952],[-89.60596,36.86166],[-89.6046,36.86622],[-89.56666,36.86934],[-89.51981,36.86962],[-89.51986,36.87694],[-89.50151,36.87693],[-89.50153,36.90626],[-89.46523,36.90624],[-89.46539,36.93573],[-89.42995,36.93561],[-89.4299,36.95026],[-89.41148,36.95014],[-89.41129,36.96479],[-89.37506,36.96495],[-89.37431,36.99429],[-89.3473,37.00198],[-89.3472,37.00911],[-89.31327,37.00956],[-89.33116,37.01994],[-89.3624,37.03016],[-89.37828,37.03961],[-89.38519,37.05775],[-89.37561,37.08594],[-89.38417,37.10327],[-89.41447,37.12505],[-89.4352,37.15209],[-89.43827,37.16129],[-89.46186,37.19952],[-89.4675,37.22184],[-89.4583,37.24037],[-89.46069,37.25058],[-89.48873,37.25151],[-89.50708,37.24399],[-89.52049,37.24732],[-89.54645,37.2473],[-89.5465,37.24022],[-89.58347,37.24032],[-89.58348,37.23292],[-89.62026,37.23301],[-89.62046,37.21828],[-89.64966,37.21827],[-89.64946,37.20619],[-89.66742,37.20613],[-89.66743,37.19875],[-89.686,37.19849],[-89.68585,37.18401],[-89.70417,37.18396],[-89.7038,37.15505],[-89.72204,37.15507],[-89.72178,37.14056],[-89.75851,37.14061],[-89.76521,37.12607]]]},"properties":{"county":"Scott","geoid":"29201"}},
{"type":"Feature","geometry":{"type":"Polygon","coordinates":[[[-94.61328,38.38872],[-94.61266,38.21765],[-94.61386,38.14977],[-94.61405,38.06006],[-94.44472,38.05632],[-94.24064,38.05082],[-94.23766,38.04381],[-94.2443,38.02773],[-94.2252,38.02702],[-94.21458,38.035],[-94.20954,38.05216],[-94.19791,38.04016],[-94.16486,38.05122],[-94.13524,38.05812],[-94.1147,38.04703],[-94.10991,38.03732],[-94.09541,38.04071],[-94.08524,38.03247],[-94.05828,38.03663],[-94.04989,38.21399],[-94.07521,38.2145],[-94.06571,38.44709],[-94.08732,38.45573],[-94.11829,38.45183],[-94.13277,38.45383],[-94.15908,38.45071],[-94.1741,38.44545],[-94.20751,38.45078],[-94.22335,38.44831],[-94.22717,38.45728],[-94.23983,38.46013],[-94.25716,38.45007],[-94.27295,38.4583],[-94.29751,38.45888],[-94.31215,38.47139],[-94.61287,38.4776],[-94.61328,38.38872]]]},"properties":{"county":"Bates","geoid":"29013"}},
{"type":"Feature","geometry":{"type":"Polygon","coordinates":[[[-94.60752,39.04409],[-94.60833,38.98181],[-94.60803,38.84721],[-94.50907,38.8423],[-94.28759,38.83508],[-94.16543,38.83456],[-94.1191,38.83317],[-94.11596,38.871],[-94.11417,38.9173],[-94.10482,39.14351],[-94.11403,39.14971],[-94.12992,39.1689],[-94.14715,39.17518],[-94.18584,39.18103],[-94.18401,39.19044],[-94.17024,39.20449],[-94.17352,39.21383],[-94.18889,39.21346],[-94.21251,39.20709],[-94.22956,39.21536],[-94.23843,39.22822],[-94.25542,39.23622],[-94.28987,39.23711],[-94.30461,39.23141],[-94.314,39.22127],[-94.32232,39.19865],[-94.33766,39.18074],[-94.36356,39.16366],[-94.37849,39.17036],[-94.38973,39.1935],[-94.40902,39.1921],[-94.39993,39.1748],[-94.40233,39.16477],[-94.42348,39.14407],[-94.44064,39.13078],[-94.46159,39.12037],[-94.48462,39.1455],[-94.50641,39.15091],[-94.53079,39.14708],[-94.54957,39.1309],[-94.59572,39.11],[-94.60735,39.11344],[-94.60752,39.04409]]]},"properties":{"county":"Jackson","geoid":"29095"}},
{"type":"Feature","geometry":{"type":"Polygon","coordinates":[[[-92.7146,40.58956],[-92.70225,40.58098],[-92.70207,40.57098],[-92.71079,40.55718],[-92.68304,40.56025],[-92.69495,40.54858],[-92.70476,40.53277],[-92.68718,40.52401],[-92.68353,40.5052],[-92.67756,40.49564],[-92.69611,40.4872],[-92.70456,40.47422],[-92.70138,40.4494],[-92.70932,40.44589],[-92.69356,40.4229],[-92.67856,40.41839],[-92.67093,40.40999],[-92.68602,40.39427],[-92.68268,40.37602],[-92.68417,40.34347],[-92.46064,40.3452],[-92.34997,40.34651],[-92.35139,40.47708],[-92.35081,40.59727],[-92.48459,40.59492],[-92.6379,40.59085],[-92.7146,40.58956]]]},"properties":{"county":"Schuyler","geoid":"29197"}},
{"type":"Feature","geometry":{"type":"Polygon","coordinates":[[[-90.73617,38.46687],[-90.7376,38.4159],[-90.77228,38.25005],[-90.78018,38.20411],[-90.6814,38.10268],[-90.67769,38.08694],[-90.63998,38.07655],[-90.62521,38.07604],[-90.61217,38.07008],[-90.62113,38.05206],[-90.62151,38.04036],[-90.61275,38.01702],[-90.62808,38.00774],[-90.58332,38.0035],[-90.41695,38.0427],[-90.41602,38.04232],[-90.32939,38.09436],[-90.29311,38.08941],[-90.28165,38.10339],[-90.26206,38.1079],[-90.25242,38.11838],[-90.25266,38.12781],[-90.27493,38.15762],[-90.29076,38.17045],[-90.32235,38.18159],[-90.33426,38.18993],[-90.3539,38.21386],[-90.36639,38.24587],[-90.37266,38.28623],[-90.37252,38.32335],[-90.36822,38.34025],[-90.34133,38.38821],[-90.34794,38.40536],[-90.34692,38.43615],[-90.33574,38.4482],[-90.33892,38.45535],[-90.35363,38.45822],[-90.39103,38.45056],[-90.40866,38.45254],[-90.422,38.47817],[-90.40795,38.48333],[-90.40533,38.5006],[-90.59112,38.50165],[-90.60265,38.47962],[-90.61368,38.47133],[-90.62862,38.47773],[-90.63375,38.48578],[-90.65556,38.48674],[-90.6607,38.47919],[-90.65473,38.45608],[-90.66464,38.44876],[-90.69349,38.4646],[-90.69562,38.47055],[-90.73051,38.48274],[-90.73617,38.46687]]]},"properties":{"county":"Jefferson","geoid":"29099"}},
{"type":"Feature","geometry":{"type":"Polygon","coordinates":[[[-92.11039,39.0642],[-92.13151,39.06448],[-92.13597,39.0324],[-92.13061,39.0253],[-92.1385,39.0059],[-92.13709,38.99189],[-92.14706,38.97758],[-92.14339,38.96772],[-92.15337,38.94358],[-92.1545,38.91788],[-92.16411,38.90703],[-92.1574,38.89255],[-92.15791,38.86462],[-92.14792,38.84548],[-92.15311,38.82801],[-92.13524,38.81389],[-92.15567,38.79581],[-92.16487,38.78251],[-92.16149,38.77206],[-92.17095,38.7653],[-92.18602,38.74561],[-92.19243,38.72613],[-92.21639,38.7145],[-92.21569,38.70249],[-92.22609,38.69785],[-92.21846,38.68905],[-92.22066,38.64317],[-92.20983,38.63722],[-92.20237,38.62314],[-92.20304,38.60527],[-92.19888,38.6001],[-92.16933,38.58166],[-92.13902,38.56941],[-92.11057,38.56166],[-92.0681,38.55741],[-92.02577,38.56457],[-92.00898,38.5709],[-91.98202,38.58764],[-91.94394,38.59707],[-91.89375,38.63409],[-91.88523,38.64822],[-91.86949,38.66394],[-91.85487,38.67034],[-91.81444,38.68184],[-91.78186,38.68215],[-91.75973,38.68516],[-91.73229,38.70589],[-91.69002,38.7069],[-91.6655,38.70198],[-91.64717,38.7034],[-91.64345,38.82018],[-91.63906,38.93932],[-91.634,39.05906],[-91.77447,39.06079],[-91.97645,39.06204],[-92.11039,39.0642]]]},"properties":{"county":"Callaway","geoid":"29027"}},
{"type":"Feature","geometry":{"type":"Polygon","coordinates":[[[-90.37786,35.99572],[-90.28908,35.99642],[-90.12733,35.99764],[-89.95938,35.99902],[-89.95935,36.15559],[-89.96139,36.23515],[-89.96086,36.30862],[-89.96131,36.3888],[-89.97248,36.3896],[-89.96684,36.40811],[-89.95742,36.46016],[-89.96084,36.46676],[-89.95663,36.48062],[-89.96049,36.52746],[-89.95387,36.54564],[-89.95761,36.58481],[-89.96325,36.60121],[-89.96328,36.62547],[-89.95879,36.62933],[-90.13793,36.63121],[-90.1484,36.63066],[-90.15604,36.61717],[-90.16856,36.61498],[-90.16429,36.60415],[-90.1797,36.59455],[-90.18692,36.57723],[-90.18068,36.56949],[-90.18855,36.55462],[-90.18911,36.54447],[-90.20995,36.54203],[-90.20841,36.5312],[-90.21706,36.52738],[-90.21769,36.4978],[-90.15441,36.49683],[-90.15884,36.47956],[-90.14153,36.46299],[-90.13414,36.4366],[-90.14272,36.43116],[-90.13423,36.42283],[-90.135,36.41372],[-90.10949,36.40407],[-90.08043,36.40076],[-90.06451,36.38208],[-90.0663,36.3593],[-90.07769,36.34848],[-90.07557,36.33404],[-90.08196,36.3221],[-90.06927,36.31315],[-90.06398,36.30304],[-90.0778,36.28835],[-90.08373,36.27233],[-90.11492,36.26559],[-90.11822,36.25349],[-90.13011,36.24031],[-90.13236,36.22644],[-90.14224,36.22752],[-90.16117,36.21577],[-90.18819,36.20536],[-90.19036,36.20138],[-90.20445,36.18694],[-90.22042,36.18476],[-90.23537,36.15915],[-90.23139,36.14735],[-90.24881,36.12984],[-90.26064,36.12741],[-90.27238,36.11809],[-90.29311,36.11437],[-90.29991,36.09824],[-90.32066,36.08714],[-90.32075,36.07133],[-90.33326,36.0675],[-90.33715,36.04775],[-90.34791,36.04194],[-90.35173,36.02535],[-90.36443,36.01362],[-90.37786,35.99572]]]},"properties":{"county":"Dunklin","geoid":"29069"}},
{"type":"Feature","geometry":{"type":"Polygon","coordinates":[[[-90.25856,36.92204],[-90.25697,36.9092],[-90.24866,36.89758],[-90.25328,36.86957],[-90.23696,36.86268],[-90.2298,36.85012],[-90.21632,36.84281],[-90.22442,36.8324],[-90.21314,36.82108],[-90.2163,36.81459],[-90.19791,36.80414],[-90.20258,36.79227],[-90.201,36.77721],[-90.17253,36.74754],[-90.15805,36.72298],[-90.15068,36.69973],[-90.14053,36.69327],[-90.14915,36.67716],[-90.13684,36.66741],[-90.14662,36.65606],[-90.1388,36.64236],[-90.1484,36.63066],[-90.13793,36.63121],[-89.95879,36.62933],[-89.82875,36.62738],[-89.70095,36.62745],[-89.70125,36.68636],[-89.70268,36.73908],[-89.7001,36.74027],[-89.70483,36.85929],[-89.6916,36.85952],[-89.69732,36.87413],[-89.68668,36.88702],[-89.69377,36.89964],[-89.68708,36.914],[-89.6867,36.92805],[-89.70313,36.94754],[-89.71488,36.95213],[-89.72003,36.98684],[-89.73564,37.01063],[-89.75386,37.0299],[-89.75861,37.05067],[-89.76642,37.0507],[-89.78682,37.08782],[-89.77452,37.09727],[-89.77552,37.1033],[-89.76521,37.12607],[-89.86663,37.12623],[-89.95957,37.12725],[-89.9592,37.05438],[-89.99585,37.05473],[-89.99572,37.04011],[-90.11125,37.04121],[-90.14852,37.04144],[-90.14945,37.00744],[-90.16787,37.00765],[-90.16846,36.9932],[-90.18633,36.99335],[-90.18658,36.97868],[-90.20488,36.97878],[-90.20517,36.96455],[-90.22301,36.96465],[-90.2236,36.93576],[-90.24164,36.93594],[-90.24181,36.92181],[-90.25856,36.92204]]]},"properties":{"county":"Stoddard","geoid":"29207"}},
{"type":"Feature","geometry":{"type":"Polygon","coordinates":[[[-90.95854,38.87087],[-90.96239,38.7603],[-90.96446,38.54755],[-90.94772,38.53894],[-90.91655,38.53473],[-90.89267,38.54218],[-90.87327,38.55389],[-90.84984,38.56226],[-90.81299,38.58555],[-90.77362,38.59462],[-90.75642,38.61067],[-90.7507,38.6251],[-90.73233,38.6393],[-90.71106,38.64474],[-90.69795,38.66037],[-90.67925,38.6656],[-90.67453,38.68219],[-90.66051,38.68855],[-90.6238,38.69028],[-90.6039,38.68198],[-90.58861,38.6805],[-90.56831,38.68393],[-90.55683,38.68152],[-90.53929,38.68678],[-90.53036,38.69863],[-90.53364,38.72687],[-90.52957,38.73275],[-90.49579,38.74826],[-90.48266,38.76347],[-90.47319,38.79098],[-90.44956,38.81989],[-90.44062,38.82765],[-90.41555,38.82888],[-90.38227,38.82194],[-90.36216,38.82786],[-90.34911,38.8417],[-90.33639,38.88257],[-90.32021,38.89115],[-90.29874,38.88776],[-90.27588,38.8723],[-90.25614,38.85213],[-90.19568,38.82126],[-90.18306,38.81805],[-90.15846,38.82879],[-90.14161,38.82945],[-90.12678,38.82133],[-90.11771,38.80575],[-90.10911,38.83745],[-90.11333,38.84931],[-90.15151,38.86715],[-90.16641,38.87635],[-90.19761,38.88765],[-90.22304,38.90739],[-90.25025,38.91934],[-90.27571,38.92345],[-90.30945,38.92412],[-90.38313,38.95545],[-90.40637,38.96255],[-90.45081,38.96776],[-90.47212,38.95884],[-90.48242,38.94446],[-90.48697,38.92598],[-90.50745,38.90277],[-90.51696,38.89882],[-90.54403,38.87505],[-90.56656,38.86885],[-90.58339,38.86903],[-90.62512,38.88865],[-90.6359,38.90394],[-90.66347,38.92738],[-90.66343,38.93422],[-90.69158,38.93424],[-90.72452,38.90979],[-90.74515,38.92949],[-90.75411,38.92075],[-90.77821,38.92249],[-90.80442,38.91114],[-90.81021,38.88561],[-90.81783,38.87597],[-90.86453,38.88787],[-90.8973,38.88605],[-90.90777,38.89087],[-90.93283,38.8859],[-90.95755,38.89329],[-90.95854,38.87087]]]},"properties":{"county":"St. Charles","geoid":"29183"}},
{"type":"Feature","geometry":{"type":"Polygon","coordinates":[[[-93.75918,39.52456],[-93.75901,39.31334],[-93.75846,39.20702],[-93.73896,39.20966],[-93.71121,39.20626],[-93.70006,39.20973],[-93.68159,39.23124],[-93.6619,39.23578],[-93.65053,39.24821],[-93.62836,39.24316],[-93.58495,39.24043],[-93.56319,39.22002],[-93.54405,39.21576],[-93.51606,39.21529],[-93.50021,39.21801],[-93.48788,39.22888],[-93.48761,39.23834],[-93.49622,39.26489],[-93.48989,39.28515],[-93.47723,39.2928],[-93.46498,39.29237],[-93.44423,39.26852],[-93.41392,39.26775],[-93.4029,39.26005],[-93.41523,39.2418],[-93.41523,39.23492],[-93.40188,39.22691],[-93.36814,39.23331],[-93.35755,39.2407],[-93.33334,39.25001],[-93.32896,39.26548],[-93.34378,39.2871],[-93.34411,39.29718],[-93.33225,39.30961],[-93.29416,39.30921],[-93.27772,39.31155],[-93.25592,39.33784],[-93.24028,39.33639],[-93.23008,39.32788],[-93.22167,39.33133],[-93.20675,39.35239],[-93.19204,39.36571],[-93.1902,39.38179],[-93.20071,39.40179],[-93.18943,39.41049],[-93.17446,39.41103],[-93.16432,39.40501],[-93.15199,39.38716],[-93.13963,39.37864],[-93.1252,39.37768],[-93.10448,39.38366],[-93.11568,39.38946],[-93.12065,39.41792],[-93.13913,39.42348],[-93.15475,39.42172],[-93.16555,39.43634],[-93.18354,39.43247],[-93.19193,39.43646],[-93.20594,39.42969],[-93.22875,39.4363],[-93.21955,39.45079],[-93.22809,39.47322],[-93.24741,39.45809],[-93.25805,39.46286],[-93.26634,39.47836],[-93.27593,39.48437],[-93.27654,39.49671],[-93.26595,39.49791],[-93.27691,39.51516],[-93.27713,39.52425],[-93.26352,39.54229],[-93.27001,39.5602],[-93.26689,39.57138],[-93.2745,39.58859],[-93.27025,39.60102],[-93.2781,39.61563],[-93.42176,39.61482],[-93.59076,39.61309],[-93.65711,39.61171],[-93.75836,39.61141],[-93.75918,39.52456]]]},"properties":{"county":"Carroll","geoid":"29033"}},
{"type":"Feature","geometry":{"type":"Polygon","coordinates":[[[-94.63203,40.57119],[-94.63189,40.47251],[-94.60841,40.47244],[-94.60864,40.38682],[-94.59849,40.38671],[-94.46049,40.38637],[-94.30942,40.38664],[-94.21428,40.38425],[-94.21462,40.47046],[-94.23156,40.47036],[-94.23224,40.57191],[-94.47121,40.57083],[-94.63203,40.57119]]]},"properties":{"county":"Worth","geoid":"29227"}},
{"type":"Feature","geometry":{"type":"Polygon","coordinates":[[[-94.60121,39.53017],[-94.76012,39.53152],[-94.994,39.53313],[-95.10289,39.53335],[-95.07744,39.51355],[-95.05946,39.50614],[-95.04984,39.49441],[-95.04713,39.47497],[-95.03341,39.46088],[-95.01582,39.45281],[-94.99017,39.44619],[-94.9788,39.43624],[-94.96885,39.41907],[-94.94629,39.40565],[-94.94558,39.39385],[-94.92311,39.38449],[-94.90182,39.3928],[-94.88503,39.3898],[-94.87909,39.3757],[-94.89093,39.36403],[-94.9025,39.36038],[-94.91064,39.34834],[-94.90806,39.32366],[-94.90005,39.30019],[-94.87832,39.28114],[-94.84632,39.26848],[-94.83147,39.25627],[-94.82566,39.24173],[-94.8349,39.22384],[-94.82379,39.20987],[-94.81166,39.20659],[-94.78734,39.20767],[-94.77554,39.2006],[-94.76314,39.1799],[-94.73654,39.1692],[-94.71414,39.1704],[-94.68724,39.1835],[-94.66913,39.182],[-94.65916,39.17413],[-94.6614,39.16274],[-94.65073,39.1541],[-94.63978,39.15371],[-94.60866,39.16104],[-94.60173,39.1596],[-94.60036,39.29675],[-94.6009,39.32561],[-94.60082,39.45616],[-94.60121,39.53017]]]},"properties":{"county":"Platte","geoid":"29165"}},
{"type":"Feature","geometry":{"type":"Polygon","coordinates":[[[-91.84035,39.94823],[-91.84503,39.76344],[-91.84674,39.65851],[-91.71525,39.65764],[-91.7155,39.68649],[-91.55672,39.68533],[-91.38755,39.68541],[-91.30668,39.68488],[-91.35275,39.71528],[-91.37001,39.73252],[-91.36512,39.75872],[-91.36174,39.78508],[-91.36797,39.8004],[-91.37797,39.81127],[-91.42952,39.8378],[-91.43605,39.84551],[-91.44784,39.87795],[-91.44351,39.89358],[-91.42088,39.91487],[-91.42183,39.93297],[-91.43548,39.94528],[-91.62516,39.94714],[-91.84035,39.94823]]]},"properties":{"county":"Marion","geoid":"29127"}},
{"type":"Feature","geometry":{"type":"Polygon","coordinates":[[[-91.94975,40.30083],[-91.95081,40.25721],[-91.88375,40.25583],[-91.78142,40.25498],[-91.72229,40.25312],[-91.54768,40.24941],[-91.49726,40.24876],[-91.49052,40.2595],[-91.49273,40.27822],[-91.47183,40.31734],[-91.46214,40.34241],[-91.44483,40.36317],[-91.41942,40.37826],[-91.44124,40.38626],[-91.45163,40.37602],[-91.46301,40.38404],[-91.48025,40.38178],[-91.49809,40.40193],[-91.52461,40.41077],[-91.52655,40.41987],[-91.51901,40.4313],[-91.53355,40.4408],[-91.52405,40.44844],[-91.5286,40.459],[-91.56384,40.46099],[-91.58035,40.47102],[-91.58688,40.48723],[-91.59464,40.495],[-91.61695,40.50479],[-91.6222,40.51704],[-91.619,40.53908],[-91.62516,40.5435],[-91.68171,40.55304],[-91.6908,40.55989],[-91.68572,40.57679],[-91.68882,40.58341],[-91.71677,40.59853],[-91.72911,40.61364],[-91.8684,40.60806],[-91.94311,40.60584],[-91.94536,40.44595],[-91.94975,40.30083]]]},"properties":{"county":"Clark","geoid":"29045"}},
{"type":"Feature","geometry":{"type":"Polygon","coordinates":[[[-93.77434,40.57758],[-93.77455,40.47235],[-93.76482,40.47252],[-93.76355,40.36552],[-93.76332,40.26399],[-93.70767,40.2637],[-93.49918,40.26512],[-93.36721,40.26631],[-93.36693,40.383],[-93.36697,40.47179],[-93.37482,40.47255],[-93.37522,40.55265],[-93.37439,40.58033],[-93.44177,40.57992],[-93.5569,40.58024],[-93.65621,40.57835],[-93.77434,40.57758]]]},"properties":{"county":"Mercer","geoid":"29129"}},
{"type":"Feature","geometry":{"type":"Polygon","coordinates":[[[-93.611,36.92283],[-93.61293,36.82056],[-93.5738,36.82003],[-93.57642,36.73611],[-93.58068,36.62902],[-93.58426,36.4989],[-93.31532,36.49841],[-93.30956,36.73],[-93.30771,36.72998],[-93.30436,36.81687],[-93.34204,36.8173],[-93.33745,36.99249],[-93.50134,36.99408],[-93.61013,36.99581],[-93.611,36.92283]]]},"properties":{"county":"Stone","geoid":"29209"}},
{"type":"Feature","geometry":{"type":"Polygon","coordinates":[[[-92.12039,36.49886],[-91.9858,36.49843],[-91.67234,36.49946],[-91.6723,36.6066],[-91.67833,36.62506],[-91.67424,36.78783],[-91.66002,36.78753],[-91.65823,36.8407],[-91.65811,36.88872],[-91.65634,36.96063],[-91.65561,37.04892],[-91.87506,37.0507],[-91.9808,37.05564],[-92.08871,37.05625],[-92.09347,36.86998],[-92.09598,36.79401],[-92.11235,36.79423],[-92.1136,36.76244],[-92.11707,36.61878],[-92.12039,36.49886]]]},"properties":{"county":"Howell","geoid":"29091"}},
{"type":"Feature","geometry":{"type":"Polygon","coordinates":[[[-94.61831,36.76656],[-94.61802,36.66792],[-94.61792,36.49941],[-94.51948,36.49921],[-94.3612,36.4996],[-94.11067,36.49859],[-94.07709,36.49873],[-94.07095,36.65289],[-94.0714,36.6612],[-94.06714,36.74774],[-94.0689,36.74782],[-94.28147,36.75488],[-94.61831,36.76656]]]},"properties":{"county":"McDonald","geoid":"29119"}},
{"type":"Feature","geometry":{"type":"Polygon","coordinates":[[[-94.61758,37.65358],[-94.61679,37.52151],[-94.61754,37.36417],[-94.51687,37.36124],[-94.456,37.35832],[-94.28309,37.35384],[-94.08208,37.34929],[-94.08079,37.37804],[-94.07538,37.58157],[-94.07352,37.63972],[-94.16384,37.64358],[-94.28396,37.64693],[-94.55694,37.65264],[-94.61758,37.65358]]]},"properties":{"county":"Barton","geoid":"29011"}},
{"type":"Feature","geometry":{"type":"Polygon","coordinates":[[[-94.05921,37.04813],[-94.06274,36.93178],[-93.93625,36.92893],[-93.71915,36.92565],[-93.611,36.92283],[-93.61013,36.99581],[-93.6089,37.09815],[-93.60509,37.28148],[-93.62584,37.28201],[-93.8373,37.28643],[-93.94506,37.28785],[-94.05231,37.29008],[-94.05921,37.04813]]]},"properties":{"county":"Lawrence","geoid":"29109"}},
{"type":"Feature","geometry":{"type":"Polygon","coordinates":[[[-93.62115,37.42742],[-93.62584,37.28201],[-93.60509,37.28148],[-93.6089,37.09815],[-93.26398,37.09375],[-93.17317,37.09089],[-93.06527,37.08869],[-93.06154,37.26983],[-93.07678,37.27041],[-93.07338,37.41499],[-93.18249,37.4172],[-93.32759,37.42054],[-93.46193,37.42447],[-93.62115,37.42742]]]},"properties":{"county":"Greene","geoid":"29077"}},
{"type":"Feature","geometry":{"type":"Polygon","coordinates":[[[-95.04308,40.1301],[-95.0368,40.11556],[-95.04425,40.09829],[-95.04349,40.07845],[-95.05907,40.07474],[-95.05869,40.0661],[-95.03941,40.05974],[-95.03684,40.04613],[-95.02051,40.05203],[-95.01054,40.04676],[-95.01002,40.02279],[-95.00413,39.99723],[-95.0053,39.98028],[-94.99629,39.97],[-95.00301,39.95834],[-94.99239,39.95552],[-94.98881,39.94274],[-95.00543,39.92743],[-94.99339,39.91503],[-94.99341,39.89779],[-94.95928,39.90167],[-94.94387,39.89813],[-94.9279,39.88611],[-94.93146,39.8726],[-94.94257,39.8566],[-94.93765,39.84979],[-94.91692,39.83614],[-94.89268,39.83438],[-94.87659,39.82088],[-94.80548,39.82132],[-94.60283,39.81991],[-94.60401,39.87816],[-94.60538,40.03922],[-94.60594,40.12613],[-94.78498,40.12702],[-95.04308,40.1301]]]},"properties":{"county":"Andrew","geoid":"29003"}},
{"type":"Feature","geometry":{"type":"Polygon","coordinates":[[[-90.64513,37.73481],[-90.64787,37.64281],[-90.53502,37.64364],[-90.45358,37.64275],[-90.21948,37.64114],[-90.14678,37.64162],[-90.11054,37.67134],[-90.15419,37.69977],[-90.20021,37.66963],[-90.25928,37.71791],[-90.34833,37.7935],[-90.45913,37.87892],[-90.32287,37.98173],[-90.41602,38.04232],[-90.41695,38.0427],[-90.58332,38.0035],[-90.62808,38.00774],[-90.61275,38.01702],[-90.62151,38.04036],[-90.62113,38.05206],[-90.61217,38.07008],[-90.62521,38.07604],[-90.63998,38.07655],[-90.64159,37.93573],[-90.64513,37.73481]]]},"properties":{"county":"St. Francois","geoid":"29187"}},
{"type":"Feature","geometry":{"type":"Polygon","coordinates":[[[-94.2167,40.13663],[-94.2188,40.03489],[-94.20346,40.03454],[-94.2053,39.9018],[-94.20584,39.78895],[-94.0932,39.78585],[-94.0263,39.78558],[-93.87053,39.7868],[-93.75899,39.78467],[-93.76197,39.95955],[-93.76492,40.10202],[-93.76402,40.13291],[-93.9901,40.13399],[-94.10371,40.13466],[-94.2167,40.13663]]]},"properties":{"county":"Daviess","geoid":"29061"}},
{"type":"Feature","geometry":{"type":"Polygon","coordinates":[[[-92.69215,39.61027],[-92.69659,39.61037],[-92.70737,39.32161],[-92.43023,39.2488],[-92.31447,39.24645],[-92.31003,39.3478],[-92.30087,39.60535],[-92.49516,39.60765],[-92.69215,39.61027]]]},"properties":{"county":"Randolph","geoid":"29175"}},
{"type":"Feature","geometry":{"type":"Polygon","coordinates":[[[-92.30087,39.60535],[-92.31003,39.3478],[-92.10074,39.34093],[-91.99204,39.33999],[-91.90737,39.33832],[-91.81617,39.33791],[-91.71797,39.33912],[-91.71353,39.4992],[-91.71193,39.5991],[-91.71626,39.59945],[-91.71525,39.65764],[-91.84674,39.65851],[-92.03532,39.66043],[-92.18499,39.66293],[-92.18669,39.60408],[-92.29932,39.60534],[-92.30087,39.60535]]]},"properties":{"county":"Monroe","geoid":"29137"}},
{"type":"Feature","geometry":{"type":"Polygon","coordinates":[[[-92.3478,40.30276],[-92.34862,40.21583],[-92.34645,40.21589],[-92.34506,40.03721],[-92.34294,40.03716],[-92.34471,39.9533],[-92.28788,39.95249],[-92.17733,39.95449],[-92.03779,39.9506],[-91.95273,39.94943],[-91.94997,40.12316],[-91.94724,40.2138],[-91.95166,40.21395],[-91.95081,40.25721],[-91.94975,40.30083],[-92.17859,40.3042],[-92.3478,40.30276]]]},"properties":{"county":"Knox","geoid":"29103"}},
{"type":"Feature","geometry":{"type":"Polygon","coordinates":[[[-91.09576,38.20408],[-91.09573,38.12505],[-91.09431,38.08198],[-91.09395,38.00127],[-91.09553,37.9033],[-91.10002,37.74001],[-90.96527,37.73852],[-90.87413,37.7342],[-90.76195,37.73718],[-90.64513,37.73481],[-90.64159,37.93573],[-90.63998,38.07655],[-90.67769,38.08694],[-90.6814,38.10268],[-90.78018,38.20411],[-90.85831,38.2051],[-90.97019,38.20551],[-90.98964,38.2043],[-91.09576,38.20408]]]},"properties":{"county":"Washington","geoid":"29221"}},
{"type":"Feature","geometry":{"type":"Polygon","coordinates":[[[-91.22283,36.88386],[-91.22482,36.82568],[-91.11593,36.82367],[-91.02533,36.82215],[-91.00774,36.82008],[-90.94683,36.81795],[-90.94673,36.81525],[-90.89572,36.81285],[-90.75396,36.81169],[-90.66262,36.81145],[-90.66124,36.88291],[-90.67973,36.88311],[-90.67856,36.92649],[-90.69689,36.92719],[-90.69542,36.97075],[-90.71342,36.97105],[-90.71299,37.00037],[-90.73094,37.0004],[-90.72972,37.04953],[-90.77955,37.05032],[-90.96447,37.05358],[-90.96356,37.09736],[-90.99999,37.09765],[-91.01777,37.09568],[-91.06674,37.09378],[-91.07251,37.08895],[-91.10974,37.08406],[-91.21715,37.0862],[-91.22283,36.88386]]]},"properties":{"county":"Carter","geoid":"29035"}},
{"type":"Feature","geometry":{"type":"Polygon","coordinates":[[[-90.21766,37.31497],[-90.22051,37.16785],[-90.22323,37.08652],[-90.11035,37.08587],[-90.11125,37.04121],[-89.99572,37.04011],[-89.99585,37.05473],[-89.9592,37.05438],[-89.95957,37.12725],[-89.86663,37.12623],[-89.8668,37.21898],[-89.86326,37.21904],[-89.86221,37.31066],[-89.86247,37.49645],[-89.86112,37.59929],[-90.00021,37.59801],[-90.09176,37.59828],[-90.14676,37.59743],[-90.13854,37.54122],[-90.14147,37.50006],[-90.14392,37.49648],[-90.1437,37.4651],[-90.14581,37.36677],[-90.1457,37.31209],[-90.21766,37.31497]]]},"properties":{"county":"Bollinger","geoid":"29017"}},
{"type":"Feature","geometry":{"type":"Polygon","coordinates":[[[-91.65811,36.88872],[-91.65823,36.8407],[-91.66002,36.78753],[-91.67424,36.78783],[-91.67833,36.62506],[-91.6723,36.6066],[-91.67234,36.49946],[-91.53687,36.49916],[-91.45002,36.49756],[-91.40687,36.49712],[-91.12653,36.49771],[-91.11962,36.78008],[-91.11593,36.82367],[-91.22482,36.82568],[-91.22283,36.88386],[-91.25013,36.88515],[-91.37514,36.88539],[-91.49315,36.88606],[-91.58174,36.88805],[-91.65811,36.88872]]]},"properties":{"county":"Oregon","geoid":"29149"}},
{"type":"Feature","geometry":{"type":"Polygon","coordinates":[[[-89.31327,37.00956],[-89.3472,37.00911],[-89.3473,37.00198],[-89.37431,36.99429],[-89.37506,36.96495],[-89.41129,36.96479],[-89.41148,36.95014],[-89.4299,36.95026],[-89.42995,36.93561],[-89.46539,36.93573],[-89.46523,36.90624],[-89.50153,36.90626],[-89.50151,36.87693],[-89.51986,36.87694],[-89.51981,36.86962],[-89.5197,36.8479],[-89.50209,36.84757],[-89.50204,36.8328],[-89.48339,36.83281],[-89.48323,36.81782],[-89.47211,36.81777],[-89.47256,36.80335],[-89.46359,36.8033],[-89.46323,36.78892],[-89.44561,36.78931],[-89.44589,36.76765],[-89.42807,36.76072],[-89.42795,36.74652],[-89.4007,36.72999],[-89.39167,36.71738],[-89.39146,36.70291],[-89.37374,36.70295],[-89.37317,36.68825],[-89.36412,36.68818],[-89.36433,36.67401],[-89.34619,36.66678],[-89.34597,36.65182],[-89.32748,36.64497],[-89.32759,36.63219],[-89.3134,36.62012],[-89.29464,36.59373],[-89.26806,36.56891],[-89.25832,36.56495],[-89.22732,36.56938],[-89.21356,36.58012],[-89.20261,36.60158],[-89.19765,36.62894],[-89.17468,36.65047],[-89.15908,36.66635],[-89.16872,36.67189],[-89.16952,36.68888],[-89.19948,36.71605],[-89.19781,36.73941],[-89.18452,36.75364],[-89.16689,36.75963],[-89.15699,36.75597],[-89.12613,36.75173],[-89.1192,36.7598],[-89.11685,36.77561],[-89.12348,36.78526],[-89.15589,36.78913],[-89.17107,36.79812],[-89.17742,36.80727],[-89.17889,36.83137],[-89.17342,36.83981],[-89.15351,36.8466],[-89.13797,36.84735],[-89.11757,36.88736],[-89.10938,36.92007],[-89.10076,36.944],[-89.09959,36.96454],[-89.1183,36.98188],[-89.13268,36.9822],[-89.17001,36.9703],[-89.18549,36.97352],[-89.1921,36.98],[-89.19849,37.01172],[-89.20504,37.02005],[-89.23405,37.03728],[-89.25493,37.07201],[-89.25994,37.06407],[-89.30773,37.06965],[-89.31082,37.0579],[-89.30137,37.04498],[-89.27771,37.03614],[-89.26,37.02329],[-89.25761,37.0155],[-89.26624,36.9963],[-89.27863,36.98867],[-89.29213,36.99219],[-89.31327,37.00956]]]},"properties":{"county":"Mississippi","geoid":"29133"}},
{"type":"Feature","geometry":{"type":"Polygon","coordinates":[[[-91.71797,39.33912],[-91.71847,39.32451],[-91.62431,39.32421],[-91.49886,39.32108],[-91.43823,39.31872],[-91.46044,39.45072],[-91.37515,39.49963],[-91.36713,39.50271],[-91.20371,39.59836],[-91.17801,39.5982],[-91.18592,39.60512],[-91.21664,39.61512],[-91.24122,39.63007],[-91.27614,39.66576],[-91.30248,39.67963],[-91.30668,39.68488],[-91.38755,39.68541],[-91.55672,39.68533],[-91.7155,39.68649],[-91.71525,39.65764],[-91.71626,39.59945],[-91.71193,39.5991],[-91.71353,39.4992],[-91.71797,39.33912]]]},"properties":{"county":"Ralls","geoid":"29173"}},
{"type":"Feature","geometry":{"type":"Polygon","coordinates":[[[-90.16671,38.77227],[-90.18418,38.77429],[-90.18505,38.76483],[-90.19742,38.74924],[-90.22178,38.73013],[-90.25177,38.71885],[-90.30183,38.65564],[-90.31085,38.61821],[-90.32051,38.59415],[-90.31358,38.57877],[-90.29702,38.56237],[-90.27225,38.54817],[-90.27103,38.53868],[-90.25777,38.53201],[-90.22421,38.57505],[-90.20251,38.58865],[-90.19181,38.59895],[-90.17881,38.62915],[-90.18124,38.66006],[-90.18641,38.67475],[-90.20921,38.70275],[-90.21201,38.71175],[-90.20521,38.73215],[-90.18341,38.74685],[-90.16671,38.77227]]]},"properties":{"county":"St. Louis","geoid":"29510"}},
{"type":"Feature","geometry":{"type":"Polygon","coordinates":[[[-95.76564,40.58521],[-95.77355,40.5782],[-95.76362,40.5483],[-95.76928,40.53666],[-95.75711,40.52599],[-95.73725,40.52393],[-95.72244,40.52812],[-95.70997,40.5238],[-95.69721,40.52848],[-95.69415,40.55694],[-95.67175,40.56263],[-95.65226,40.53811],[-95.66169,40.51731],[-95.69997,40.50527],[-95.69473,40.4936],[-95.69313,40.4694],[-95.67174,40.4567],[-95.65819,40.44188],[-95.65629,40.42877],[-95.66146,40.41595],[-95.64393,40.38685],[-95.64241,40.36983],[-95.62712,40.3528],[-95.6227,40.34086],[-95.63381,40.3293],[-95.65373,40.32258],[-95.65733,40.31086],[-95.64533,40.30569],[-95.61044,40.31397],[-95.58179,40.29958],[-95.56814,40.29913],[-95.55329,40.29116],[-95.55482,40.26446],[-95.40862,40.26308],[-95.20902,40.26229],[-95.18061,40.26171],[-95.17761,40.39219],[-95.17771,40.4789],[-95.20202,40.47914],[-95.20226,40.57853],[-95.37392,40.5805],[-95.52539,40.58209],[-95.64184,40.58423],[-95.76564,40.58521]]]},"properties":{"county":"Atchison","geoid":"29005"}},
{"type":"Feature","geometry":{"type":"Polygon","coordinates":[[[-95.20226,40.57853],[-95.20202,40.47914],[-95.17771,40.4789],[-95.17761,40.39219],[-95.18061,40.26171],[-95.12389,40.26056],[-95.07159,40.26086],[-95.0736,40.24338],[-95.05788,40.23909],[-95.06683,40.22825],[-95.06385,40.20586],[-95.07353,40.19554],[-95.0712,40.17964],[-95.06355,40.17622],[-95.06338,40.15889],[-95.05601,40.13598],[-95.04308,40.1301],[-94.78498,40.12702],[-94.60594,40.12613],[-94.60335,40.27125],[-94.60144,40.30037],[-94.59849,40.38671],[-94.60864,40.38682],[-94.60841,40.47244],[-94.63189,40.47251],[-94.63203,40.57119],[-94.9149,40.57507],[-94.99166,40.57569],[-95.20226,40.57853]]]},"properties":{"county":"Nodaway","geoid":"29147"}},
{"type":"Feature","geometry":{"type":"Polygon","coordinates":[[[-94.61764,37.33842],[-94.61832,37.18877],[-94.61787,37.0568],[-94.49643,37.0548],[-94.25911,37.05294],[-94.05921,37.04813],[-94.05231,37.29008],[-94.08383,37.29085],[-94.08208,37.34929],[-94.28309,37.35384],[-94.456,37.35832],[-94.51687,37.36124],[-94.61754,37.36417],[-94.61764,37.33842]]]},"properties":{"county":"Jasper","geoid":"29097"}},
{"type":"Feature","geometry":{"type":"Polygon","coordinates":[[[-92.85538,37.89574],[-92.85812,37.82342],[-92.85991,37.72124],[-92.84628,37.72104],[-92.8481,37.67618],[-92.85348,37.48397],[-92.68667,37.48154],[-92.54317,37.47854],[-92.46821,37.4757],[-92.30616,37.47295],[-92.25226,37.47294],[-92.24946,37.60454],[-92.24894,37.64847],[-92.41157,37.71404],[-92.41366,37.71416],[-92.40923,37.85918],[-92.4255,37.85218],[-92.44946,37.83536],[-92.45295,37.82408],[-92.48035,37.82902],[-92.50147,37.82773],[-92.51351,37.81093],[-92.53168,37.81114],[-92.54907,37.80054],[-92.56532,37.80697],[-92.57158,37.82364],[-92.58538,37.82804],[-92.60008,37.84034],[-92.60128,37.84924],[-92.61468,37.86354],[-92.62018,37.89252],[-92.85538,37.89574]]]},"properties":{"county":"Laclede","geoid":"29105"}},
{"type":"Feature","geometry":{"type":"Polygon","coordinates":[[[-93.76197,39.95955],[-93.75899,39.78467],[-93.75836,39.61141],[-93.65711,39.61171],[-93.59076,39.61309],[-93.42176,39.61482],[-93.2781,39.61563],[-93.2618,39.62272],[-93.28342,39.65143],[-93.2746,39.65717],[-93.28589,39.66682],[-93.27857,39.69065],[-93.26697,39.70356],[-93.36481,39.7038],[-93.36328,39.8801],[-93.36142,39.88014],[-93.36196,39.96761],[-93.60534,39.96324],[-93.68867,39.96071],[-93.76197,39.95955]]]},"properties":{"county":"Livingston","geoid":"29117"}},
{"type":"Feature","geometry":{"type":"Polygon","coordinates":[[[-92.39487,38.73913],[-92.43371,38.61725],[-92.49518,38.42783],[-92.40348,38.42533],[-92.40841,38.34134],[-92.30263,38.33662],[-92.28878,38.33883],[-92.26848,38.32834],[-92.25018,38.32271],[-92.23297,38.32775],[-92.22468,38.33573],[-92.19448,38.33554],[-92.19318,38.37084],[-92.18072,38.37842],[-92.16058,38.37704],[-92.13338,38.38461],[-92.12178,38.39134],[-92.11498,38.40194],[-92.11938,38.41494],[-92.14929,38.43115],[-92.16094,38.44369],[-92.16888,38.46681],[-92.15159,38.47477],[-92.13026,38.46215],[-92.11627,38.45757],[-92.10067,38.45879],[-92.08194,38.46525],[-92.04349,38.46648],[-92.01507,38.48103],[-92.0087,38.50004],[-92.02518,38.52413],[-92.02891,38.5381],[-92.02586,38.55202],[-92.01411,38.55997],[-92.00898,38.5709],[-92.02577,38.56457],[-92.0681,38.55741],[-92.11057,38.56166],[-92.13902,38.56941],[-92.16933,38.58166],[-92.19888,38.6001],[-92.20304,38.60527],[-92.20237,38.62314],[-92.20983,38.63722],[-92.22066,38.64317],[-92.26219,38.64641],[-92.27581,38.65822],[-92.29337,38.66656],[-92.33729,38.67314],[-92.35781,38.67952],[-92.36143,38.69204],[-92.34326,38.70507],[-92.34572,38.71767],[-92.36022,38.73013],[-92.39487,38.73913]]]},"properties":{"county":"Cole","geoid":"29051"}},
{"type":"Feature","geometry":{"type":"Polygon","coordinates":[[[-92.68667,37.48154],[-92.69047,37.35065],[-92.6923,37.26351],[-92.67897,37.26315],[-92.68587,37.06705],[-92.63249,37.06655],[-92.54527,37.06413],[-92.47656,37.06298],[-92.30543,37.06125],[-92.25136,37.05965],[-92.24913,37.1318],[-92.24753,37.25008],[-92.25298,37.25484],[-92.25206,37.37188],[-92.25331,37.3774],[-92.25226,37.47294],[-92.30616,37.47295],[-92.46821,37.4757],[-92.54317,37.47854],[-92.68667,37.48154]]]},"properties":{"county":"Wright","geoid":"29229"}},
{"type":"Feature","geometry":{"type":"Polygon","coordinates":[[[-94.60226,39.7472],[-94.60212,39.61676],[-94.60121,39.53017],[-94.60082,39.45616],[-94.43524,39.45541],[-94.32648,39.4556],[-94.21064,39.45468],[-94.20842,39.5272],[-94.20769,39.54164],[-94.20582,39.70201],[-94.20596,39.74584],[-94.31859,39.7475],[-94.45146,39.74769],[-94.60226,39.7472]]]},"properties":{"county":"Clinton","geoid":"29049"}},
{"type":"Feature","geometry":{"type":"Polygon","coordinates":[[[-91.15507,37.58809],[-91.20944,37.58881],[-91.31246,37.59282],[-91.31424,37.50513],[-91.21098,37.50191],[-91.21186,37.41528],[-91.1754,37.41481],[-91.17616,37.31259],[-91.15843,37.31292],[-91.15932,37.25504],[-91.12315,37.2545],[-91.12529,37.24006],[-91.12603,37.19948],[-91.10719,37.20325],[-91.08826,37.20319],[-91.08886,37.17418],[-91.07063,37.17757],[-91.07105,37.16271],[-91.03435,37.16934],[-91.03514,37.14018],[-91.01716,37.14348],[-91.01777,37.09568],[-90.99999,37.09765],[-90.96356,37.09736],[-90.96447,37.05358],[-90.77955,37.05032],[-90.77903,37.13763],[-90.7568,37.13774],[-90.75587,37.16672],[-90.73715,37.16641],[-90.73486,37.21002],[-90.73616,37.2271],[-90.73545,37.27104],[-90.75363,37.27011],[-90.74972,37.3728],[-90.77295,37.37366],[-90.77023,37.54945],[-90.76869,37.60301],[-90.79101,37.60212],[-90.98678,37.60385],[-91.08098,37.58993],[-91.10066,37.58776],[-91.15507,37.58809]]]},"properties":{"county":"Reynolds","geoid":"29179"}},
{"type":"Feature","geometry":{"type":"Polygon","coordinates":[[[-94.21064,39.45468],[-94.21227,39.2946],[-94.21251,39.20709],[-94.18889,39.21346],[-94.17352,39.21383],[-94.17024,39.20449],[-94.18401,39.19044],[-94.18584,39.18103],[-94.14715,39.17518],[-94.12992,39.1689],[-94.11403,39.14971],[-94.10482,39.14351],[-94.08713,39.13554],[-94.06246,39.13428],[-94.04557,39.14084],[-94.02421,39.15454],[-94.02571,39.165],[-94.03547,39.1775],[-94.02882,39.1916],[-93.9774,39.20549],[-93.96178,39.19212],[-93.96244,39.18337],[-93.98336,39.16852],[-93.98889,39.15279],[-93.97909,39.14547],[-93.96115,39.14356],[-93.94241,39.15808],[-93.94436,39.17022],[-93.93229,39.18376],[-93.89942,39.18454],[-93.87522,39.20408],[-93.86125,39.21075],[-93.84015,39.21547],[-93.81851,39.21366],[-93.78849,39.20103],[-93.75846,39.20702],[-93.75901,39.31334],[-93.75918,39.52456],[-93.8702,39.52587],[-93.98457,39.5244],[-94.20842,39.5272],[-94.21064,39.45468]]]},"properties":{"county":"Ray","geoid":"29177"}},
{"type":"Feature","geometry":{"type":"Polygon","coordinates":[[[-91.634,39.05906],[-91.63906,38.93932],[-91.64345,38.82018],[-91.64717,38.7034],[-91.64037,38.70379],[-91.62517,38.70073],[-91.58766,38.68218],[-91.55818,38.67663],[-91.54531,38.67688],[-91.52272,38.68824],[-91.5026,38.695],[-91.49653,38.70946],[-91.4851,38.71331],[-91.4576,38.70627],[-91.41864,38.70978],[-91.41583,38.8453],[-91.36487,38.84451],[-91.31378,38.84529],[-91.26493,38.84383],[-91.26527,38.87474],[-91.26364,38.95646],[-91.26429,38.99276],[-91.26023,39.13985],[-91.40903,39.14254],[-91.48494,39.14486],[-91.6296,39.14785],[-91.634,39.05906]]]},"properties":{"county":"Montgomery","geoid":"29139"}},
{"type":"Feature","geometry":{"type":"Polygon","coordinates":[[[-94.1191,38.83317],[-94.12282,38.75788],[-94.12506,38.74432],[-94.12937,38.65586],[-94.11641,38.65552],[-94.11966,38.56871],[-94.06432,38.56738],[-93.93071,38.56443],[-93.7328,38.56134],[-93.51103,38.55621],[-93.50756,38.63579],[-93.50917,38.64496],[-93.50044,38.77282],[-93.49312,38.89916],[-93.49862,38.8993],[-93.49728,38.92843],[-93.6114,38.93211],[-93.77902,38.93584],[-93.83472,38.93791],[-93.83632,38.90871],[-93.9287,38.9121],[-94.11417,38.9173],[-94.11596,38.871],[-94.1191,38.83317]]]},"properties":{"county":"Johnson","geoid":"29101"}},
{"type":"Feature","geometry":{"type":"Polygon","coordinates":[[[-94.08208,37.34929],[-94.08383,37.29085],[-94.05231,37.29008],[-93.94506,37.28785],[-93.8373,37.28643],[-93.62584,37.28201],[-93.62115,37.42742],[-93.61603,37.57269],[-93.8376,37.57817],[-93.94701,37.57938],[-94.07538,37.58157],[-94.08079,37.37804],[-94.08208,37.34929]]]},"properties":{"county":"Dade","geoid":"29057"}},
{"type":"Feature","geometry":{"type":"Polygon","coordinates":[[[-92.31003,39.3478],[-92.31447,39.24645],[-92.19863,39.24235],[-92.10437,39.23981],[-92.11039,39.0642],[-91.97645,39.06204],[-91.77447,39.06079],[-91.634,39.05906],[-91.6296,39.14785],[-91.48494,39.14486],[-91.40903,39.14254],[-91.43823,39.31872],[-91.49886,39.32108],[-91.62431,39.32421],[-91.71847,39.32451],[-91.71797,39.33912],[-91.81617,39.33791],[-91.90737,39.33832],[-91.99204,39.33999],[-92.10074,39.34093],[-92.31003,39.3478]]]},"properties":{"county":"Audrain","geoid":"29007"}},
{"type":"Feature","geometry":{"type":"Polygon","coordinates":[[[-92.28788,39.95249],[-92.29245,39.79228],[-92.29692,39.69189],[-92.29932,39.60534],[-92.18669,39.60408],[-92.18499,39.66293],[-92.03532,39.66043],[-91.84674,39.65851],[-91.84503,39.76344],[-91.84035,39.94823],[-91.95273,39.94943],[-92.03779,39.9506],[-92.17733,39.95449],[-92.28788,39.95249]]]},"properties":{"county":"Shelby","geoid":"29205"}},
{"type":"Feature","geometry":{"type":"Polygon","coordinates":[[[-90.53502,37.64364],[-90.53507,37.59937],[-90.54741,37.59841],[-90.54672,37.50909],[-90.54973,37.31759],[-90.51217,37.31636],[-90.43854,37.31614],[-90.34624,37.31458],[-90.23635,37.31632],[-90.21766,37.31497],[-90.1457,37.31209],[-90.14581,37.36677],[-90.1437,37.4651],[-90.14392,37.49648],[-90.14147,37.50006],[-90.13854,37.54122],[-90.14676,37.59743],[-90.14678,37.64162],[-90.21948,37.64114],[-90.45358,37.64275],[-90.53502,37.64364]]]},"properties":{"county":"Madison","geoid":"29123"}},
{"type":"Feature","geometry":{"type":"Polygon","coordinates":[[[-90.73545,37.27104],[-90.73616,37.2271],[-90.73486,37.21002],[-90.73715,37.16641],[-90.75587,37.16672],[-90.7568,37.13774],[-90.77903,37.13763],[-90.77955,37.05032],[-90.72972,37.04953],[-90.73094,37.0004],[-90.71299,37.00037],[-90.71342,36.97105],[-90.69542,36.97075],[-90.69689,36.92719],[-90.67856,36.92649],[-90.63051,36.92617],[-90.52292,36.92687],[-90.42501,36.92594],[-90.35271,36.92605],[-90.25856,36.92204],[-90.24181,36.92181],[-90.24164,36.93594],[-90.2236,36.93576],[-90.22301,36.96465],[-90.20517,36.96455],[-90.20488,36.97878],[-90.18658,36.97868],[-90.18633,36.99335],[-90.16846,36.9932],[-90.16787,37.00765],[-90.14945,37.00744],[-90.14852,37.04144],[-90.11125,37.04121],[-90.11035,37.08587],[-90.22323,37.08652],[-90.22051,37.16785],[-90.21766,37.31497],[-90.23635,37.31632],[-90.34624,37.31458],[-90.43854,37.31614],[-90.51217,37.31636],[-90.54973,37.31759],[-90.5506,37.27261],[-90.58741,37.27334],[-90.64232,37.27221],[-90.66177,37.27477],[-90.73545,37.27104]]]},"properties":{"county":"Wayne","geoid":"29223"}},
{"type":"Feature","geometry":{"type":"Polygon","coordinates":[[[-91.65561,37.04892],[-91.65634,36.96063],[-91.65811,36.88872],[-91.58174,36.88805],[-91.49315,36.88606],[-91.37514,36.88539],[-91.25013,36.88515],[-91.22283,36.88386],[-91.21715,37.0862],[-91.10974,37.08406],[-91.07251,37.08895],[-91.06674,37.09378],[-91.01777,37.09568],[-91.01716,37.14348],[-91.03514,37.14018],[-91.03435,37.16934],[-91.07105,37.16271],[-91.07063,37.17757],[-91.08886,37.17418],[-91.08826,37.20319],[-91.10719,37.20325],[-91.12603,37.19948],[-91.12529,37.24006],[-91.12315,37.2545],[-91.15932,37.25504],[-91.15843,37.31292],[-91.17616,37.31259],[-91.1754,37.41481],[-91.21186,37.41528],[-91.37084,37.41822],[-91.42732,37.41804],[-91.64663,37.42273],[-91.64769,37.24833],[-91.65158,37.24835],[-91.65334,37.18512],[-91.65561,37.04892]]]},"properties":{"county":"Shannon","geoid":"29203"}},
{"type":"Feature","geometry":{"type":"Polygon","coordinates":[[[-91.11593,36.82367],[-91.11962,36.78008],[-91.12653,36.49771],[-90.96065,36.49843],[-90.78424,36.49852],[-90.57618,36.49845],[-90.57476,36.59185],[-90.593,36.59245],[-90.59217,36.67937],[-90.62839,36.67954],[-90.62752,36.81095],[-90.66262,36.81145],[-90.75396,36.81169],[-90.89572,36.81285],[-90.94673,36.81525],[-90.94683,36.81795],[-91.00774,36.82008],[-91.02533,36.82215],[-91.11593,36.82367]]]},"properties":{"county":"Ripley","geoid":"29181"}},
{"type":"Feature","geometry":{"type":"Polygon","coordinates":[[[-90.41602,38.04232],[-90.32287,37.98173],[-90.45913,37.87892],[-90.34833,37.7935],[-90.25928,37.71791],[-90.20021,37.66963],[-90.15419,37.69977],[-90.11054,37.67134],[-90.05152,37.7495],[-89.99992,37.82152],[-89.93819,37.87511],[-89.9525,37.88322],[-89.97422,37.91922],[-89.97492,37.92672],[-89.95965,37.9402],[-89.94743,37.94034],[-89.92539,37.95413],[-89.93586,37.95957],[-89.94075,37.97104],[-89.9642,37.96457],[-89.98866,37.96181],[-90.00533,37.96801],[-90.03561,37.9977],[-90.05243,38.00615],[-90.05937,38.01554],[-90.09377,38.01783],[-90.11052,38.02655],[-90.12619,38.0407],[-90.13079,38.06234],[-90.15785,38.0748],[-90.17222,38.06964],[-90.20535,38.08666],[-90.24312,38.11267],[-90.25266,38.12781],[-90.25242,38.11838],[-90.26206,38.1079],[-90.28165,38.10339],[-90.29311,38.08941],[-90.32939,38.09436],[-90.41602,38.04232]]]},"properties":{"county":"Ste. Genevieve","geoid":"29186"}},
{"type":"Feature","geometry":{"type":"Polygon","coordinates":[[[-95.05339,39.61532],[-95.04644,39.60161],[-95.0569,39.58057],[-95.07669,39.57676],[-95.08951,39.58103],[-95.10745,39.57384],[-95.11356,39.55394],[-95.10289,39.53335],[-94.994,39.53313],[-94.76012,39.53152],[-94.60121,39.53017],[-94.60212,39.61676],[-94.60226,39.7472],[-94.60283,39.81991],[-94.80548,39.82132],[-94.87659,39.82088],[-94.87634,39.80689],[-94.88408,39.79423],[-94.89296,39.7911],[-94.9256,39.78975],[-94.93426,39.77364],[-94.91679,39.76094],[-94.89916,39.76126],[-94.88142,39.77126],[-94.86714,39.77169],[-94.86074,39.76309],[-94.86294,39.74299],[-94.87564,39.73049],[-94.90261,39.7242],[-94.91832,39.72879],[-94.93922,39.74158],[-94.95529,39.74569],[-94.97042,39.73212],[-94.96898,39.69295],[-94.98415,39.67785],[-95.00902,39.67577],[-95.02764,39.66545],[-95.04952,39.63788],[-95.05339,39.61532]]]},"properties":{"county":"Buchanan","geoid":"29021"}},
{"type":"Feature","geometry":{"type":"Polygon","coordinates":[[[-94.10482,39.14351],[-94.11417,38.9173],[-93.9287,38.9121],[-93.83632,38.90871],[-93.83472,38.93791],[-93.77902,38.93584],[-93.6114,38.93211],[-93.49728,38.92843],[-93.49638,38.94284],[-93.48103,39.23225],[-93.47723,39.2928],[-93.48989,39.28515],[-93.49622,39.26489],[-93.48761,39.23834],[-93.48788,39.22888],[-93.50021,39.21801],[-93.51606,39.21529],[-93.54405,39.21576],[-93.56319,39.22002],[-93.58495,39.24043],[-93.62836,39.24316],[-93.65053,39.24821],[-93.6619,39.23578],[-93.68159,39.23124],[-93.70006,39.20973],[-93.71121,39.20626],[-93.73896,39.20966],[-93.75846,39.20702],[-93.78849,39.20103],[-93.81851,39.21366],[-93.84015,39.21547],[-93.86125,39.21075],[-93.87522,39.20408],[-93.89942,39.18454],[-93.93229,39.18376],[-93.94436,39.17022],[-93.94241,39.15808],[-93.96115,39.14356],[-93.97909,39.14547],[-93.98889,39.15279],[-93.98336,39.16852],[-93.96244,39.18337],[-93.96178,39.19212],[-93.9774,39.20549],[-94.02882,39.1916],[-94.03547,39.1775],[-94.02571,39.165],[-94.02421,39.15454],[-94.04557,39.14084],[-94.06246,39.13428],[-94.08713,39.13554],[-94.10482,39.14351]]]},"properties":{"county":"Lafayette","geoid":"29107"}},
{"type":"Feature","geometry":{"type":"Polygon","coordinates":[[[-93.05045,38.92824],[-93.0545,38.81712],[-93.05997,38.69308],[-92.9505,38.68603],[-92.83984,38.68397],[-92.72671,38.68314],[-92.61715,38.68001],[-92.61665,38.69447],[-92.59498,38.73761],[-92.52053,38.88166],[-92.49838,38.92208],[-92.51499,38.93811],[-92.54012,38.95372],[-92.55809,38.97069],[-92.58745,38.96778],[-92.61229,38.96975],[-92.65593,38.97666],[-92.693,38.97596],[-92.71942,38.98426],[-92.75444,38.9792],[-92.77422,38.97218],[-92.79181,38.97204],[-92.82039,38.97831],[-92.84162,38.97982],[-92.86185,38.98712],[-92.87605,39.00084],[-92.90255,39.01111],[-92.91448,39.02119],[-92.93457,39.06455],[-93.04824,38.9726],[-93.05045,38.92824]]]},"properties":{"county":"Cooper","geoid":"29053"}},
{"type":"Feature","geometry":{"type":"Polygon","coordinates":[[[-93.6284,37.82943],[-93.63244,37.7423],[-93.60949,37.74176],[-93.61603,37.57269],[-93.62115,37.42742],[-93.46193,37.42447],[-93.32759,37.42054],[-93.18249,37.4172],[-93.17955,37.53349],[-93.17318,37.72966],[-93.19138,37.73001],[-93.18791,37.80274],[-93.29372,37.80479],[-93.45831,37.81024],[-93.5741,37.81334],[-93.5732,37.82804],[-93.6284,37.82943]]]},"properties":{"county":"Polk","geoid":"29167"}},
{"type":"Feature","geometry":{"type":"Polygon","coordinates":[[[-92.19448,38.33554],[-92.19567,38.29224],[-92.00082,38.2883],[-91.97262,38.28963],[-91.88399,38.2899],[-91.86312,38.29361],[-91.77535,38.29204],[-91.75732,38.28872],[-91.64473,38.28851],[-91.64449,38.3773],[-91.64242,38.50518],[-91.64037,38.70379],[-91.64717,38.7034],[-91.6655,38.70198],[-91.69002,38.7069],[-91.73229,38.70589],[-91.75973,38.68516],[-91.78186,38.68215],[-91.81444,38.68184],[-91.85487,38.67034],[-91.86949,38.66394],[-91.88523,38.64822],[-91.89375,38.63409],[-91.94394,38.59707],[-91.98202,38.58764],[-92.00898,38.5709],[-92.01411,38.55997],[-92.02586,38.55202],[-92.02891,38.5381],[-92.02518,38.52413],[-92.0087,38.50004],[-92.01507,38.48103],[-92.04349,38.46648],[-92.08194,38.46525],[-92.10067,38.45879],[-92.11627,38.45757],[-92.13026,38.46215],[-92.15159,38.47477],[-92.16888,38.46681],[-92.16094,38.44369],[-92.14929,38.43115],[-92.11938,38.41494],[-92.11498,38.40194],[-92.12178,38.39134],[-92.13338,38.38461],[-92.16058,38.37704],[-92.18072,38.37842],[-92.19318,38.37084],[-92.19448,38.33554]]]},"properties":{"county":"Osage","geoid":"29151"}},
{"type":"Feature","geometry":{"type":"Polygon","coordinates":[[[-92.02116,38.01064],[-92.02246,37.88074],[-92.02682,37.70705],[-92.02856,37.70684],[-92.02926,37.60254],[-91.99255,37.60224],[-91.86268,37.59887],[-91.8091,37.59886],[-91.80818,37.70425],[-91.80671,37.70424],[-91.80622,37.79129],[-91.71152,37.79106],[-91.5288,37.78899],[-91.52639,37.94143],[-91.52502,38.15243],[-91.53438,38.15259],[-91.63055,38.15352],[-91.63243,38.05095],[-91.75335,38.05324],[-91.77446,38.05239],[-91.89513,38.0512],[-91.93525,38.03087],[-91.94185,38.04159],[-91.9583,38.03632],[-91.96633,38.00968],[-92.02116,38.01064]]]},"properties":{"county":"Phelps","geoid":"29161"}},
{"type":"Feature","geometry":{"type":"Polygon","coordinates":[[[-91.36748,38.20974],[-91.53533,38.21094],[-91.53438,38.15259],[-91.52502,38.15243],[-91.52639,37.94143],[-91.5288,37.78899],[-91.41876,37.78845],[-91.30831,37.78719],[-91.31065,37.70005],[-91.15334,37.69734],[-91.14697,37.6972],[-91.14652,37.74081],[-91.10002,37.74001],[-91.09553,37.9033],[-91.09395,38.00127],[-91.09431,38.08198],[-91.09573,38.12505],[-91.09576,38.20408],[-91.36763,38.20401],[-91.36748,38.20974]]]},"properties":{"county":"Crawford","geoid":"29055"}},
{"type":"Feature","geometry":{"type":"Polygon","coordinates":[[[-94.06571,38.44709],[-94.07521,38.2145],[-94.04989,38.21399],[-93.75696,38.20612],[-93.55734,38.20107],[-93.57078,38.21541],[-93.55703,38.21967],[-93.53955,38.20686],[-93.52348,38.20722],[-93.52065,38.27252],[-93.51196,38.44681],[-93.51508,38.45452],[-93.51274,38.51248],[-93.51103,38.55621],[-93.7328,38.56134],[-93.93071,38.56443],[-94.06432,38.56738],[-94.06782,38.46602],[-94.06571,38.44709]]]},"properties":{"county":"Henry","geoid":"29083"}},
{"type":"Feature","geometry":{"type":"Polygon","coordinates":[[[-93.07338,37.41499],[-93.07678,37.27041],[-93.06154,37.26983],[-93.06527,37.08869],[-92.99363,37.08767],[-92.90292,37.08522],[-92.90327,37.07065],[-92.84908,37.06876],[-92.68587,37.06705],[-92.67897,37.26315],[-92.6923,37.26351],[-92.69047,37.35065],[-92.68667,37.48154],[-92.85348,37.48397],[-92.97992,37.48571],[-93.07158,37.48744],[-93.07338,37.41499]]]},"properties":{"county":"Webster","geoid":"29225"}},
{"type":"Feature","geometry":{"type":"Polygon","coordinates":[[[-93.18791,37.80274],[-93.19138,37.73001],[-93.17318,37.72966],[-93.17955,37.53349],[-93.18249,37.4172],[-93.07338,37.41499],[-93.07158,37.48744],[-92.97992,37.48571],[-92.85348,37.48397],[-92.8481,37.67618],[-92.84628,37.72104],[-92.85991,37.72124],[-92.85812,37.82342],[-92.85538,37.89574],[-92.98217,37.8994],[-93.07245,37.90263],[-93.18265,37.90423],[-93.18791,37.80274]]]},"properties":{"county":"Dallas","geoid":"29059"}},
{"type":"Feature","geometry":{"type":"Polygon","coordinates":[[[-94.61398,38.03706],[-94.61461,37.94436],[-94.61772,37.77297],[-94.61773,37.67311],[-94.61758,37.65358],[-94.55694,37.65264],[-94.28396,37.64693],[-94.16384,37.64358],[-94.07352,37.63972],[-94.06872,37.75557],[-94.07331,37.76056],[-94.06567,37.90099],[-94.05828,38.03663],[-94.08524,38.03247],[-94.09541,38.04071],[-94.10991,38.03732],[-94.1147,38.04703],[-94.13524,38.05812],[-94.16486,38.05122],[-94.19791,38.04016],[-94.20954,38.05216],[-94.21458,38.035],[-94.2252,38.02702],[-94.2443,38.02773],[-94.23766,38.04381],[-94.24064,38.05082],[-94.44472,38.05632],[-94.61405,38.06006],[-94.61398,38.03706]]]},"properties":{"county":"Vernon","geoid":"29217"}},
{"type":"Feature","geometry":{"type":"Polygon","coordinates":[[[-94.61796,36.99891],[-94.61831,36.76656],[-94.28147,36.75488],[-94.0689,36.74782],[-94.06501,36.83019],[-94.0662,36.84174],[-94.06274,36.93178],[-94.05921,37.04813],[-94.25911,37.05294],[-94.49643,37.0548],[-94.61787,37.0568],[-94.61796,36.99891]]]},"properties":{"county":"Newton","geoid":"29145"}},
{"type":"Feature","geometry":{"type":"Polygon","coordinates":[[[-91.95081,40.25721],[-91.95166,40.21395],[-91.94724,40.2138],[-91.94997,40.12316],[-91.95273,39.94943],[-91.84035,39.94823],[-91.62516,39.94714],[-91.43548,39.94528],[-91.44156,39.9513],[-91.49488,40.03645],[-91.48961,40.05744],[-91.49536,40.07095],[-91.51032,40.12799],[-91.51175,40.14709],[-91.50822,40.15767],[-91.51297,40.18106],[-91.50504,40.19993],[-91.5065,40.2363],[-91.49726,40.24876],[-91.54768,40.24941],[-91.72229,40.25312],[-91.78142,40.25498],[-91.88375,40.25583],[-91.95081,40.25721]]]},"properties":{"county":"Lewis","geoid":"29111"}},
{"type":"Feature","geometry":{"type":"Polygon","coordinates":[[[-92.84922,39.22622],[-92.86108,39.20015],[-92.87519,39.18701],[-92.89674,39.17591],[-92.9048,39.16616],[-92.90725,39.1445],[-92.92232,39.13092],[-92.94165,39.12589],[-92.94279,39.10353],[-92.90897,39.09555],[-92.90736,39.08421],[-92.91776,39.07358],[-92.93457,39.06455],[-92.91448,39.02119],[-92.90255,39.01111],[-92.87605,39.00084],[-92.86185,38.98712],[-92.84162,38.97982],[-92.82039,38.97831],[-92.79181,38.97204],[-92.77422,38.97218],[-92.75444,38.9792],[-92.71942,38.98426],[-92.693,38.97596],[-92.65593,38.97666],[-92.61229,38.96975],[-92.58745,38.96778],[-92.55809,38.97069],[-92.57016,38.97973],[-92.56199,39.00318],[-92.53571,39.04868],[-92.50104,39.11283],[-92.43023,39.2488],[-92.70737,39.32161],[-92.79037,39.34359],[-92.84922,39.22622]]]},"properties":{"county":"Howard","geoid":"29089"}},
{"type":"Feature","geometry":{"type":"Polygon","coordinates":[[[-89.96131,36.3888],[-89.96086,36.30862],[-89.96139,36.23515],[-89.95935,36.15559],[-89.95938,35.99902],[-89.73306,36.00081],[-89.70693,36.00098],[-89.69244,36.02051],[-89.68725,36.03405],[-89.68003,36.08249],[-89.6666,36.0958],[-89.6283,36.10685],[-89.60194,36.11947],[-89.594,36.12719],[-89.59221,36.15012],[-89.607,36.17118],[-89.62945,36.18538],[-89.67955,36.21591],[-89.70525,36.23657],[-89.69523,36.25277],[-89.67805,36.24828],[-89.65252,36.25069],[-89.63679,36.24808],[-89.61114,36.23927],[-89.58733,36.23948],[-89.55799,36.25104],[-89.54474,36.24748],[-89.53474,36.25258],[-89.53553,36.27054],[-89.5448,36.28046],[-89.55429,36.27775],[-89.57849,36.28832],[-89.61182,36.30909],[-89.62025,36.32301],[-89.61069,36.34044],[-89.58164,36.34236],[-89.54501,36.33681],[-89.54508,36.36],[-89.55394,36.36722],[-89.57141,36.37342],[-89.58372,36.38303],[-89.5923,36.40381],[-89.61102,36.41121],[-89.63974,36.40079],[-89.66056,36.39886],[-89.67771,36.40127],[-89.69579,36.41639],[-89.7255,36.42721],[-89.73814,36.42597],[-89.74517,36.41842],[-89.74584,36.40428],[-89.75215,36.3864],[-89.89468,36.38628],[-89.96131,36.3888]]]},"properties":{"county":"Pemiscot","geoid":"29155"}},
{"type":"Feature","geometry":{"type":"Polygon","coordinates":[[[-91.15334,37.69734],[-91.15507,37.58809],[-91.10066,37.58776],[-91.08098,37.58993],[-90.98678,37.60385],[-90.79101,37.60212],[-90.76869,37.60301],[-90.77023,37.54945],[-90.77295,37.37366],[-90.74972,37.3728],[-90.75363,37.27011],[-90.73545,37.27104],[-90.66177,37.27477],[-90.64232,37.27221],[-90.58741,37.27334],[-90.5506,37.27261],[-90.54973,37.31759],[-90.54672,37.50909],[-90.54741,37.59841],[-90.53507,37.59937],[-90.53502,37.64364],[-90.64787,37.64281],[-90.64513,37.73481],[-90.76195,37.73718],[-90.87413,37.7342],[-90.96527,37.73852],[-91.10002,37.74001],[-91.14652,37.74081],[-91.14697,37.6972],[-91.15334,37.69734]]]},"properties":{"county":"Iron","geoid":"29093"}},
{"type":"Feature","geometry":{"type":"Polygon","coordinates":[[[-93.30436,36.81687],[-93.30771,36.72998],[-93.30956,36.73],[-93.31532,36.49841],[-93.29312,36.49834],[-93.12597,36.49785],[-93.06845,36.49825],[-92.85401,36.49798],[-92.77233,36.49777],[-92.76772,36.68347],[-92.76487,36.8061],[-92.90934,36.80918],[-92.98202,36.81093],[-93.30436,36.81687]]]},"properties":{"county":"Taney","geoid":"29213"}},
{"type":"Feature","geometry":{"type":"Polygon","coordinates":[[[-91.17801,39.5982],[-91.20371,39.59836],[-91.36713,39.50271],[-91.37515,39.49963],[-91.46044,39.45072],[-91.43823,39.31872],[-91.40903,39.14254],[-91.26023,39.13985],[-91.18546,39.13905],[-91.18294,39.22723],[-91.07982,39.22517],[-91.00013,39.22445],[-90.89542,39.22508],[-90.78763,39.22395],[-90.72183,39.22411],[-90.72698,39.25117],[-90.73909,39.26189],[-90.7516,39.26543],[-90.76765,39.28003],[-90.77567,39.29281],[-90.79346,39.3095],[-90.81685,39.3205],[-90.84011,39.34044],[-90.85911,39.35137],[-90.89378,39.36734],[-90.908,39.38081],[-90.92098,39.38369],[-90.93678,39.39949],[-90.9483,39.4075],[-90.97246,39.41414],[-90.99379,39.42296],[-91.03827,39.44844],[-91.05944,39.46886],[-91.0643,39.49464],[-91.07531,39.50285],[-91.10031,39.53869],[-91.14827,39.5458],[-91.16842,39.56493],[-91.17801,39.5982]]]},"properties":{"county":"Pike","geoid":"29163"}},
{"type":"Feature","geometry":{"type":"Polygon","coordinates":[[[-92.76487,36.8061],[-92.76772,36.68347],[-92.77233,36.49777],[-92.56424,36.49824],[-92.52913,36.49861],[-92.35028,36.49779],[-92.15029,36.49863],[-92.12039,36.49886],[-92.11707,36.61878],[-92.1136,36.76244],[-92.11235,36.79423],[-92.36715,36.79933],[-92.48302,36.80102],[-92.76487,36.8061]]]},"properties":{"county":"Ozark","geoid":"29153"}},
{"type":"Feature","geometry":{"type":"Polygon","coordinates":[[[-94.23224,40.57191],[-94.23156,40.47036],[-94.21462,40.47046],[-94.21428,40.38425],[-94.21593,40.29672],[-94.2167,40.13663],[-94.10371,40.13466],[-93.9901,40.13399],[-93.76402,40.13291],[-93.76332,40.26399],[-93.76355,40.36552],[-93.76482,40.47252],[-93.77455,40.47235],[-93.77434,40.57758],[-94.01549,40.57391],[-94.08022,40.5729],[-94.23224,40.57191]]]},"properties":{"county":"Harrison","geoid":"29081"}},
{"type":"Feature","geometry":{"type":"Polygon","coordinates":[[[-92.25226,37.47294],[-92.25331,37.3774],[-92.25206,37.37188],[-92.25298,37.25484],[-92.24753,37.25008],[-92.24913,37.1318],[-92.25136,37.05965],[-92.08871,37.05625],[-91.9808,37.05564],[-91.87506,37.0507],[-91.65561,37.04892],[-91.65334,37.18512],[-91.65158,37.24835],[-91.64769,37.24833],[-91.64663,37.42273],[-91.75504,37.42411],[-91.75479,37.59877],[-91.8091,37.59886],[-91.86268,37.59887],[-91.99255,37.60224],[-92.02926,37.60254],[-92.18326,37.60524],[-92.24946,37.60454],[-92.25226,37.47294]]]},"properties":{"county":"Texas","geoid":"29215"}},
{"type":"Feature","geometry":{"type":"Polygon","coordinates":[[[-93.36196,39.96761],[-93.36142,39.88014],[-93.36328,39.8801],[-93.36481,39.7038],[-93.26697,39.70356],[-93.13534,39.70471],[-93.0828,39.70671],[-92.97103,39.70235],[-92.85792,39.69999],[-92.85613,39.78824],[-92.85045,39.94149],[-92.84748,40.0373],[-92.85619,40.03725],[-92.95947,40.03639],[-93.10846,40.037],[-93.36195,40.0331],[-93.36196,39.96761]]]},"properties":{"county":"Linn","geoid":"29115"}},
{"type":"Feature","geometry":{"type":"Polygon","coordinates":[[[-93.6089,37.09815],[-93.61013,36.99581],[-93.50134,36.99408],[-93.33745,36.99249],[-93.34204,36.8173],[-93.30436,36.81687],[-92.98202,36.81093],[-92.90934,36.80918],[-92.90578,36.94002],[-92.90327,37.07065],[-92.90292,37.08522],[-92.99363,37.08767],[-93.06527,37.08869],[-93.17317,37.09089],[-93.26398,37.09375],[-93.6089,37.09815]]]},"properties":{"county":"Christian","geoid":"29043"}},
{"type":"Feature","geometry":{"type":"Polygon","coordinates":[[[-93.06729,38.53],[-93.07205,38.44227],[-93.06897,38.43367],[-93.07316,38.36121],[-93.07769,38.26309],[-93.05667,38.27174],[-93.04247,38.26518],[-93.01374,38.24146],[-93.00565,38.22271],[-92.98619,38.22083],[-92.98489,38.21143],[-93.01204,38.21022],[-93.02228,38.19864],[-93.0062,38.186],[-92.9899,38.18838],[-92.97956,38.19773],[-92.96059,38.22836],[-92.95162,38.22931],[-92.93199,38.22023],[-92.93469,38.21113],[-92.95659,38.20373],[-92.96299,38.19723],[-92.76454,38.18962],[-92.75599,38.21247],[-92.7314,38.22159],[-92.69589,38.22203],[-92.68983,38.34847],[-92.63376,38.34808],[-92.63019,38.43096],[-92.62519,38.43078],[-92.84187,38.59679],[-92.83984,38.68397],[-92.9505,38.68603],[-93.05997,38.69308],[-93.06729,38.53]]]},"properties":{"county":"Morgan","geoid":"29141"}},
{"type":"Feature","geometry":{"type":"Polygon","coordinates":[[[-94.60594,40.12613],[-94.60538,40.03922],[-94.45262,40.03886],[-94.32997,40.03925],[-94.2188,40.03489],[-94.2167,40.13663],[-94.21593,40.29672],[-94.21428,40.38425],[-94.30942,40.38664],[-94.46049,40.38637],[-94.59849,40.38671],[-94.60144,40.30037],[-94.60335,40.27125],[-94.60594,40.12613]]]},"properties":{"county":"Gentry","geoid":"29075"}},
{"type":"Feature","geometry":{"type":"Polygon","coordinates":[[[-94.07352,37.63972],[-94.07538,37.58157],[-93.94701,37.57938],[-93.8376,37.57817],[-93.61603,37.57269],[-93.60949,37.74176],[-93.63244,37.7423],[-93.6284,37.82943],[-93.73825,37.83194],[-93.81169,37.83479],[-93.80865,37.89278],[-93.90018,37.89534],[-94.06567,37.90099],[-94.07331,37.76056],[-94.06872,37.75557],[-94.07352,37.63972]]]},"properties":{"county":"Cedar","geoid":"29039"}},
{"type":"Feature","geometry":{"type":"Polygon","coordinates":[[[-92.85563,40.34274],[-92.8555,40.21176],[-92.85619,40.03725],[-92.84748,40.0373],[-92.6288,40.03829],[-92.50962,40.03706],[-92.34506,40.03721],[-92.34645,40.21589],[-92.34862,40.21583],[-92.3478,40.30276],[-92.34997,40.34651],[-92.46064,40.3452],[-92.68417,40.34347],[-92.74361,40.34248],[-92.85563,40.34274]]]},"properties":{"county":"Adair","geoid":"29001"}},
{"type":"Feature","geometry":{"type":"Polygon","coordinates":[[[-92.40923,37.85918],[-92.41366,37.71416],[-92.41157,37.71404],[-92.24894,37.64847],[-92.24946,37.60454],[-92.18326,37.60524],[-92.02926,37.60254],[-92.02856,37.70684],[-92.02682,37.70705],[-92.02246,37.88074],[-92.02116,38.01064],[-92.07545,38.01138],[-92.18537,38.01514],[-92.18537,38.01634],[-92.37945,38.02023],[-92.40627,38.02118],[-92.40923,37.85918]]]},"properties":{"county":"Pulaski","geoid":"29169"}},
{"type":"Feature","geometry":{"type":"Polygon","coordinates":[[[-93.76402,40.13291],[-93.76492,40.10202],[-93.76197,39.95955],[-93.68867,39.96071],[-93.60534,39.96324],[-93.36196,39.96761],[-93.36195,40.0331],[-93.36656,40.0331],[-93.36721,40.26631],[-93.49918,40.26512],[-93.70767,40.2637],[-93.76332,40.26399],[-93.76402,40.13291]]]},"properties":{"county":"Grundy","geoid":"29079"}},
{"type":"Feature","geometry":{"type":"Polygon","coordinates":[[[-93.36693,40.383],[-93.36721,40.26631],[-93.36656,40.0331],[-93.36195,40.0331],[-93.10846,40.037],[-92.95947,40.03639],[-92.85619,40.03725],[-92.8555,40.21176],[-92.85563,40.34274],[-92.85531,40.38589],[-92.95441,40.38494],[-93.08393,40.38645],[-93.19622,40.38544],[-93.36693,40.383]]]},"properties":{"county":"Sullivan","geoid":"29211"}},
{"type":"Feature","geometry":{"type":"Polygon","coordinates":[[[-92.62519,38.43078],[-92.63019,38.43096],[-92.63376,38.34808],[-92.68983,38.34847],[-92.69589,38.22203],[-92.67559,38.21283],[-92.64008,38.21303],[-92.64131,38.17163],[-92.60468,38.17073],[-92.6053,38.13989],[-92.59637,38.13979],[-92.59676,38.11075],[-92.58769,38.11064],[-92.58798,38.09613],[-92.56968,38.09593],[-92.57028,38.06664],[-92.55208,38.06634],[-92.55238,38.05215],[-92.53355,38.05181],[-92.53389,38.03747],[-92.51558,38.03694],[-92.51598,38.02234],[-92.40627,38.02118],[-92.37945,38.02023],[-92.18537,38.01634],[-92.18137,38.16124],[-92.19777,38.16154],[-92.19567,38.29224],[-92.19448,38.33554],[-92.22468,38.33573],[-92.23297,38.32775],[-92.25018,38.32271],[-92.26848,38.32834],[-92.28878,38.33883],[-92.30263,38.33662],[-92.40841,38.34134],[-92.40348,38.42533],[-92.49518,38.42783],[-92.62519,38.43078]]]},"properties":{"county":"Miller","geoid":"29131"}},
{"type":"Feature","geometry":{"type":"Polygon","coordinates":[[[-93.52348,38.20722],[-93.51331,38.19952],[-93.49728,38.19909],[-93.50395,38.07312],[-93.32468,38.06693],[-93.12018,38.0627],[-93.0652,38.06248],[-93.05907,38.18569],[-93.08216,38.1865],[-93.07769,38.26309],[-93.07316,38.36121],[-93.06897,38.43367],[-93.07205,38.44227],[-93.06729,38.53],[-93.17931,38.53407],[-93.29045,38.53539],[-93.29185,38.50632],[-93.51274,38.51248],[-93.51508,38.45452],[-93.51196,38.44681],[-93.52065,38.27252],[-93.52348,38.20722]]]},"properties":{"county":"Benton","geoid":"29015"}},
{"type":"Feature","geometry":{"type":"Polygon","coordinates":[[[-92.84748,40.0373],[-92.85045,39.94149],[-92.85613,39.78824],[-92.85792,39.69999],[-92.76488,39.69954],[-92.68933,39.69809],[-92.69215,39.61027],[-92.49516,39.60765],[-92.30087,39.60535],[-92.29932,39.60534],[-92.29692,39.69189],[-92.29245,39.79228],[-92.28788,39.95249],[-92.34471,39.9533],[-92.34294,40.03716],[-92.34506,40.03721],[-92.50962,40.03706],[-92.6288,40.03829],[-92.84748,40.0373]]]},"properties":{"county":"Macon","geoid":"29121"}},
{"type":"Feature","geometry":{"type":"Polygon","coordinates":[[[-92.90327,37.07065],[-92.90578,36.94002],[-92.90934,36.80918],[-92.76487,36.8061],[-92.48302,36.80102],[-92.36715,36.79933],[-92.11235,36.79423],[-92.09598,36.79401],[-92.09347,36.86998],[-92.08871,37.05625],[-92.25136,37.05965],[-92.30543,37.06125],[-92.47656,37.06298],[-92.54527,37.06413],[-92.63249,37.06655],[-92.68587,37.06705],[-92.84908,37.06876],[-92.90327,37.07065]]]},"properties":{"county":"Douglas","geoid":"29067"}},
{"type":"Feature","geometry":{"type":"Polygon","coordinates":[[[-91.36919,38.69932],[-91.36782,38.56922],[-91.36852,38.50937],[-91.36683,38.41992],[-91.36704,38.33149],[-91.36544,38.33147],[-91.36748,38.20974],[-91.36763,38.20401],[-91.09576,38.20408],[-90.98964,38.2043],[-90.97019,38.20551],[-90.85831,38.2051],[-90.78018,38.20411],[-90.77228,38.25005],[-90.7376,38.4159],[-90.73617,38.46687],[-90.73263,38.5766],[-90.73233,38.6393],[-90.7507,38.6251],[-90.75642,38.61067],[-90.77362,38.59462],[-90.81299,38.58555],[-90.84984,38.56226],[-90.87327,38.55389],[-90.89267,38.54218],[-90.91655,38.53473],[-90.94772,38.53894],[-90.96446,38.54755],[-90.99241,38.55513],[-91.01413,38.56601],[-91.03232,38.59349],[-91.0559,38.60827],[-91.07732,38.60934],[-91.11291,38.59961],[-91.13253,38.59828],[-91.15254,38.60369],[-91.18296,38.6079],[-91.22655,38.62157],[-91.2276,38.64298],[-91.23742,38.65497],[-91.25981,38.6666],[-91.30969,38.70446],[-91.32797,38.70727],[-91.34168,38.69742],[-91.36919,38.69932]]]},"properties":{"county":"Franklin","geoid":"29071"}},
{"type":"Feature","geometry":{"type":"Polygon","coordinates":[[[-94.05828,38.03663],[-94.06567,37.90099],[-93.90018,37.89534],[-93.80865,37.89278],[-93.81169,37.83479],[-93.73825,37.83194],[-93.6284,37.82943],[-93.5732,37.82804],[-93.56871,37.91492],[-93.5121,37.91354],[-93.50395,38.07312],[-93.49728,38.19909],[-93.51331,38.19952],[-93.52348,38.20722],[-93.53955,38.20686],[-93.55703,38.21967],[-93.57078,38.21541],[-93.55734,38.20107],[-93.75696,38.20612],[-94.04989,38.21399],[-94.05828,38.03663]]]},"properties":{"county":"St. Clair","geoid":"29185"}},
{"type":"Feature","geometry":{"type":"Polygon","coordinates":[[[-91.64473,38.28851],[-91.64489,38.15368],[-91.63055,38.15352],[-91.53438,38.15259],[-91.53533,38.21094],[-91.36748,38.20974],[-91.36544,38.33147],[-91.36704,38.33149],[-91.36683,38.41992],[-91.36852,38.50937],[-91.36782,38.56922],[-91.36919,38.69932],[-91.39513,38.70799],[-91.41864,38.70978],[-91.4576,38.70627],[-91.4851,38.71331],[-91.49653,38.70946],[-91.5026,38.695],[-91.52272,38.68824],[-91.54531,38.67688],[-91.55818,38.67663],[-91.58766,38.68218],[-91.62517,38.70073],[-91.64037,38.70379],[-91.64242,38.50518],[-91.64449,38.3773],[-91.64473,38.28851]]]},"properties":{"county":"Gasconade","geoid":"29073"}},
{"type":"Feature","geometry":{"type":"Polygon","coordinates":[[[-92.35081,40.59727],[-92.35139,40.47708],[-92.34997,40.34651],[-92.3478,40.30276],[-92.17859,40.3042],[-91.94975,40.30083],[-91.94536,40.44595],[-91.94311,40.60584],[-92.09639,40.60183],[-92.17978,40.60053],[-92.35081,40.59727]]]},"properties":{"county":"Scotland","geoid":"29199"}},
{"type":"Feature","geometry":{"type":"Polygon","coordinates":[[[-92.19567,38.29224],[-92.19777,38.16154],[-92.18137,38.16124],[-92.18537,38.01634],[-92.18537,38.01514],[-92.07545,38.01138],[-92.02116,38.01064],[-91.96633,38.00968],[-91.9583,38.03632],[-91.94185,38.04159],[-91.93525,38.03087],[-91.89513,38.0512],[-91.77446,38.05239],[-91.75335,38.05324],[-91.63243,38.05095],[-91.63055,38.15352],[-91.64489,38.15368],[-91.64473,38.28851],[-91.75732,38.28872],[-91.77535,38.29204],[-91.86312,38.29361],[-91.88399,38.2899],[-91.97262,38.28963],[-92.00082,38.2883],[-92.19567,38.29224]]]},"properties":{"county":"Maries","geoid":"29125"}},
{"type":"Feature","geometry":{"type":"Polygon","coordinates":[[[-91.26429,38.99276],[-91.26364,38.95646],[-91.26527,38.87474],[-91.26493,38.84383],[-91.31378,38.84529],[-91.36487,38.84451],[-91.41583,38.8453],[-91.41864,38.70978],[-91.39513,38.70799],[-91.36919,38.69932],[-91.34168,38.69742],[-91.32797,38.70727],[-91.30969,38.70446],[-91.25981,38.6666],[-91.23742,38.65497],[-91.2276,38.64298],[-91.22655,38.62157],[-91.18296,38.6079],[-91.15254,38.60369],[-91.13253,38.59828],[-91.11291,38.59961],[-91.07732,38.60934],[-91.0559,38.60827],[-91.03232,38.59349],[-91.01413,38.56601],[-90.99241,38.55513],[-90.96446,38.54755],[-90.96239,38.7603],[-90.95854,38.87087],[-91.00919,38.87202],[-91.11125,38.87271],[-91.11019,38.9319],[-91.18935,38.93215],[-91.18839,38.99214],[-91.26429,38.99276]]]},"properties":{"county":"Warren","geoid":"29219"}},
{"type":"Feature","geometry":{"type":"Polygon","coordinates":[[[-94.0689,36.74782],[-94.06714,36.74774],[-94.0714,36.6612],[-94.07095,36.65289],[-94.07709,36.49873],[-93.86669,36.49879],[-93.71889,36.49918],[-93.58426,36.4989],[-93.58068,36.62902],[-93.57642,36.73611],[-93.5738,36.82003],[-93.61293,36.82056],[-93.611,36.92283],[-93.71915,36.92565],[-93.93625,36.92893],[-94.06274,36.93178],[-94.0662,36.84174],[-94.06501,36.83019],[-94.0689,36.74782]]]},"properties":{"county":"Barry","geoid":"29009"}},
{"type":"Feature","geometry":{"type":"Polygon","coordinates":[[[-94.60173,39.1596],[-94.59066,39.15477],[-94.5899,39.13898],[-94.60829,39.11794],[-94.60735,39.11344],[-94.59572,39.11],[-94.54957,39.1309],[-94.53079,39.14708],[-94.50641,39.15091],[-94.48462,39.1455],[-94.46159,39.12037],[-94.44064,39.13078],[-94.42348,39.14407],[-94.40233,39.16477],[-94.39993,39.1748],[-94.40902,39.1921],[-94.38973,39.1935],[-94.37849,39.17036],[-94.36356,39.16366],[-94.33766,39.18074],[-94.32232,39.19865],[-94.314,39.22127],[-94.30461,39.23141],[-94.28987,39.23711],[-94.25542,39.23622],[-94.23843,39.22822],[-94.22956,39.21536],[-94.21251,39.20709],[-94.21227,39.2946],[-94.21064,39.45468],[-94.32648,39.4556],[-94.43524,39.45541],[-94.60082,39.45616],[-94.6009,39.32561],[-94.60036,39.29675],[-94.60173,39.1596]]]},"properties":{"county":"Clay","geoid":"29047"}},
{"type":"Feature","geometry":{"type":"Polygon","coordinates":[[[-92.83984,38.68397],[-92.84187,38.59679],[-92.62519,38.43078],[-92.49518,38.42783],[-92.43371,38.61725],[-92.39487,38.73913],[-92.40303,38.74559],[-92.40941,38.76428],[-92.40494,38.77426],[-92.39078,38.78061],[-92.37961,38.80008],[-92.38439,38.81549],[-92.39724,38.81983],[-92.41687,38.81887],[-92.43208,38.82507],[-92.44486,38.83834],[-92.45672,38.86027],[-92.47779,38.87411],[-92.48032,38.88131],[-92.47426,38.9016],[-92.49838,38.92208],[-92.52053,38.88166],[-92.59498,38.73761],[-92.61665,38.69447],[-92.61715,38.68001],[-92.72671,38.68314],[-92.83984,38.68397]]]},"properties":{"county":"Moniteau","geoid":"29135"}}
]}