{
"type": "FeatureCollection",
"name": "mo_congressional_districts",
"crs": { "type": "name", "properties": { "name": "urn:ogc:def:crs:OGC:1.3:CRS84" } },
"features": [
{ "type": "Feature", "properties": { "district": 1, "name": "Congressional District 1" }, "geometry": { "type": "Polygon", "coordinates": [ [ [ -90.482299000139307, 38.764348000144302 ], [ -90.473187999965205, 38.790977999827199 ], [ -90.448117000447397, 38.822050000130801 ], [ -90.440617000276305, 38.827650000214597 ], [ -90.430974999649493, 38.829806000124002 ], [ -90.382267999991498, 38.821942000310699 ], [ -90.364601000385306, 38.826438999886498 ], [ -90.3449649996776, 38.849372000105099 ], [ -90.336799000232901, 38.882030000215302 ], [ -90.320213000001999, 38.891148000326901 ], [ -90.293712000231196, 38.885547999981803 ], [ -90.256136000105897, 38.852128000094503 ], [ -90.195677999875699, 38.821260999907899 ], [ -90.1776499996962, 38.818858999792397 ], [ -90.158459000125802, 38.828786999746697 ], [ -90.141607999580998, 38.829447999913903 ], [ -90.126779999666198, 38.821326000045701 ], [ -90.117707000025206, 38.805748000050599 ], [ -90.123106999573494, 38.798048000002197 ], [ -90.1663640003529, 38.772675000147302 ], [ -90.176300999634094, 38.754477999894902 ], [ -90.209909999938901, 38.726049999687397 ], [ -90.212002000165796, 38.711778999767503 ], [ -90.209201999934194, 38.702779000276003 ], [ -90.195201999674694, 38.6875790003145 ], [ -90.182602000429199, 38.665378999925402 ], [ -90.177701999574793, 38.642778999833403 ], [ -90.178811000335699, 38.629157000148702 ], [ -90.191803000116707, 38.598980000257299 ], [ -90.224203999926303, 38.575079999860698 ], [ -90.257782000269003, 38.532011999834303 ], [ -90.266936999925704, 38.534232000325801 ], [ -90.271035000165796, 38.538680999827797 ], [ -90.272338000197195, 38.548416000230901 ], [ -90.292420999895398, 38.558997000298902 ], [ -90.294975999904594, 38.556487999960297 ], [ -90.301112999769799, 38.559722999738497 ], [ -90.314534999721104, 38.5550679999347 ], [ -90.316428999581305, 38.559616999919498 ], [ -90.321849999944305, 38.560249000305099 ], [ -90.322928999669699, 38.554851000114702 ], [ -90.341867000418503, 38.556118999683797 ], [ -90.359160999755701, 38.564850000189303 ], [ -90.369594000227806, 38.563314000102402 ], [ -90.377267999577896, 38.573650999763203 ], [ -90.377245000011698, 38.5864869998288 ], [ -90.375078000340096, 38.586262000079699 ], [ -90.372263000039894, 38.601743999998902 ], [ -90.380383000352097, 38.604536000274202 ], [ -90.378901000220594, 38.614093000271502 ], [ -90.363349000407496, 38.614009000078603 ], [ -90.361868000100898, 38.641138000041899 ], [ -90.351309000130399, 38.6391479998262 ], [ -90.348770000014795, 38.656208999893998 ], [ -90.366613000246303, 38.6581359996717 ], [ -90.366645999858306, 38.6608499997973 ], [ -90.394622999912798, 38.661065000003497 ], [ -90.394015000365599, 38.685988000086297 ], [ -90.404753000436202, 38.687193000220802 ], [ -90.408902999656604, 38.692655999871803 ], [ -90.407295999851598, 38.722292999720203 ], [ -90.418314000304704, 38.724870000322603 ], [ -90.420720000350997, 38.729046000162199 ], [ -90.429254000041695, 38.729037999969002 ], [ -90.429799999664596, 38.737441999927398 ], [ -90.439485999774007, 38.742922999919998 ], [ -90.435327000332805, 38.747039999692099 ], [ -90.482299000139307, 38.764348000144302 ] ] ] } },
{ "type": "Feature", "properties": { "district": 2, "name": "Congressional District 2" }, "geometry": { "type": "Polygon", "coordinates": [ [ [ -91.640371999587401, 38.703792000082998 ], [ -91.619734000045497, 38.698536000209202 ], [ -91.587664999598601, 38.682185000028397 ], [ -91.550640000017395, 38.676266999924998 ], [ -91.502602000005993, 38.6949999998808 ], [ -91.501073999843697, 38.704687000053603 ], [ -91.487791999634496, 38.713114000014798 ], [ -91.471771000191396, 38.707527999781298 ], [ -91.452691000050706, 38.7094870002025 ], [ -91.4576000002277, 38.706270000172097 ], [ -91.4352200002632, 38.709643000227899 ], [ -91.399551000416807, 38.708762000011603 ], [ -91.349119999879605, 38.6954350003247 ], [ -91.327974000349499, 38.707266000313403 ], [ -91.319022000184106, 38.708368000259803 ], [ -91.310540000371901, 38.7051080003476 ], [ -91.259812999558704, 38.666600999694403 ], [ -91.232986000272902, 38.651339999874303 ], [ -91.227035000180507, 38.6417099997376 ], [ -91.228443999618804, 38.629823000125597 ], [ -91.223682999579907, 38.620149000352001 ], [ -91.182957000316904, 38.607896000067399 ], [ -91.125147999807297, 38.597704000087198 ], [ -91.077324000056095, 38.609343000000102 ], [ -91.0558980001436, 38.608266999674299 ], [ -91.037222000233896, 38.598575999785403 ], [ -91.0214300002214, 38.573519999969903 ], [ -91.005406000405301, 38.561081999929797 ], [ -90.966749999831293, 38.5486080001182 ], [ -90.947720999744206, 38.538940000098599 ], [ -90.923302999979498, 38.5341339996545 ], [ -90.894921999693807, 38.540962999690798 ], [ -90.873268000175699, 38.553893000251001 ], [ -90.841932999672693, 38.565955000253403 ], [ -90.812988000220798, 38.5855539998553 ], [ -90.773621999992301, 38.594617000319801 ], [ -90.759605999839195, 38.606541000208999 ], [ -90.750703000077607, 38.625103000160998 ], [ -90.742412000061094, 38.634562999779803 ], [ -90.705810999904102, 38.647253000026701 ], [ -90.702994999778994, 38.657478999826203 ], [ -90.679252000406905, 38.665602000139899 ], [ -90.674530999652703, 38.682192999855701 ], [ -90.660508999651796, 38.688550999780297 ], [ -90.625755000397703, 38.690528000121901 ], [ -90.603900000139802, 38.681976999998703 ], [ -90.588613999567201, 38.68050299966 ], [ -90.569982999863399, 38.684072999673802 ], [ -90.554722000303499, 38.681552000343999 ], [ -90.539287999593, 38.6867779998353 ], [ -90.530363000090006, 38.698629999777701 ], [ -90.533637999799396, 38.726871000129897 ], [ -90.531339999708194, 38.731178000112699 ], [ -90.493393999687001, 38.7506869997869 ], [ -90.481745999945304, 38.731391999964998 ], [ -90.458350999829506, 38.738650000168903 ], [ -90.451993999856299, 38.733945999966998 ], [ -90.444753999976101, 38.737434999880399 ], [ -90.446693999867094, 38.740897999812503 ], [ -90.438754000378196, 38.743068000321401 ], [ -90.429799999664596, 38.737441999927398 ], [ -90.429254000041695, 38.729037999969002 ], [ -90.420720000350997, 38.729046000162199 ], [ -90.418314000304704, 38.724870000322603 ], [ -90.407295999851598, 38.722292999720203 ], [ -90.408902999656604, 38.692655999871803 ], [ -90.404753000436202, 38.687193000220802 ], [ -90.394015000365599, 38.685988000086297 ], [ -90.394622999912798, 38.661065000003497 ], [ -90.366645999858306, 38.6608499997973 ], [ -90.366613000246303, 38.6581359996717 ], [ -90.348770000014795, 38.656208999893998 ], [ -90.351309000130399, 38.6391479998262 ], [ -90.361868000100898, 38.641138000041899 ], [ -90.363349000407496, 38.614009000078603 ], [ -90.378901000220594, 38.614093000271502 ], [ -90.380383000352097, 38.604536000274202 ], [ -90.372263000039894, 38.601743999998902 ], [ -90.375078000340096, 38.586262000079699 ], [ -90.377245000011698, 38.5864869998288 ], [ -90.377267999577896, 38.573650999763203 ], [ -90.369594000227806, 38.563314000102402 ], [ -90.359160999755701, 38.564850000189303 ], [ -90.341867000418503, 38.556118999683797 ], [ -90.322928999669699, 38.554851000114702 ], [ -90.321849999944305, 38.560249000305099 ], [ -90.316428999581305, 38.559616999919498 ], [ -90.314534999721104, 38.5550679999347 ], [ -90.301112999769799, 38.559722999738497 ], [ -90.294975999904594, 38.556487999960297 ], [ -90.292420999895398, 38.558997000298902 ], [ -90.272338000197195, 38.548416000230901 ], [ -90.271391999642901, 38.539328000229602 ], [ -90.266936999925704, 38.534232000325801 ], [ -90.257413000198, 38.5318520002862 ], [ -90.268759999640807, 38.507188999749701 ], [ -90.291084000427105, 38.430889999805402 ], [ -90.341445999570695, 38.388297999729801 ], [ -90.347938999986397, 38.405356999879402 ], [ -90.348122000284604, 38.430592000020802 ], [ -90.347117000178997, 38.435952999699303 ], [ -90.335744999723602, 38.4481949997448 ], [ -90.336134999710893, 38.4534910003389 ], [ -90.353630999612804, 38.458216999742604 ], [ -90.391031000011097, 38.450560999957197 ], [ -90.390960999690805, 38.456377000265803 ], [ -90.394709999951502, 38.4584859996856 ], [ -90.403210000205306, 38.453950999794401 ], [ -90.411793000299895, 38.454286000205599 ], [ -90.422518999776599, 38.483118000018003 ], [ -90.413631999908503, 38.480704000006803 ], [ -90.407948999604599, 38.483328000044999 ], [ -90.405262000249294, 38.501153000027003 ], [ -90.512522000406605, 38.501453999905102 ], [ -90.512838999700705, 38.306730999907501 ], [ -90.519233000382201, 38.183772000352398 ], [ -90.516827000335994, 38.175970999804399 ], [ -90.509477999777602, 38.175575999677399 ], [ -90.509670000296495, 38.154469999756898 ], [ -90.518650999876002, 38.155677000007799 ], [ -90.517930000350802, 38.150530000268603 ], [ -90.505629999782698, 38.140339999781702 ], [ -90.491899999859896, 38.138620000130501 ], [ -90.506540000352004, 38.138869999689703 ], [ -90.532658999633099, 38.144899000261397 ], [ -90.528720000299998, 38.140862999745899 ], [ -90.527419999743302, 38.130936000345997 ], [ -90.544699999735201, 38.129430000186197 ], [ -90.538130000224896, 38.124119999782003 ], [ -90.537799999613696, 38.107519999704202 ], [ -90.560623999992103, 38.114254999664503 ], [ -90.564020000075402, 38.1087600003234 ], [ -90.560069999973294, 38.106190000287903 ], [ -90.561300000209798, 38.102079999875201 ], [ -90.577017999704097, 38.0993999998067 ], [ -90.585744999738694, 38.091088000074997 ], [ -90.5845920003934, 38.082486999725703 ], [ -90.593155000396393, 38.083138000225702 ], [ -90.592932999740299, 38.086838000043201 ], [ -90.603788999811698, 38.084592999886901 ], [ -90.603546000137399, 38.088237000055699 ], [ -90.617539999650901, 38.089872000311097 ], [ -90.618065000255697, 38.073322000148899 ], [ -90.639979999889803, 38.076547999876198 ], [ -90.645135000114095, 37.734812999909998 ], [ -90.762091000426494, 37.738517000047601 ], [ -90.874134000364094, 37.734196000086698 ], [ -90.982510999881697, 37.740338999780001 ], [ -91.146521000016406, 37.740810999731998 ], [ -91.146972000103105, 37.697197999732801 ], [ -91.310654999999699, 37.700047999990197 ], [ -91.308310999877705, 37.787186000344903 ], [ -91.528797000353407, 37.788988999753897 ], [ -91.525024999628201, 38.152432999812099 ], [ -91.644893000325197, 38.1536790000102 ], [ -91.640371999587401, 38.703792000082998 ] ] ] } },
{ "type": "Feature", "properties": { "district": 3, "name": "Congressional District 3" }, "geometry": { "type": "Polygon", "coordinates": [ [ [ -91.306693000201903, 39.6848649996967 ], [ -91.301603000275094, 39.679067999791002 ], [ -91.274935999924594, 39.6647920000729 ], [ -91.229317000378202, 39.6208530001635 ], [ -91.181936000317805, 39.6026769998915 ], [ -91.174651000231805, 39.593313000298899 ], [ -91.168418999932001, 39.564927999683903 ], [ -91.153627999827094, 39.548248000210698 ], [ -91.100307000443195, 39.538695000239599 ], [ -91.079768999562106, 39.507727999782503 ], [ -91.064304999612602, 39.494642999661203 ], [ -91.059438999991698, 39.468860000328803 ], [ -91.038269999997098, 39.448435000220201 ], [ -90.9937889997274, 39.422958999956599 ], [ -90.940766000269406, 39.403983999728901 ], [ -90.9287450002588, 39.387543999764098 ], [ -90.904862000246396, 39.379403000180602 ], [ -90.893776999846196, 39.367343000302803 ], [ -90.847499999625498, 39.345271999945503 ], [ -90.816851000284203, 39.320496000014799 ], [ -90.7934610001913, 39.309497999993802 ], [ -90.790675000203393, 39.302907999718002 ], [ -90.775673000211299, 39.292811000152398 ], [ -90.767648000333594, 39.280024999689203 ], [ -90.751599000403203, 39.265432000219498 ], [ -90.7299600000553, 39.255894000158797 ], [ -90.717113000039305, 39.213912000212503 ], [ -90.717404000292404, 39.197413999713703 ], [ -90.7104799998815, 39.176366000338703 ], [ -90.707902000306106, 39.150860000146402 ], [ -90.702922999809005, 39.1387490000144 ], [ -90.686051000246096, 39.117785000164197 ], [ -90.681085999992703, 39.100590000335998 ], [ -90.682743999851397, 39.088348000232898 ], [ -90.712541000146302, 39.057063999674099 ], [ -90.712726000094193, 39.049736000319797 ], [ -90.678192999874696, 38.991851000270898 ], [ -90.675949000210096, 38.962140000349798 ], [ -90.663424000409407, 38.935551000280903 ], [ -90.663017999630299, 38.926283000331601 ], [ -90.636993999885405, 38.905122999784702 ], [ -90.623356000024103, 38.887149000081401 ], [ -90.582259000142002, 38.868794000231297 ], [ -90.551204999846505, 38.872074999879104 ], [ -90.499672000017597, 38.9106050000754 ], [ -90.487057999630096, 38.9258619999434 ], [ -90.482725000111699, 38.934711999909403 ], [ -90.4824189997899, 38.944459999894001 ], [ -90.469420000336299, 38.960789000079103 ], [ -90.450813000023601, 38.967769000158498 ], [ -90.406366999913999, 38.9625540002177 ], [ -90.309454000014995, 38.924120000052 ], [ -90.277470999781798, 38.923716000222299 ], [ -90.250247999762607, 38.919344000221997 ], [ -90.223040999637007, 38.907388999715899 ], [ -90.197610000269094, 38.887647999839601 ], [ -90.166408999660405, 38.876348000315303 ], [ -90.1133269997528, 38.849305999953202 ], [ -90.109107000212205, 38.837448000217798 ], [ -90.117707000025206, 38.805748000050599 ], [ -90.126779999666198, 38.821326000045701 ], [ -90.141607999580998, 38.829447999913903 ], [ -90.158459000125802, 38.828786999746697 ], [ -90.1776499996962, 38.818858999792397 ], [ -90.195677999875699, 38.821260999907899 ], [ -90.256136000105897, 38.852128000094503 ], [ -90.293712000231196, 38.885547999981803 ], [ -90.312108999583302, 38.890948000250098 ], [ -90.324500000387999, 38.890260999685701 ], [ -90.336799000232901, 38.882030000215302 ], [ -90.3449649996776, 38.849372000105099 ], [ -90.362162999653705, 38.827860000335797 ], [ -90.382267999991498, 38.821942000310699 ], [ -90.419320000235103, 38.829277000337399 ], [ -90.440617000276305, 38.827650000214597 ], [ -90.468641000186494, 38.796761999745897 ], [ -90.482299000139307, 38.764348000144302 ], [ -90.435327000332805, 38.747039999692099 ], [ -90.446693999867094, 38.740897999812503 ], [ -90.443979000024299, 38.7398260001587 ], [ -90.4457749999752, 38.736463999823201 ], [ -90.452643000309706, 38.733945999966998 ], [ -90.458350999829506, 38.738650000168903 ], [ -90.481745999945304, 38.731391999964998 ], [ -90.493393999687001, 38.7506869997869 ], [ -90.528023999990907, 38.733701999894699 ], [ -90.533637999799396, 38.726871000129897 ], [ -90.529902999782493, 38.702035999843098 ], [ -90.5317299996955, 38.695302000350502 ], [ -90.538742999794906, 38.687116000214601 ], [ -90.550679000315, 38.682353999695103 ], [ -90.603900000139802, 38.681976999998703 ], [ -90.632647000123299, 38.691077999865598 ], [ -90.656756999916396, 38.689223000199902 ], [ -90.669721000108296, 38.684685999929101 ], [ -90.675163000387698, 38.6809649997777 ], [ -90.679252000406905, 38.665602000139899 ], [ -90.701890999939195, 38.658353999840202 ], [ -90.705810999904102, 38.647253000026701 ], [ -90.742412000061094, 38.634562999779803 ], [ -90.750703000077607, 38.625103000160998 ], [ -90.759605999839195, 38.606541000208999 ], [ -90.773621999992301, 38.594617000319801 ], [ -90.812988000220798, 38.5855539998553 ], [ -90.841932999672693, 38.565955000253403 ], [ -90.873268000175699, 38.553893000251001 ], [ -90.894921999693807, 38.540962999690798 ], [ -90.923302999979498, 38.5341339996545 ], [ -90.947720999744206, 38.538940000098599 ], [ -90.966749999831293, 38.5486080001182 ], [ -91.005406000405301, 38.561081999929797 ], [ -91.0214300002214, 38.573519999969903 ], [ -91.037222000233896, 38.598575999785403 ], [ -91.0558980001436, 38.608266999674299 ], [ -91.077324000056095, 38.609343000000102 ], [ -91.125147999807297, 38.597704000087198 ], [ -91.182957000316904, 38.607896000067399 ], [ -91.223682999579907, 38.620149000352001 ], [ -91.228443999618804, 38.629823000125597 ], [ -91.227035000180507, 38.6417099997376 ], [ -91.232986000272902, 38.651339999874303 ], [ -91.259812999558704, 38.666600999694403 ], [ -91.310540000371901, 38.7051080003476 ], [ -91.319022000184106, 38.708368000259803 ], [ -91.327974000349499, 38.707266000313403 ], [ -91.349119999879605, 38.6954350003247 ], [ -91.399551000416807, 38.708762000011603 ], [ -91.4352200002632, 38.709643000227899 ], [ -91.4576000002277, 38.706270000172097 ], [ -91.452691000050706, 38.7094870002025 ], [ -91.471771000191396, 38.707527999781298 ], [ -91.487791999634496, 38.713114000014798 ], [ -91.501073999843697, 38.704687000053603 ], [ -91.502602000005993, 38.6949999998808 ], [ -91.550640000017395, 38.676266999924998 ], [ -91.587664999598601, 38.682185000028397 ], [ -91.619734000045497, 38.698536000209202 ], [ -91.637982000332997, 38.7035410002307 ], [ -91.665498000255198, 38.7019830002465 ], [ -91.702039000137702, 38.707770000266898 ], [ -91.732285999796105, 38.705891000323298 ], [ -91.760234000436697, 38.684999999734899 ], [ -91.814436000077606, 38.681834999698502 ], [ -91.860570000183102, 38.668173999937999 ], [ -91.877356000430495, 38.6577429998894 ], [ -91.893749000317499, 38.634086999915702 ], [ -91.943935999559002, 38.597074999889898 ], [ -91.977453999627201, 38.589616000231103 ], [ -92.015617000281694, 38.567397999957599 ], [ -92.063906000363303, 38.5573960000931 ], [ -92.112064000025299, 38.5619530001687 ], [ -92.161662999811, 38.578057000293001 ], [ -92.200721000067901, 38.601667999785199 ], [ -92.203491999987193, 38.608348000052302 ], [ -92.203071999862601, 38.626639000209998 ], [ -92.215745999626193, 38.641285000312401 ], [ -92.229401000104303, 38.646027000052797 ], [ -92.259091000269095, 38.645346999892297 ], [ -92.275806000371404, 38.658214999915501 ], [ -92.2933700000454, 38.6665640001413 ], [ -92.345314999602905, 38.674882000013604 ], [ -92.360909999971895, 38.6818480001821 ], [ -92.363606000446396, 38.686209999991497 ], [ -92.361429999655599, 38.692039999663798 ], [ -92.343265000107095, 38.705072999688298 ], [ -92.344092999762296, 38.715068999993299 ], [ -92.360216000210997, 38.730132999871003 ], [ -92.387808000301106, 38.7354330003187 ], [ -92.397455999877295, 38.740523000160202 ], [ -92.404737999590196, 38.748190000274199 ], [ -92.408635999813797, 38.758242999910401 ], [ -92.407078000412596, 38.772597999772699 ], [ -92.390781999711606, 38.7806119996959 ], [ -92.382980000315001, 38.789725000203099 ], [ -92.379580000033798, 38.801546000271102 ], [ -92.384391000301406, 38.815487999658401 ], [ -92.394089000106405, 38.819576000075799 ], [ -92.421179999881105, 38.819754000227398 ], [ -92.439906000019505, 38.831346000169198 ], [ -92.456717000381303, 38.860268999930902 ], [ -92.479639999595705, 38.877439000221003 ], [ -92.474259000313893, 38.901595999761597 ], [ -92.439640999705603, 38.901250999817101 ], [ -92.430533999729406, 38.911769999727603 ], [ -92.433584000206295, 38.918806999818997 ], [ -92.429039000077395, 38.916000000204001 ], [ -92.423164000152994, 38.919034999857899 ], [ -92.422843999587499, 38.928896999865003 ], [ -92.4117389999941, 38.931995000285397 ], [ -92.416540000216003, 38.932731999731701 ], [ -92.419666999787395, 38.937166999877697 ], [ -92.417069000120506, 38.9434670001434 ], [ -92.412740999726594, 38.942991000040699 ], [ -92.413616000135804, 38.9393789997307 ], [ -92.400420999965405, 38.9371700002742 ], [ -92.399050000161907, 38.954249999915803 ], [ -92.396140000325403, 38.955990000250303 ], [ -92.406350000316493, 38.969079999722702 ], [ -92.389511000365601, 38.9704010000587 ], [ -92.3890860002181, 38.983842999745001 ], [ -92.392802999793403, 38.9841910000372 ], [ -92.392684999792607, 38.987782000061998 ], [ -92.388102000028894, 38.986422000271702 ], [ -92.387882999745798, 38.990960000307901 ], [ -92.383269000019993, 38.990537000305999 ], [ -92.383139000323695, 38.994384000072202 ], [ -92.378605000065505, 38.994291999766403 ], [ -92.377349999714596, 38.989901999825797 ], [ -92.351089999968195, 38.987450000273 ], [ -92.3508859997537, 38.993162000156602 ], [ -92.342056999611899, 38.992428000139199 ], [ -92.344202000440603, 38.998085000187601 ], [ -92.339290999715502, 39.001385999777 ], [ -92.336927000400394, 39.009092999886398 ], [ -92.329253999976899, 39.008496999889502 ], [ -92.331330000310302, 39.006793000289399 ], [ -92.3281500001371, 39.004799999874201 ], [ -92.331408999952998, 39.004867999999199 ], [ -92.331521000105994, 39.001066000115998 ], [ -92.323519999619407, 39.000800000256099 ], [ -92.323025999875, 39.0140919998017 ], [ -92.320126999909206, 39.016954999834802 ], [ -92.319978999771195, 39.014309999807601 ], [ -92.313360999682004, 39.014232999911101 ], [ -92.311373999935398, 39.007507999819602 ], [ -92.311310000361303, 39.015009999970701 ], [ -92.315532000450006, 39.015121000080001 ], [ -92.315401999855297, 39.020598000271697 ], [ -92.311101000123898, 39.0182840000192 ], [ -92.311113999644405, 39.0224080002316 ], [ -92.306644999683499, 39.022341999708402 ], [ -92.306375000245097, 39.014874999810502 ], [ -92.303407999608993, 39.016507000092098 ], [ -92.302206999684799, 39.000292999981802 ], [ -92.292755999752004, 39.000067999993298 ], [ -92.2925480002379, 39.007376000214002 ], [ -92.297257000398304, 39.007372999997997 ], [ -92.296813999809203, 39.018226999799197 ], [ -92.287639000061006, 39.016166000138099 ], [ -92.292314999711095, 39.020267000333199 ], [ -92.282872999999199, 39.020364999692099 ], [ -92.282827999793398, 39.029442999775902 ], [ -92.274580000332904, 39.029290000055298 ], [ -92.276927999754506, 39.021948999758102 ], [ -92.268671999898203, 39.021970999829001 ], [ -92.266310000232806, 39.029120000054803 ], [ -92.244759999573404, 39.028890000347502 ], [ -92.244957000115207, 39.0216350002203 ], [ -92.207730999794293, 39.0215449999668 ], [ -92.206191999761302, 39.066037999932902 ], [ -92.201506999890299, 39.0659289999275 ], [ -92.201238000276803, 39.073258000274699 ], [ -92.188360000298701, 39.072829999815397 ], [ -92.180199999803506, 39.069030000014799 ], [ -92.146100000127305, 39.0683499999422 ], [ -92.146059999944399, 39.064760000050399 ], [ -92.110386999900101, 39.064204000245503 ], [ -92.104373999883407, 39.239809000280403 ], [ -92.314471000267901, 39.2464540001926 ], [ -92.300871000041397, 39.605348000148901 ], [ -92.1866909996711, 39.604081999662299 ], [ -92.184985999956794, 39.662932000001497 ], [ -91.714172000301204, 39.6574710000084 ], [ -91.715497000073896, 39.686491999899303 ], [ -91.306693000201903, 39.6848649996967 ] ] ] } },
{ "type": "Feature", "properties": { "district": 4, "name": "Congressional District 4" }, "geometry": { "type": "Polygon", "coordinates": [ [ [ -92.021164999967993, 38.010639000064899 ], [ -92.029257999617698, 37.602542000138399 ], [ -92.249462999886006, 37.604542999788798 ], [ -92.252260999569501, 37.472943999714303 ], [ -92.686670999609902, 37.481544999690698 ], [ -92.692302999860104, 37.263514000262397 ], [ -92.6789699995973, 37.263148999886504 ], [ -92.679659000233698, 37.242362999809203 ], [ -92.898487999777302, 37.245527000343102 ], [ -92.898645999961104, 37.241850999860802 ], [ -92.934851000283004, 37.247102000139499 ], [ -92.935006999918599, 37.243180999805702 ], [ -92.943760999717298, 37.2435550002035 ], [ -92.944050000320601, 37.233866000055599 ], [ -92.9529549997321, 37.236078000312297 ], [ -92.953919999654701, 37.233413000122098 ], [ -92.971860999795595, 37.233505999880499 ], [ -92.9717820001528, 37.2371479999168 ], [ -92.9809460000304, 37.243899999974701 ], [ -92.971552999823999, 37.248017999758702 ], [ -92.971130000224704, 37.268233999681001 ], [ -92.986471000150502, 37.266401000340799 ], [ -92.992035999555199, 37.270343999725 ], [ -92.997011999679302, 37.268324999824202 ], [ -92.998328000129504, 37.2632970000641 ], [ -93.008186999592894, 37.2639309999294 ], [ -93.012371999871604, 37.255960000035103 ], [ -93.017066999788298, 37.256622000209902 ], [ -93.017045000047005, 37.263144999819701 ], [ -93.038420999730903, 37.2651849998798 ], [ -93.046247000315205, 37.2708179998085 ], [ -93.038501999921706, 37.272743000157298 ], [ -93.037326999936795, 37.278391999942002 ], [ -93.043761999727906, 37.279540000232203 ], [ -93.0477510001881, 37.274316999917403 ], [ -93.065401999900701, 37.271379000159499 ], [ -93.068320000132999, 37.276417000136199 ], [ -93.068449999829397, 37.270934999940003 ], [ -93.076775000181001, 37.2705989997336 ], [ -93.073379999922693, 37.414989000200201 ], [ -93.621152999650505, 37.4274230003223 ], [ -93.626368999974105, 37.281968999751498 ], [ -94.083832999648493, 37.290850999946997 ], [ -94.082199999904205, 37.349301999892397 ], [ -94.61757000003, 37.364169999908199 ], [ -94.617668999764206, 37.776192999825497 ], [ -94.614111000197497, 37.973797000056301 ], [ -94.613368000032807, 38.4563030003387 ], [ -94.607625000352797, 38.827559999872797 ], [ -94.607354000191194, 39.113444000098198 ], [ -94.595724999817804, 39.110004000280597 ], [ -94.578824999767505, 39.117476000167301 ], [ -94.577908000423804, 39.112674000329399 ], [ -94.571061000005699, 39.107032000256197 ], [ -94.544103000300396, 39.105173999704903 ], [ -94.544465999625302, 39.098616000330097 ], [ -94.572558000205902, 39.099562999859003 ], [ -94.570274000358395, 39.086092999874602 ], [ -94.574889999733998, 39.0073269999275 ], [ -94.579516999878606, 39.006961000304202 ], [ -94.582003000290896, 38.955522999968302 ], [ -94.586663000047494, 38.955557000308097 ], [ -94.587344000287899, 38.941206999857002 ], [ -94.543914000154501, 38.938549000245899 ], [ -94.535193999792696, 38.9425809997594 ], [ -94.531643999723599, 38.938825999947703 ], [ -94.522556000014106, 38.9384659996932 ], [ -94.523045999560495, 38.924897999733503 ], [ -94.511354000336297, 38.922662000008003 ], [ -94.516854000341993, 38.913016999962501 ], [ -94.515518999625201, 38.909270999873399 ], [ -94.487428999592694, 38.907188000316602 ], [ -94.484424000220002, 38.908841000013503 ], [ -94.483885000269794, 38.915891000240798 ], [ -94.475493999795901, 38.922226999657802 ], [ -94.450034000115707, 38.923750999831299 ], [ -94.447879000139594, 38.942571999955 ], [ -94.410205999929801, 38.940750999725402 ], [ -94.414421000345797, 38.955600999819701 ], [ -94.410337000349401, 38.955339000229799 ], [ -94.404761000175696, 38.962194999864003 ], [ -94.406982000273999, 38.965838000256099 ], [ -94.395618000214597, 38.9612069997956 ], [ -94.395663000420399, 38.958146999772403 ], [ -94.386098999611406, 38.958146000169002 ], [ -94.385448000406498, 38.972839000024202 ], [ -94.389872000161503, 38.972977999753098 ], [ -94.3869439998834, 39.017623000118697 ], [ -94.363398000154902, 39.026311999874402 ], [ -94.332818000410498, 39.024966999656499 ], [ -94.331441999685893, 39.021523999867803 ], [ -94.327813999799005, 39.026951000280597 ], [ -94.337149000279098, 39.029182999843997 ], [ -94.337069999738105, 39.032684000347999 ], [ -94.332359999752796, 39.032991999999801 ], [ -94.332201999569094, 39.037773999876102 ], [ -94.305426000336894, 39.034752999988498 ], [ -94.315304999891893, 39.054104000023898 ], [ -94.270812999751499, 39.052824000341303 ], [ -94.269810000194099, 39.0565619997654 ], [ -94.277471999848601, 39.0662329997336 ], [ -94.263360000334302, 39.063393999800503 ], [ -94.261268999932298, 39.057879000242799 ], [ -94.256666000077104, 39.057731999659502 ], [ -94.261310999765101, 39.0569380002297 ], [ -94.258220000178696, 39.048682999954899 ], [ -94.256859000421002, 39.0522170001097 ], [ -94.250311999578599, 39.052041999699298 ], [ -94.250453999868796, 39.048373000182899 ], [ -94.247862999874599, 39.0482729997413 ], [ -94.243256999646405, 39.048302999888598 ], [ -94.243121999927197, 39.0519389998489 ], [ -94.233912999843795, 39.051394000219901 ], [ -94.234132999951797, 39.045586000302301 ], [ -94.229489999913596, 39.045322999762298 ], [ -94.229627000180997, 39.040356000252103 ], [ -94.222860999953795, 39.039497000127703 ], [ -94.229772999770802, 39.034215999740098 ], [ -94.225850000331207, 39.032541000153003 ], [ -94.225965999783895, 39.029326999849197 ], [ -94.221033000215797, 39.029159999927501 ], [ -94.221661999679398, 39.023820000260997 ], [ -94.227052000080306, 39.024484000339498 ], [ -94.225950999715295, 39.018434000084397 ], [ -94.233566000412495, 39.017531000019602 ], [ -94.231829000012794, 39.014509000157901 ], [ -94.240161000037105, 39.011698000331997 ], [ -94.240367999726303, 39.008084000165397 ], [ -94.231021000449005, 39.007938999872998 ], [ -94.231724000430802, 38.989902999679202 ], [ -94.227089999715105, 38.989766999923901 ], [ -94.226927000406803, 38.993382000042999 ], [ -94.214118000025707, 38.992938000343798 ], [ -94.217777999699607, 38.9893360001848 ], [ -94.210782000216895, 38.989091000178902 ], [ -94.208609999624002, 38.985502000055398 ], [ -94.208262000367796, 38.992716000147801 ], [ -94.199039000040699, 38.992413999895398 ], [ -94.198468000303393, 39.007567000208702 ], [ -94.187352999765906, 39.010158000094002 ], [ -94.178337000026403, 39.0185570000681 ], [ -94.170237999630501, 39.017403000229002 ], [ -94.152610000382396, 39.004947999939297 ], [ -94.152536999689204, 38.998210000126903 ], [ -94.157363000025398, 38.998305999863398 ], [ -94.157659000301507, 38.9910390000775 ], [ -94.152952999615806, 38.990948000149402 ], [ -94.153010000415506, 38.988186999878998 ], [ -94.145208999945496, 38.994310999991001 ], [ -94.134405999577595, 38.990317999802002 ], [ -94.137820000102394, 38.983290999793702 ], [ -94.130323000304401, 38.979539999812197 ], [ -94.130488000160796, 38.975978000098003 ], [ -94.127870000402396, 38.9759459998821 ], [ -94.127867000029397, 38.9830999999052 ], [ -94.111478000340298, 38.982862000331899 ], [ -94.129371999727198, 38.6558619998655 ], [ -94.116408000433594, 38.6555179999106 ], [ -94.119663999876494, 38.5687119996606 ], [ -93.511030000410699, 38.556209999691703 ], [ -93.512742999622603, 38.512475999834301 ], [ -93.291851000164399, 38.506321000098403 ], [ -93.290454000421605, 38.535388000305304 ], [ -93.067351999837399, 38.530094000028399 ], [ -93.072054000325096, 38.442274000134098 ], [ -93.068762999823804, 38.442273000329898 ], [ -93.068968999688096, 38.433696999847299 ], [ -93.077692000422999, 38.263091999770403 ], [ -93.066510999763295, 38.270770999656698 ], [ -93.051090000369896, 38.270092999912201 ], [ -93.016533999685805, 38.244911999955299 ], [ -93.005650000025398, 38.222704999708 ], [ -92.983994999784002, 38.2195279997649 ], [ -92.985794000107902, 38.210927999802799 ], [ -93.0091950000715, 38.210636999914797 ], [ -93.018451999835506, 38.206475999815602 ], [ -93.022398999564601, 38.199149999654097 ], [ -93.014989999630004, 38.1897749997121 ], [ -93.006199999846302, 38.186001999804397 ], [ -92.989903000218703, 38.188375000062898 ], [ -92.979557999610094, 38.197734000111502 ], [ -92.963743999856305, 38.225487000216901 ], [ -92.956898000161502, 38.2295079998473 ], [ -92.937142999628094, 38.2248789996613 ], [ -92.931993000324994, 38.220229000281499 ], [ -92.931993000324994, 38.216229000220402 ], [ -92.935992999757502, 38.210129000016799 ], [ -92.957893000221304, 38.203329000028702 ], [ -92.962994000018895, 38.197229000216097 ], [ -92.764962999850695, 38.189534000264203 ], [ -92.755988000119004, 38.212465000274101 ], [ -92.749043999616603, 38.2175599997707 ], [ -92.734696000100797, 38.221316999888003 ], [ -92.718586999895905, 38.220131000326397 ], [ -92.707186999851402, 38.224031000075499 ], [ -92.688886999685295, 38.2200310001354 ], [ -92.675586000107899, 38.2128309999786 ], [ -92.640084999592702, 38.213031999692802 ], [ -92.641385000149398, 38.171632000067802 ], [ -92.604684000433295, 38.1707329997665 ], [ -92.605302000026299, 38.139894000068601 ], [ -92.596374000150306, 38.139787000315003 ], [ -92.596760999764598, 38.110753999914301 ], [ -92.587688000123606, 38.1106359997247 ], [ -92.587984000399601, 38.096134000104499 ], [ -92.5696819996854, 38.095933999955001 ], [ -92.570280999910196, 38.066635000188903 ], [ -92.552081000201596, 38.066335000352403 ], [ -92.552380999777199, 38.052145000131901 ], [ -92.533554000254796, 38.051808000008002 ], [ -92.533894999838296, 38.0374670001734 ], [ -92.515579999603702, 38.036936000021498 ], [ -92.515978999811793, 38.0223359996696 ], [ -92.021164999967993, 38.010639000064899 ] ] ] } },
{ "type": "Feature", "properties": { "district": 5, "name": "Congressional District 5" }, "geometry": { "type": "Polygon", "coordinates": [ [ [ -92.314471000267901, 39.2464540001926 ], [ -92.104373999883407, 39.239809000280403 ], [ -92.110386999900101, 39.064204000245503 ], [ -92.146059999944399, 39.064760000050399 ], [ -92.146100000127305, 39.0683499999422 ], [ -92.180199999803506, 39.069030000014799 ], [ -92.188360000298701, 39.072829999815397 ], [ -92.201238000276803, 39.073258000274699 ], [ -92.201506999890299, 39.0659289999275 ], [ -92.206191999761302, 39.066037999932902 ], [ -92.207730999794293, 39.0215449999668 ], [ -92.244957000115207, 39.0216350002203 ], [ -92.244759999573404, 39.028890000347502 ], [ -92.266310000232806, 39.029120000054803 ], [ -92.268671999898203, 39.021970999829001 ], [ -92.276927999754506, 39.021948999758102 ], [ -92.274580000332904, 39.029290000055298 ], [ -92.282827999793398, 39.029442999775902 ], [ -92.282872999999199, 39.020364999692099 ], [ -92.292314999711095, 39.020267000333199 ], [ -92.287639000061006, 39.016166000138099 ], [ -92.296813999809203, 39.018226999799197 ], [ -92.297257000398304, 39.007372999997997 ], [ -92.2925480002379, 39.007376000214002 ], [ -92.292755999752004, 39.000067999993298 ], [ -92.302206999684799, 39.000292999981802 ], [ -92.303407999608993, 39.016507000092098 ], [ -92.306375000245097, 39.014874999810502 ], [ -92.306644999683499, 39.022341999708402 ], [ -92.311113999644405, 39.0224080002316 ], [ -92.311101000123898, 39.0182840000192 ], [ -92.315401999855297, 39.020598000271697 ], [ -92.315532000450006, 39.015121000080001 ], [ -92.311310000361303, 39.015009999970701 ], [ -92.311373999935398, 39.007507999819602 ], [ -92.313360999682004, 39.014232999911101 ], [ -92.319978999771195, 39.014309999807601 ], [ -92.320126999909206, 39.016954999834802 ], [ -92.323025999875, 39.0140919998017 ], [ -92.323519999619407, 39.000800000256099 ], [ -92.331521000105994, 39.001066000115998 ], [ -92.331408999952998, 39.004867999999199 ], [ -92.3281500001371, 39.004799999874201 ], [ -92.331330000310302, 39.006793000289399 ], [ -92.329253999976899, 39.008496999889502 ], [ -92.336927000400394, 39.009092999886398 ], [ -92.339290999715502, 39.001385999777 ], [ -92.344202000440603, 38.998085000187601 ], [ -92.342056999611899, 38.992428000139199 ], [ -92.3508859997537, 38.993162000156602 ], [ -92.351089999968195, 38.987450000273 ], [ -92.377349999714596, 38.989901999825797 ], [ -92.378605000065505, 38.994291999766403 ], [ -92.383139000323695, 38.994384000072202 ], [ -92.383269000019993, 38.990537000305999 ], [ -92.387882999745798, 38.990960000307901 ], [ -92.388102000028894, 38.986422000271702 ], [ -92.392684999792607, 38.987782000061998 ], [ -92.392802999793403, 38.9841910000372 ], [ -92.3890860002181, 38.983842999745001 ], [ -92.389511000365601, 38.9704010000587 ], [ -92.406350000316493, 38.969079999722702 ], [ -92.396140000325403, 38.955990000250303 ], [ -92.399050000161907, 38.954249999915803 ], [ -92.400420999965405, 38.9371700002742 ], [ -92.413616000135804, 38.9393789997307 ], [ -92.412740999726594, 38.942991000040699 ], [ -92.417069000120506, 38.9434670001434 ], [ -92.419666999787395, 38.937166999877697 ], [ -92.416540000216003, 38.932731999731701 ], [ -92.4117389999941, 38.931995000285397 ], [ -92.422843999587499, 38.928896999865003 ], [ -92.423164000152994, 38.919034999857899 ], [ -92.429039000077395, 38.916000000204001 ], [ -92.433584000206295, 38.918806999818997 ], [ -92.430533999729406, 38.911769999727603 ], [ -92.439640999705603, 38.901250999817101 ], [ -92.474259000313893, 38.901595999761597 ], [ -92.480316999638205, 38.881305999902601 ], [ -92.477794000314404, 38.874107000310602 ], [ -92.456717000381303, 38.860268999930902 ], [ -92.443773000280899, 38.8367089998615 ], [ -92.432078999610198, 38.825069000279797 ], [ -92.418876999766994, 38.819170999657899 ], [ -92.394089000106405, 38.819576000075799 ], [ -92.384391000301406, 38.815487999658401 ], [ -92.379580000033798, 38.801546000271102 ], [ -92.382980000315001, 38.789725000203099 ], [ -92.390781999711606, 38.7806119996959 ], [ -92.407078000412596, 38.772597999772699 ], [ -92.408635999813797, 38.758242999910401 ], [ -92.404737999590196, 38.748190000274199 ], [ -92.397455999877295, 38.740523000160202 ], [ -92.387808000301106, 38.7354330003187 ], [ -92.360216000210997, 38.730132999871003 ], [ -92.344092999762296, 38.715068999993299 ], [ -92.343265000107095, 38.705072999688298 ], [ -92.361429999655599, 38.692039999663798 ], [ -92.363606000446396, 38.686209999991497 ], [ -92.360909999971895, 38.6818480001821 ], [ -92.345314999602905, 38.674882000013604 ], [ -92.2933700000454, 38.6665640001413 ], [ -92.275806000371404, 38.658214999915501 ], [ -92.259091000269095, 38.645346999892297 ], [ -92.229401000104303, 38.646027000052797 ], [ -92.215745999626193, 38.641285000312401 ], [ -92.203071999862601, 38.626639000209998 ], [ -92.203101999999802, 38.605555000324998 ], [ -92.198955000254202, 38.6001460002351 ], [ -92.161662999811, 38.578057000293001 ], [ -92.112064000025299, 38.5619530001687 ], [ -92.0588759998125, 38.557740000115501 ], [ -92.015617000281694, 38.567397999957599 ], [ -91.977453999627201, 38.589616000231103 ], [ -91.945815000248899, 38.5961470001726 ], [ -91.893749000317499, 38.634086999915702 ], [ -91.875177999989901, 38.6596710000766 ], [ -91.854866999787802, 38.6703360002682 ], [ -91.814436000077606, 38.681834999698502 ], [ -91.760234000436697, 38.684999999734899 ], [ -91.732285999796105, 38.705891000323298 ], [ -91.702039000137702, 38.707770000266898 ], [ -91.665498000255198, 38.7019830002465 ], [ -91.640371999587401, 38.703792000082998 ], [ -91.644893000325197, 38.1536790000102 ], [ -91.630554000131895, 38.153518999695201 ], [ -91.632431000273698, 38.050950999905098 ], [ -91.747389000070498, 38.053320000103199 ], [ -91.895346999901804, 38.051198999811803 ], [ -91.896943999661005, 38.047864000116597 ], [ -91.915218999712707, 38.042441999989599 ], [ -91.935247000057601, 38.030870000348997 ], [ -91.941851999728001, 38.041591999714797 ], [ -91.953703999684194, 38.040155000155302 ], [ -91.958719999991203, 38.035592999736998 ], [ -91.966333000140196, 38.009682999738899 ], [ -92.515978999811793, 38.0223359996696 ], [ -92.515579999603702, 38.036936000021498 ], [ -92.533894999838296, 38.0374670001734 ], [ -92.533554000254796, 38.051808000008002 ], [ -92.552380999777199, 38.052145000131901 ], [ -92.552081000201596, 38.066335000352403 ], [ -92.570280999910196, 38.066635000188903 ], [ -92.5696819996854, 38.095933999955001 ], [ -92.587984000399601, 38.096134000104499 ], [ -92.587688000123606, 38.1106359997247 ], [ -92.596760999764598, 38.110753999914301 ], [ -92.596374000150306, 38.139787000315003 ], [ -92.605302000026299, 38.139894000068601 ], [ -92.604684000433295, 38.1707329997665 ], [ -92.641385000149398, 38.171632000067802 ], [ -92.640084999592702, 38.213031999692802 ], [ -92.675586000107899, 38.2128309999786 ], [ -92.688886999685295, 38.2200310001354 ], [ -92.707186999851402, 38.224031000075499 ], [ -92.718586999895905, 38.220131000326397 ], [ -92.734696000100797, 38.221316999888003 ], [ -92.749043999616603, 38.2175599997707 ], [ -92.755988000119004, 38.212465000274101 ], [ -92.764962999850695, 38.189534000264203 ], [ -92.962994000018895, 38.197229000216097 ], [ -92.957893000221304, 38.203329000028702 ], [ -92.935992999757502, 38.210129000016799 ], [ -92.931993000324994, 38.216229000220402 ], [ -92.931993000324994, 38.220229000281499 ], [ -92.937142999628094, 38.2248789996613 ], [ -92.956898000161502, 38.2295079998473 ], [ -92.963743999856305, 38.225487000216901 ], [ -92.979557999610094, 38.197734000111502 ], [ -92.989903000218703, 38.188375000062898 ], [ -93.006199999846302, 38.186001999804397 ], [ -93.016939999566702, 38.191281999888197 ], [ -93.022398999564601, 38.199149999654097 ], [ -93.018451999835506, 38.206475999815602 ], [ -93.0091950000715, 38.210636999914797 ], [ -92.985794000107902, 38.210927999802799 ], [ -92.983994999784002, 38.2195279997649 ], [ -93.005650000025398, 38.222704999708 ], [ -93.016533999685805, 38.244911999955299 ], [ -93.051090000369896, 38.270092999912201 ], [ -93.066510999763295, 38.270770999656698 ], [ -93.077692000422999, 38.263091999770403 ], [ -93.068968999688096, 38.433696999847299 ], [ -93.068762999823804, 38.442273000329898 ], [ -93.072054000325096, 38.442274000134098 ], [ -93.067351999837399, 38.530094000028399 ], [ -93.290454000421605, 38.535388000305304 ], [ -93.291851000164399, 38.506321000098403 ], [ -93.512742999622603, 38.512475999834301 ], [ -93.511030000410699, 38.556209999691703 ], [ -94.119663999876494, 38.5687119996606 ], [ -94.116408000433594, 38.6555179999106 ], [ -94.129371999727198, 38.6558619998655 ], [ -94.111478000340298, 38.982862000331899 ], [ -94.127867000029397, 38.9830999999052 ], [ -94.127870000402396, 38.9759459998821 ], [ -94.130488000160796, 38.975978000098003 ], [ -94.130323000304401, 38.979539999812197 ], [ -94.137820000102394, 38.983290999793702 ], [ -94.134405999577595, 38.990317999802002 ], [ -94.145208999945496, 38.994310999991001 ], [ -94.153010000415506, 38.988186999878998 ], [ -94.152952999615806, 38.990948000149402 ], [ -94.157659000301507, 38.9910390000775 ], [ -94.157363000025398, 38.998305999863398 ], [ -94.152536999689204, 38.998210000126903 ], [ -94.152610000382396, 39.004947999939297 ], [ -94.170237999630501, 39.017403000229002 ], [ -94.178337000026403, 39.0185570000681 ], [ -94.187352999765906, 39.010158000094002 ], [ -94.198468000303393, 39.007567000208702 ], [ -94.199039000040699, 38.992413999895398 ], [ -94.208262000367796, 38.992716000147801 ], [ -94.208609999624002, 38.985502000055398 ], [ -94.210782000216895, 38.989091000178902 ], [ -94.217777999699607, 38.9893360001848 ], [ -94.214118000025707, 38.992938000343798 ], [ -94.226927000406803, 38.993382000042999 ], [ -94.227089999715105, 38.989766999923901 ], [ -94.231724000430802, 38.989902999679202 ], [ -94.231021000449005, 39.007938999872998 ], [ -94.240367999726303, 39.008084000165397 ], [ -94.240161000037105, 39.011698000331997 ], [ -94.231829000012794, 39.014509000157901 ], [ -94.233566000412495, 39.017531000019602 ], [ -94.225950999715295, 39.018434000084397 ], [ -94.227052000080306, 39.024484000339498 ], [ -94.221661999679398, 39.023820000260997 ], [ -94.221033000215797, 39.029159999927501 ], [ -94.225965999783895, 39.029326999849197 ], [ -94.225850000331207, 39.032541000153003 ], [ -94.229772999770802, 39.034215999740098 ], [ -94.222860999953795, 39.039497000127703 ], [ -94.229627000180997, 39.040356000252103 ], [ -94.229489999913596, 39.045322999762298 ], [ -94.234132999951797, 39.045586000302301 ], [ -94.233912999843795, 39.051394000219901 ], [ -94.243121999927197, 39.0519389998489 ], [ -94.243256999646405, 39.048302999888598 ], [ -94.247862999874599, 39.0482729997413 ], [ -94.250453999868796, 39.048373000182899 ], [ -94.250311999578599, 39.052041999699298 ], [ -94.256859000421002, 39.0522170001097 ], [ -94.258220000178696, 39.048682999954899 ], [ -94.261310999765101, 39.0569380002297 ], [ -94.256666000077104, 39.057731999659502 ], [ -94.261268999932298, 39.057879000242799 ], [ -94.263360000334302, 39.063393999800503 ], [ -94.277471999848601, 39.0662329997336 ], [ -94.269810000194099, 39.0565619997654 ], [ -94.270812999751499, 39.052824000341303 ], [ -94.315304999891893, 39.054104000023898 ], [ -94.305426000336894, 39.034752999988498 ], [ -94.332201999569094, 39.037773999876102 ], [ -94.332359999752796, 39.032991999999801 ], [ -94.337069999738105, 39.032684000347999 ], [ -94.337149000279098, 39.029182999843997 ], [ -94.327813999799005, 39.026951000280597 ], [ -94.331441999685893, 39.021523999867803 ], [ -94.332818000410498, 39.024966999656499 ], [ -94.363398000154902, 39.026311999874402 ], [ -94.3742829996403, 39.023214000043403 ], [ -94.377626999845006, 39.019072999812799 ], [ -94.3822919996244, 39.020459999952102 ], [ -94.3869439998834, 39.017623000118697 ], [ -94.388800999933693, 38.996265999780803 ], [ -94.389872000161503, 38.972977999753098 ], [ -94.385448000406498, 38.972839000024202 ], [ -94.386098999611406, 38.958146000169002 ], [ -94.395663000420399, 38.958146999772403 ], [ -94.395618000214597, 38.9612069997956 ], [ -94.406982000273999, 38.965838000256099 ], [ -94.404761000175696, 38.962194999864003 ], [ -94.410337000349401, 38.955339000229799 ], [ -94.414421000345797, 38.955600999819701 ], [ -94.410205999929801, 38.940750999725402 ], [ -94.447879000139594, 38.942571999955 ], [ -94.450034000115707, 38.923750999831299 ], [ -94.475493999795901, 38.922226999657802 ], [ -94.483885000269794, 38.915891000240798 ], [ -94.484424000220002, 38.908841000013503 ], [ -94.487428999592694, 38.907188000316602 ], [ -94.515518999625201, 38.909270999873399 ], [ -94.516854000341993, 38.913016999962501 ], [ -94.511354000336297, 38.922662000008003 ], [ -94.523045999560495, 38.924897999733503 ], [ -94.522556000014106, 38.9384659996932 ], [ -94.531643999723599, 38.938825999947703 ], [ -94.535193999792696, 38.9425809997594 ], [ -94.543914000154501, 38.938549000245899 ], [ -94.587344000287899, 38.941206999857002 ], [ -94.586663000047494, 38.955557000308097 ], [ -94.582003000290896, 38.955522999968302 ], [ -94.579516999878606, 39.006961000304202 ], [ -94.574889999733998, 39.0073269999275 ], [ -94.570274000358395, 39.086092999874602 ], [ -94.572558000205902, 39.099562999859003 ], [ -94.544465999625302, 39.098616000330097 ], [ -94.542844999576502, 39.101744000005901 ], [ -94.545941999909004, 39.106153000231899 ], [ -94.530708999938298, 39.105623000010503 ], [ -94.530298000034506, 39.112849999763696 ], [ -94.509348000323001, 39.112125999957001 ], [ -94.508160999744305, 39.115731000203503 ], [ -94.507876000237204, 39.119607999659898 ], [ -94.515573000051901, 39.1224489997959 ], [ -94.534060999640602, 39.145908000235302 ], [ -94.512679000109003, 39.1504509998339 ], [ -94.495410999812705, 39.150393999724301 ], [ -94.484615999840699, 39.145503999811602 ], [ -94.461589999795805, 39.120371999728697 ], [ -94.430364999795998, 39.1380260000482 ], [ -94.402328000365202, 39.1647659998414 ], [ -94.399928000166796, 39.174803000159997 ], [ -94.409025000097202, 39.192103999697302 ], [ -94.407228000321297, 39.195302999939301 ], [ -94.401632000056097, 39.196993000024797 ], [ -94.389728000221496, 39.193503000063998 ], [ -94.378493999858307, 39.170365000296101 ], [ -94.3694150003696, 39.163675999976803 ], [ -94.363556000338605, 39.163655999853503 ], [ -94.341475999949793, 39.177471999655999 ], [ -94.328155000280901, 39.191231999703298 ], [ -94.308932000024996, 39.227351000111398 ], [ -94.289872999800707, 39.237107000300099 ], [ -94.250046000338102, 39.234845000281602 ], [ -94.2384289996603, 39.228219000046202 ], [ -94.228759000342706, 39.214649999971897 ], [ -94.211467999581899, 39.206786999917099 ], [ -94.204200000112706, 39.206695000026798 ], [ -94.1862709996674, 39.214085000095601 ], [ -94.172255000412704, 39.213382000322497 ], [ -94.169423000394005, 39.210613999892999 ], [ -94.170239000353703, 39.204486000321602 ], [ -94.185056000397907, 39.189285000040201 ], [ -94.185839999672197, 39.181030000189899 ], [ -94.133664000135994, 39.171239000239602 ], [ -94.114031999626306, 39.149713999805897 ], [ -94.103390999639998, 39.142422999863697 ], [ -94.087135000020297, 39.1355429999265 ], [ -94.072990999820703, 39.134023999907903 ], [ -94.056638000116607, 39.135543999809698 ], [ -94.024206000344904, 39.154536999937001 ], [ -94.025711000042605, 39.165000999835399 ], [ -94.035726999864906, 39.178121000179303 ], [ -94.035695000077894, 39.186185000306502 ], [ -94.032046000274605, 39.189960999768701 ], [ -93.978962999643798, 39.206046000230003 ], [ -93.964543999982894, 39.1959870001103 ], [ -93.9614790003358, 39.1875249998008 ], [ -93.967863000073294, 39.178133999849599 ], [ -93.983361000357903, 39.168524000024803 ], [ -93.988892000325805, 39.152786000131997 ], [ -93.9691109998531, 39.142275000093299 ], [ -93.958326999751705, 39.145168000072601 ], [ -93.942410999890598, 39.158083000079799 ], [ -93.944358000352594, 39.170221999829899 ], [ -93.9400430003775, 39.179690000126598 ], [ -93.927829999848001, 39.184386000020197 ], [ -93.899416999775298, 39.184538999760598 ], [ -93.875219999943596, 39.204080000201799 ], [ -93.855434000346307, 39.212874000313597 ], [ -93.824171999638295, 39.214896999939498 ], [ -93.784391000206398, 39.200209000248201 ], [ -93.745999999946307, 39.209487000227 ], [ -93.711209999808901, 39.206261999810401 ], [ -93.696967999699993, 39.211873999976802 ], [ -93.689410999627398, 39.224715999690901 ], [ -93.681594999987098, 39.231235000309198 ], [ -93.657492999691598, 39.2387800003021 ], [ -93.657553999790906, 39.245360999882202 ], [ -93.652816000216504, 39.2482520000707 ], [ -93.644407000199294, 39.245202000055002 ], [ -93.636380999598401, 39.247172000067302 ], [ -93.627455000270501, 39.242971999728297 ], [ -93.585828999585601, 39.240759999667297 ], [ -93.5689260000606, 39.228605000039998 ], [ -93.563191999703207, 39.220019999804798 ], [ -93.551528000068004, 39.217017000047903 ], [ -93.528431999703002, 39.214891999898001 ], [ -93.500211000149207, 39.218004999675898 ], [ -93.489283999932695, 39.226297000123502 ], [ -93.486573000287905, 39.233860999917603 ], [ -93.496220999864093, 39.264890999893801 ], [ -93.495377000315301, 39.275459000177698 ], [ -93.489889000005206, 39.285144999725802 ], [ -93.478253999784002, 39.2926659999398 ], [ -93.4665039999351, 39.292767000114701 ], [ -93.459907999587202, 39.289374999893802 ], [ -93.4507139995724, 39.272974999784097 ], [ -93.4442310001008, 39.268524999986099 ], [ -93.413924000167896, 39.267752999739599 ], [ -93.405808999878502, 39.264194000093802 ], [ -93.403028999738396, 39.257979999847102 ], [ -93.415229999673997, 39.241797000024498 ], [ -93.415226000374403, 39.234923000008699 ], [ -93.403793999644506, 39.227437000265098 ], [ -93.388410999885906, 39.227425999911503 ], [ -93.369165999888807, 39.232751999926897 ], [ -93.353636999641907, 39.242763000025803 ], [ -93.334957000432595, 39.248874999677 ], [ -93.329120999967898, 39.255080999963702 ], [ -93.328961999959304, 39.265483000200597 ], [ -93.344430000106698, 39.289364000216402 ], [ -93.344108999716298, 39.297178999985903 ], [ -93.336856000315706, 39.307032000018197 ], [ -93.324764000160002, 39.310615000278503 ], [ -93.294160999951202, 39.309214000044001 ], [ -93.277725000406406, 39.311548999679403 ], [ -93.266508999586605, 39.319720999818699 ], [ -93.267794999899607, 39.325116999780803 ], [ -93.263813000010401, 39.331009000162801 ], [ -93.2525650003018, 39.3388740003302 ], [ -93.241505000015906, 39.337037000228896 ], [ -93.230079000032106, 39.327876999956501 ], [ -93.221203999859597, 39.331656000190499 ], [ -93.189568999780903, 39.370382999869697 ], [ -93.189453000328299, 39.379827999920401 ], [ -93.198690000000795, 39.393265999773497 ], [ -93.200707999709607, 39.401787000214199 ], [ -93.193101000306598, 39.409277999907701 ], [ -93.180645999927805, 39.411804999980198 ], [ -93.164321999637707, 39.405006999681497 ], [ -93.151991999830699, 39.387157999943 ], [ -93.139631000061499, 39.3786430001254 ], [ -93.125198999981805, 39.377675000148997 ], [ -93.106071000160497, 39.383723999708501 ], [ -93.087759000298902, 39.378912000270503 ], [ -93.077083000152598, 39.365500000065801 ], [ -93.078053000098095, 39.347976999715399 ], [ -93.0744379997317, 39.3379649997242 ], [ -93.065402999725606, 39.328292999878499 ], [ -93.0520429996986, 39.3207249998989 ], [ -93.023776000114097, 39.313115000288498 ], [ -92.971592000182, 39.315599999805599 ], [ -92.9598010003252, 39.312525999829603 ], [ -92.953401999620795, 39.302751999903698 ], [ -92.957765999999694, 39.279336000304397 ], [ -92.947402999847796, 39.270094000021302 ], [ -92.923616999919702, 39.263376000105701 ], [ -92.916748999585295, 39.257939999715802 ], [ -92.915680999730498, 39.250031000218499 ], [ -92.919968000116498, 39.232952999717398 ], [ -92.911668999704105, 39.223946000073397 ], [ -92.892787999755001, 39.222506999695497 ], [ -92.862850999718006, 39.236436999692998 ], [ -92.850701999660899, 39.233142000283003 ], [ -92.8492239997274, 39.226217999868403 ], [ -92.790369000002599, 39.343586000075703 ], [ -92.707366999776397, 39.3216139998651 ], [ -92.696591999895801, 39.610371000001201 ], [ -92.3009279999428, 39.605459000029398 ], [ -92.314471000267901, 39.2464540001926 ] ] ] } },
{ "type": "Feature", "properties": { "district": 6, "name": "Congressional District 6" }, "geometry": { "type": "Polygon", "coordinates": [ [ [ -91.306693000201903, 39.6848649996967 ], [ -91.715497000073896, 39.686491999899303 ], [ -91.714172000301204, 39.6574710000084 ], [ -92.184985999956794, 39.662932000001497 ], [ -92.1866909996711, 39.604081999662299 ], [ -92.696591999895801, 39.610371000001201 ], [ -92.707366999776397, 39.3216139998651 ], [ -92.790369000002599, 39.343586000075703 ], [ -92.8492239997274, 39.226217999868403 ], [ -92.850701999660899, 39.233142000283003 ], [ -92.862850999718006, 39.236436999692998 ], [ -92.892787999755001, 39.222506999695497 ], [ -92.911668999704105, 39.223946000073397 ], [ -92.919968000116498, 39.232952999717398 ], [ -92.915680999730498, 39.250031000218499 ], [ -92.916748999585295, 39.257939999715802 ], [ -92.923616999919702, 39.263376000105701 ], [ -92.947402999847796, 39.270094000021302 ], [ -92.957765999999694, 39.279336000304397 ], [ -92.953401999620795, 39.302751999903698 ], [ -92.9598010003252, 39.312525999829603 ], [ -92.971592000182, 39.315599999805599 ], [ -93.023776000114097, 39.313115000288498 ], [ -93.0520429996986, 39.3207249998989 ], [ -93.065402999725606, 39.328292999878499 ], [ -93.0744379997317, 39.3379649997242 ], [ -93.078053000098095, 39.347976999715399 ], [ -93.077083000152598, 39.365500000065801 ], [ -93.087759000298902, 39.378912000270503 ], [ -93.106071000160497, 39.383723999708501 ], [ -93.125198999981805, 39.377675000148997 ], [ -93.139631000061499, 39.3786430001254 ], [ -93.151991999830699, 39.387157999943 ], [ -93.164321999637707, 39.405006999681497 ], [ -93.180645999927805, 39.411804999980198 ], [ -93.193101000306598, 39.409277999907701 ], [ -93.200707999709607, 39.401787000214199 ], [ -93.198690000000795, 39.393265999773497 ], [ -93.189453000328299, 39.379827999920401 ], [ -93.189568999780903, 39.370382999869697 ], [ -93.221203999859597, 39.331656000190499 ], [ -93.230079000032106, 39.327876999956501 ], [ -93.241505000015906, 39.337037000228896 ], [ -93.2525650003018, 39.3388740003302 ], [ -93.263813000010401, 39.331009000162801 ], [ -93.267794999899607, 39.325116999780803 ], [ -93.266508999586605, 39.319720999818699 ], [ -93.277725000406406, 39.311548999679403 ], [ -93.294160999951202, 39.309214000044001 ], [ -93.324764000160002, 39.310615000278503 ], [ -93.336856000315706, 39.307032000018197 ], [ -93.344108999716298, 39.297178999985903 ], [ -93.344430000106698, 39.289364000216402 ], [ -93.328961999959304, 39.265483000200597 ], [ -93.329120999967898, 39.255080999963702 ], [ -93.334957000432595, 39.248874999677 ], [ -93.353636999641907, 39.242763000025803 ], [ -93.369165999888807, 39.232751999926897 ], [ -93.388410999885906, 39.227425999911503 ], [ -93.403793999644506, 39.227437000265098 ], [ -93.415226000374403, 39.234923000008699 ], [ -93.415229999673997, 39.241797000024498 ], [ -93.403028999738396, 39.257979999847102 ], [ -93.405808999878502, 39.264194000093802 ], [ -93.413924000167896, 39.267752999739599 ], [ -93.4442310001008, 39.268524999986099 ], [ -93.4507139995724, 39.272974999784097 ], [ -93.459907999587202, 39.289374999893802 ], [ -93.4665039999351, 39.292767000114701 ], [ -93.478253999784002, 39.2926659999398 ], [ -93.489889000005206, 39.285144999725802 ], [ -93.495377000315301, 39.275459000177698 ], [ -93.496220999864093, 39.264890999893801 ], [ -93.486573000287905, 39.233860999917603 ], [ -93.489283999932695, 39.226297000123502 ], [ -93.500211000149207, 39.218004999675898 ], [ -93.528431999703002, 39.214891999898001 ], [ -93.551528000068004, 39.217017000047903 ], [ -93.563191999703207, 39.220019999804798 ], [ -93.5689260000606, 39.228605000039998 ], [ -93.585828999585601, 39.240759999667297 ], [ -93.627455000270501, 39.242971999728297 ], [ -93.636380999598401, 39.247172000067302 ], [ -93.644407000199294, 39.245202000055002 ], [ -93.652816000216504, 39.2482520000707 ], [ -93.657553999790906, 39.245360999882202 ], [ -93.657492999691598, 39.2387800003021 ], [ -93.681594999987098, 39.231235000309198 ], [ -93.689410999627398, 39.224715999690901 ], [ -93.696967999699993, 39.211873999976802 ], [ -93.711209999808901, 39.206261999810401 ], [ -93.745999999946307, 39.209487000227 ], [ -93.784391000206398, 39.200209000248201 ], [ -93.824171999638295, 39.214896999939498 ], [ -93.855434000346307, 39.212874000313597 ], [ -93.875219999943596, 39.204080000201799 ], [ -93.899416999775298, 39.184538999760598 ], [ -93.927829999848001, 39.184386000020197 ], [ -93.9400430003775, 39.179690000126598 ], [ -93.944358000352594, 39.170221999829899 ], [ -93.942410999890598, 39.158083000079799 ], [ -93.958326999751705, 39.145168000072601 ], [ -93.9691109998531, 39.142275000093299 ], [ -93.988892000325805, 39.152786000131997 ], [ -93.983361000357903, 39.168524000024803 ], [ -93.967863000073294, 39.178133999849599 ], [ -93.9614790003358, 39.1875249998008 ], [ -93.964543999982894, 39.1959870001103 ], [ -93.978962999643798, 39.206046000230003 ], [ -94.032046000274605, 39.189960999768701 ], [ -94.035695000077894, 39.186185000306502 ], [ -94.035726999864906, 39.178121000179303 ], [ -94.025711000042605, 39.165000999835399 ], [ -94.024206000344904, 39.154536999937001 ], [ -94.056638000116607, 39.135543999809698 ], [ -94.072990999820703, 39.134023999907903 ], [ -94.087135000020297, 39.1355429999265 ], [ -94.103390999639998, 39.142422999863697 ], [ -94.114031999626306, 39.149713999805897 ], [ -94.133664000135994, 39.171239000239602 ], [ -94.185839999672197, 39.181030000189899 ], [ -94.185056000397907, 39.189285000040201 ], [ -94.170239000353703, 39.204486000321602 ], [ -94.169423000394005, 39.210613999892999 ], [ -94.172255000412704, 39.213382000322497 ], [ -94.1862709996674, 39.214085000095601 ], [ -94.204200000112706, 39.206695000026798 ], [ -94.211467999581899, 39.206786999917099 ], [ -94.228759000342706, 39.214649999971897 ], [ -94.2384289996603, 39.228219000046202 ], [ -94.250046000338102, 39.234845000281602 ], [ -94.289872999800707, 39.237107000300099 ], [ -94.308932000024996, 39.227351000111398 ], [ -94.328155000280901, 39.191231999703298 ], [ -94.341475999949793, 39.177471999655999 ], [ -94.363556000338605, 39.163655999853503 ], [ -94.3694150003696, 39.163675999976803 ], [ -94.378493999858307, 39.170365000296101 ], [ -94.389728000221496, 39.193503000063998 ], [ -94.401632000056097, 39.196993000024797 ], [ -94.407228000321297, 39.195302999939301 ], [ -94.409025000097202, 39.192103999697302 ], [ -94.399928000166796, 39.174803000159997 ], [ -94.402328000365202, 39.1647659998414 ], [ -94.430364999795998, 39.1380260000482 ], [ -94.461589999795805, 39.120371999728697 ], [ -94.484615999840699, 39.145503999811602 ], [ -94.495410999812705, 39.150393999724301 ], [ -94.512679000109003, 39.1504509998339 ], [ -94.534060999640602, 39.145908000235302 ], [ -94.515573000051901, 39.1224489997959 ], [ -94.507876000237204, 39.119607999659898 ], [ -94.509348000323001, 39.112125999957001 ], [ -94.530298000034506, 39.112849999763696 ], [ -94.530708999938298, 39.105623000010503 ], [ -94.571061000005699, 39.107032000256197 ], [ -94.577908000423804, 39.112674000329399 ], [ -94.578824999767505, 39.117476000167301 ], [ -94.598663000141599, 39.109831000059799 ], [ -94.6085190001303, 39.116243999804098 ], [ -94.589897999573907, 39.138978999942402 ], [ -94.588658000189994, 39.151162999916103 ], [ -94.593846000026204, 39.1568280001323 ], [ -94.608657000222493, 39.161044000348603 ], [ -94.635552000178606, 39.1540820001794 ], [ -94.655787000212797, 39.155680000265399 ], [ -94.661396999823396, 39.162742000336401 ], [ -94.659162000379595, 39.174126000165998 ], [ -94.661576999748405, 39.177358999984698 ], [ -94.678239999972206, 39.184169000135697 ], [ -94.688788000071995, 39.183227999691397 ], [ -94.714137000322495, 39.170403000035002 ], [ -94.740777000010496, 39.169986999868897 ], [ -94.762858000224199, 39.179990999782397 ], [ -94.7763980001763, 39.201810000247399 ], [ -94.782950999968094, 39.2071620000766 ], [ -94.811543000141, 39.206905999785498 ], [ -94.8316790004409, 39.215938000257999 ], [ -94.834896000423996, 39.223842000155301 ], [ -94.825663000051094, 39.241729000025799 ], [ -94.830552999961498, 39.255134999937802 ], [ -94.846319999859602, 39.268480999991503 ], [ -94.884092999628393, 39.2845119999334 ], [ -94.898516000385598, 39.298450000166497 ], [ -94.906126000161606, 39.314721000307102 ], [ -94.910016999814204, 39.352542999780397 ], [ -94.902497000449898, 39.360382999960102 ], [ -94.887144999755094, 39.365430999909997 ], [ -94.881360000242296, 39.370382999869598 ], [ -94.879281000434204, 39.379780000249198 ], [ -94.885025999763997, 39.389801000107298 ], [ -94.900132000411503, 39.393333000127797 ], [ -94.922994000424794, 39.384883000256501 ], [ -94.942039000405401, 39.3894989998835 ], [ -94.946227000158899, 39.395647999844499 ], [ -94.947864000101106, 39.408604000224798 ], [ -94.972952000235694, 39.421704999851599 ], [ -94.982143999702302, 39.4405520001295 ], [ -94.990171999953105, 39.446191999810601 ], [ -95.0157630000529, 39.453099000175001 ], [ -95.037500000310104, 39.463688999749699 ], [ -95.047670999942994, 39.477535999995403 ], [ -95.0505520003654, 39.497514000139397 ], [ -95.054458999911503, 39.502652999763498 ], [ -95.087590000365395, 39.520354999659098 ], [ -95.104586999601693, 39.535144000289598 ], [ -95.110367999814798, 39.544561999838599 ], [ -95.1132840003974, 39.558152000328803 ], [ -95.104948000175099, 39.576603999800497 ], [ -95.092149999664599, 39.581116000262099 ], [ -95.067095000040297, 39.5765019998681 ], [ -95.056896999744893, 39.580566999934497 ], [ -95.050590000000298, 39.587562999792198 ], [ -95.046444999904494, 39.601606000166697 ], [ -95.0542360003288, 39.617290999711102 ], [ -95.054267000290906, 39.6277450002435 ], [ -95.027644000321303, 39.665454000243898 ], [ -95.015310000316305, 39.674262000227003 ], [ -94.981564999569102, 39.678636000263801 ], [ -94.970676999710705, 39.687239000036897 ], [ -94.9684530001376, 39.707401999828498 ], [ -94.971205999615194, 39.729304999786997 ], [ -94.963958000237398, 39.740360999975003 ], [ -94.955285999556196, 39.745689000109302 ], [ -94.947541000060994, 39.745336999757001 ], [ -94.918342000165794, 39.7287969999689 ], [ -94.901043999732295, 39.724057999792997 ], [ -94.881342999625502, 39.727893999845399 ], [ -94.8650479996478, 39.738590999883201 ], [ -94.859034999631106, 39.754115999757197 ], [ -94.860638999961395, 39.762982999756403 ], [ -94.867143000247793, 39.7716939997797 ], [ -94.882161000133394, 39.771042999749703 ], [ -94.898262999767297, 39.761621999840102 ], [ -94.910949000124802, 39.759178000118801 ], [ -94.926228999951206, 39.766489999834199 ], [ -94.935299999942401, 39.7756139998232 ], [ -94.9349969999937, 39.783691999914303 ], [ -94.927557999921902, 39.789209999820301 ], [ -94.893180000411405, 39.7909149999901 ], [ -94.882289000179895, 39.7958039998842 ], [ -94.876244000376104, 39.807394000097602 ], [ -94.878677000186599, 39.826522000335103 ], [ -94.888792999567997, 39.834134999845503 ], [ -94.916766000322895, 39.835806999998603 ], [ -94.939854000292101, 39.852043999746002 ], [ -94.942378000339104, 39.862253999831303 ], [ -94.9284659999431, 39.876343999793001 ], [ -94.927896999855605, 39.886112000252197 ], [ -94.934906999581997, 39.893784000153303 ], [ -94.954154999952195, 39.901137999782897 ], [ -94.987058999727097, 39.896320000265 ], [ -95.003819000035193, 39.900401000318404 ], [ -95.015135000414205, 39.899642999745403 ], [ -95.025239999924906, 39.889699999972301 ], [ -95.026747000170801, 39.872273000328001 ], [ -95.039403000391104, 39.864831999675701 ], [ -95.085002999670905, 39.861882999691602 ], [ -95.128609000429606, 39.874335000328998 ], [ -95.140601000127901, 39.8816880002964 ], [ -95.142838000119795, 39.900402000278198 ], [ -95.149657000050397, 39.905947999873 ], [ -95.159834000429498, 39.906984000178099 ], [ -95.181221999808898, 39.899996000254397 ], [ -95.202744999805802, 39.905076000077003 ], [ -95.206063000071197, 39.9120609999867 ], [ -95.2003820003155, 39.931030999738198 ], [ -95.205266000378103, 39.939749999797797 ], [ -95.216439999568493, 39.943953000213398 ], [ -95.236760999816298, 39.943930999931602 ], [ -95.250253999912701, 39.9486439999447 ], [ -95.269886000422503, 39.969395999659902 ], [ -95.305802999965906, 39.987898999662796 ], [ -95.309332000118502, 40.004473000245703 ], [ -95.315270999617098, 40.012070000262803 ], [ -95.333730999616705, 40.017831999959199 ], [ -95.353722000151606, 40.0307889999305 ], [ -95.389436000203801, 40.026858000034203 ], [ -95.410548000296998, 40.035628000156002 ], [ -95.4186080003348, 40.046751000249401 ], [ -95.421339999896006, 40.060745999787599 ], [ -95.409366999566004, 40.074998000278498 ], [ -95.410099999685102, 40.093975000317698 ], [ -95.394215999611006, 40.108263000290101 ], [ -95.393346999947894, 40.1192119998856 ], [ -95.400266000336003, 40.1272929996709 ], [ -95.427408999989197, 40.134607999962903 ], [ -95.432165000005298, 40.141025000233803 ], [ -95.436347999735901, 40.1587199998011 ], [ -95.463831000046099, 40.171201000342101 ], [ -95.479192999888298, 40.185652000075599 ], [ -95.482318999634799, 40.200667000080799 ], [ -95.469900000139305, 40.222700000291901 ], [ -95.470348999677796, 40.230819000234398 ], [ -95.476241000219005, 40.241257000339601 ], [ -95.488998999648203, 40.248739000267697 ], [ -95.521034999584899, 40.250082999734801 ], [ -95.552473000020001, 40.261903999865297 ], [ -95.556274999984097, 40.270761000308497 ], [ -95.551488000005904, 40.281060999754303 ], [ -95.551620000250395, 40.2886659997233 ], [ -95.562156999581305, 40.297358999864201 ], [ -95.581787000441196, 40.299580000250202 ], [ -95.610438999990194, 40.3139700000768 ], [ -95.645328999686797, 40.305692999699403 ], [ -95.657327999955996, 40.310856000050599 ], [ -95.653729000381503, 40.322582000257398 ], [ -95.627647999836896, 40.332412000302803 ], [ -95.622684000306705, 40.342323000268003 ], [ -95.627123999955302, 40.352799999950498 ], [ -95.641027000130507, 40.366398999938603 ], [ -95.6439350003171, 40.386851000191299 ], [ -95.660601999840495, 40.412408999824301 ], [ -95.656574999745501, 40.438701000298302 ], [ -95.667713999674106, 40.453463000282497 ], [ -95.694651000361304, 40.471451999821099 ], [ -95.696756000108707, 40.478848999963397 ], [ -95.694822999890505, 40.494704999804597 ], [ -95.699968999893898, 40.505275000001703 ], [ -95.661680999565903, 40.5173119997594 ], [ -95.655674000295306, 40.523557000116199 ], [ -95.652268999991193, 40.538108000282797 ], [ -95.6558480003726, 40.546608999842299 ], [ -95.662107000436606, 40.549967000037498 ], [ -95.671775999929196, 40.562627999849703 ], [ -95.678715000408801, 40.562560999979098 ], [ -95.694146999672896, 40.5569420002575 ], [ -95.697377000074695, 40.541388999809797 ], [ -95.695494999910096, 40.532020999757897 ], [ -95.708591000346402, 40.521551000026903 ], [ -95.717536999765798, 40.527783000292203 ], [ -95.737249999568107, 40.523930000087603 ], [ -95.752742999829906, 40.524892999820402 ], [ -95.762856999561393, 40.528371000265501 ], [ -95.768693000026104, 40.534106000082303 ], [ -95.763833000253001, 40.553873000154397 ], [ -95.774704000393001, 40.573574000172798 ], [ -95.765645000097393, 40.585208000146302 ], [ -94.489109000090906, 40.570705999824497 ], [ -93.260428999622704, 40.580813999823803 ], [ -92.096610999946407, 40.601830999672302 ], [ -91.729114999843702, 40.613639999956199 ], [ -91.716769000143202, 40.598530000092801 ], [ -91.686356999729995, 40.580875000046703 ], [ -91.691561000358007, 40.564867000103497 ], [ -91.688700000027097, 40.557389999947397 ], [ -91.681713999691894, 40.5530349997359 ], [ -91.620071000329403, 40.540816999767102 ], [ -91.618027999607904, 40.534029999816099 ], [ -91.621353000444401, 40.510072000192601 ], [ -91.6128210004035, 40.502376999816903 ], [ -91.590817000182597, 40.492292000211101 ], [ -91.581527999733296, 40.472875999980197 ], [ -91.574733999917001, 40.465655000141503 ], [ -91.552691000236393, 40.458769000152103 ], [ -91.525089999925399, 40.457845000343397 ], [ -91.5232710004083, 40.450061000128997 ], [ -91.533622999791206, 40.438320000155699 ], [ -91.529132000089106, 40.434271999950099 ], [ -91.519133999810094, 40.4328219996708 ], [ -91.527043000235196, 40.418214000114297 ], [ -91.524612000074598, 40.410764999751102 ], [ -91.498092999862095, 40.401925999991398 ], [ -91.488481000270895, 40.404316999680397 ], [ -91.490912000431507, 40.392980000093601 ], [ -91.4852550000669, 40.384657000197997 ], [ -91.480251000353704, 40.381782999706303 ], [ -91.463553999794797, 40.385546999688898 ], [ -91.465891000244099, 40.3783650000695 ], [ -91.463895000276594, 40.375658999715299 ], [ -91.448741999773503, 40.376803999939902 ], [ -91.441243000325599, 40.386255000046603 ], [ -91.419422000402804, 40.378264000329096 ], [ -91.444861999991602, 40.363143000097601 ], [ -91.462140000333605, 40.342413999934301 ], [ -91.471826000443002, 40.317340000176102 ], [ -91.490970999982693, 40.283363999817603 ], [ -91.493060999661495, 40.275261999718403 ], [ -91.490524000093998, 40.259497999966101 ], [ -91.506501000054399, 40.236303999902098 ], [ -91.504281999605894, 40.224298999901798 ], [ -91.507269000333494, 40.2093380001415 ], [ -91.504476999599603, 40.198261999931397 ], [ -91.511072999947501, 40.1887940002173 ], [ -91.513078999960698, 40.178537000094302 ], [ -91.508224000210404, 40.1576649999013 ], [ -91.511590000156403, 40.149268999825601 ], [ -91.510838999595705, 40.126136999687098 ], [ -91.489606000027095, 40.0574349997121 ], [ -91.494878000427093, 40.036453000246802 ], [ -91.469247000144307, 39.995326999912997 ], [ -91.465314999585601, 39.983994999826699 ], [ -91.458852000205397, 39.979014999849497 ], [ -91.441559999619699, 39.951298999658697 ], [ -91.425781999850898, 39.937765000292302 ], [ -91.419359999580294, 39.927716999865901 ], [ -91.420877999696799, 39.914865000305603 ], [ -91.443512999929396, 39.8935830002548 ], [ -91.446922000431499, 39.883033999868204 ], [ -91.446684999706704, 39.871641999670501 ], [ -91.436529000142301, 39.847078000024702 ], [ -91.4304020003228, 39.838901999883497 ], [ -91.383706999627407, 39.8146000003048 ], [ -91.367965999668499, 39.800403000296299 ], [ -91.361571000060394, 39.7875480001765 ], [ -91.365694000414905, 39.774910000083501 ], [ -91.3652800001381, 39.757722000021801 ], [ -91.369953000313501, 39.7450420000254 ], [ -91.369395000096603, 39.731162999992499 ], [ -91.347252999783606, 39.710479999809898 ], [ -91.306693000201903, 39.6848649996967 ] ] ] } },
{ "type": "Feature", "properties": { "district": 7, "name": "Congressional District 7" }, "geometry": { "type": "Polygon", "coordinates": [ [ [ -92.903273000105699, 37.070651000175303 ], [ -92.909336000351104, 36.809178000030897 ], [ -92.764869000139399, 36.806097000227297 ], [ -92.772339000173304, 36.497838999991103 ], [ -94.617858999735006, 36.499430999760499 ], [ -94.61757000003, 37.364169999908199 ], [ -94.082199999904205, 37.349301999892397 ], [ -94.083832999648493, 37.290850999946997 ], [ -93.626368999974105, 37.281968999751498 ], [ -93.621152999650505, 37.4274230003223 ], [ -93.073379999922693, 37.414989000200201 ], [ -93.076775000181001, 37.2705989997336 ], [ -93.068449999829397, 37.270934999940003 ], [ -93.068320000132999, 37.276417000136199 ], [ -93.065401999900701, 37.271379000159499 ], [ -93.0477510001881, 37.274316999917403 ], [ -93.043761999727906, 37.279540000232203 ], [ -93.037326999936795, 37.278391999942002 ], [ -93.038501999921706, 37.272743000157298 ], [ -93.046247000315205, 37.2708179998085 ], [ -93.038420999730903, 37.2651849998798 ], [ -93.017045000047005, 37.263144999819701 ], [ -93.017066999788298, 37.256622000209902 ], [ -93.012371999871604, 37.255960000035103 ], [ -93.008186999592894, 37.2639309999294 ], [ -92.998328000129504, 37.2632970000641 ], [ -92.997011999679302, 37.268324999824202 ], [ -92.992035999555199, 37.270343999725 ], [ -92.986471000150502, 37.266401000340799 ], [ -92.971130000224704, 37.268233999681001 ], [ -92.971552999823999, 37.248017999758702 ], [ -92.9809460000304, 37.243899999974701 ], [ -92.9717820001528, 37.2371479999168 ], [ -92.971860999795595, 37.233505999880499 ], [ -92.953919999654701, 37.233413000122098 ], [ -92.9529549997321, 37.236078000312297 ], [ -92.944050000320601, 37.233866000055599 ], [ -92.943760999717298, 37.2435550002035 ], [ -92.935006999918599, 37.243180999805702 ], [ -92.934851000283004, 37.247102000139499 ], [ -92.898645999961104, 37.241850999860802 ], [ -92.898487999777302, 37.245527000343102 ], [ -92.679659000233698, 37.242362999809203 ], [ -92.685867000244102, 37.067050999724202 ], [ -92.903273000105699, 37.070651000175303 ] ] ] } },
{ "type": "Feature", "properties": { "district": 8, "name": "Congressional District 8" }, "geometry": { "type": "Polygon", "coordinates": [ [ [ -90.274842999977693, 38.157559000132302 ], [ -90.240713000164305, 38.110375000131697 ], [ -90.188114999955403, 38.076850999943503 ], [ -90.172220000010796, 38.0696360001944 ], [ -90.158273000352906, 38.074950000004399 ], [ -90.130788000392997, 38.062340999890203 ], [ -90.126396000425004, 38.054897000096297 ], [ -90.126196000408399, 38.040706000324001 ], [ -90.114239999796894, 38.029060999834002 ], [ -90.088260000432996, 38.015772000327097 ], [ -90.065045000242193, 38.016875000299102 ], [ -90.057268999886603, 38.014361999969701 ], [ -90.051941000308304, 38.005431999924603 ], [ -90.031794999962599, 37.995125999893297 ], [ -90.000109999655294, 37.964563000164901 ], [ -89.982227999963996, 37.962110999812502 ], [ -89.940686999667903, 37.9708740000994 ], [ -89.935884999621095, 37.959580999906699 ], [ -89.924596999729602, 37.959848999656899 ], [ -89.924852999822605, 37.954905999710697 ], [ -89.9312669996973, 37.948277000158598 ], [ -89.947322000373902, 37.9402829998184 ], [ -89.959771999831503, 37.9400829996856 ], [ -89.962057000402297, 37.933917999973403 ], [ -89.974798999938002, 37.926525000249697 ], [ -89.973762000045298, 37.918016000351003 ], [ -89.953008000152494, 37.884036999687297 ], [ -89.938607999859798, 37.874303999994801 ], [ -89.917544000345501, 37.869894999963897 ], [ -89.898752999909803, 37.870780000097803 ], [ -89.879687999837699, 37.880736000339802 ], [ -89.8618770002915, 37.897683999939296 ], [ -89.842638000142102, 37.905196999807202 ], [ -89.799329000382599, 37.881515999951702 ], [ -89.79769599974, 37.874391999889099 ], [ -89.800352999856401, 37.868625999840503 ], [ -89.797541999754202, 37.862127999723498 ], [ -89.786325999832698, 37.8516889996651 ], [ -89.781990999766094, 37.855053000006201 ], [ -89.754099000100297, 37.8463530000475 ], [ -89.739875000433102, 37.846921000150303 ], [ -89.717441999866793, 37.825722999660002 ], [ -89.669644000054902, 37.799921999892099 ], [ -89.660379999719893, 37.7862960000814 ], [ -89.661189999831805, 37.775731999742099 ], [ -89.667992999869, 37.759484000277503 ], [ -89.663352000378893, 37.750051999884903 ], [ -89.649530000394606, 37.745495999767897 ], [ -89.617277999649602, 37.749719999860602 ], [ -89.615743999639506, 37.742724999819202 ], [ -89.597481000181702, 37.733476999854197 ], [ -89.583316000065693, 37.7132610001009 ], [ -89.531426999686403, 37.7003340002912 ], [ -89.516684999985301, 37.692761999790001 ], [ -89.512040000297304, 37.680985000203002 ], [ -89.516146000034993, 37.667975000306299 ], [ -89.517717999680002, 37.641217000213501 ], [ -89.506562999857806, 37.625050000233998 ], [ -89.485792000246505, 37.607156999736901 ], [ -89.4759320000598, 37.592998000084698 ], [ -89.477548000085704, 37.585885000150498 ], [ -89.486061999684907, 37.580853000014301 ], [ -89.513943000378305, 37.584815000034403 ], [ -89.5198080002571, 37.582746999904302 ], [ -89.521924999700005, 37.560735000138699 ], [ -89.517050999683207, 37.5372779998333 ], [ -89.475525000354097, 37.471387999997098 ], [ -89.439768999570802, 37.437199999790501 ], [ -89.426522000419993, 37.4089979996727 ], [ -89.420542000015303, 37.388006999931399 ], [ -89.432835999837295, 37.347056000256799 ], [ -89.447555999797103, 37.340474999781399 ], [ -89.474568999753998, 37.338165000287397 ], [ -89.489005000031597, 37.333367999685301 ], [ -89.510759999832104, 37.312743999720198 ], [ -89.518340000369193, 37.285496999649801 ], [ -89.509261999806995, 37.271371000185297 ], [ -89.489914999702606, 37.251315000079899 ], [ -89.470524999940494, 37.253357000150402 ], [ -89.458826999970199, 37.248661000143798 ], [ -89.4583020002636, 37.240367999832301 ], [ -89.467630999997596, 37.2182000000941 ], [ -89.456104999556402, 37.1881199999236 ], [ -89.425580000063604, 37.138235000273198 ], [ -89.411729999591898, 37.122507000290298 ], [ -89.388049999969098, 37.107481000158501 ], [ -89.377112999706796, 37.090764999726403 ], [ -89.375711999766096, 37.080504999728099 ], [ -89.385186000163401, 37.057748000174897 ], [ -89.383936999660307, 37.046441000225897 ], [ -89.378276999821097, 37.039605000058998 ], [ -89.362396999945005, 37.030155999860099 ], [ -89.322982000210999, 37.016089999901403 ], [ -89.292129999581803, 36.992189000010001 ], [ -89.278628000162897, 36.988669999960202 ], [ -89.263527000436596, 37.0000499999448 ], [ -89.257608000131199, 37.015496000216501 ], [ -89.260003000306895, 37.023287999843703 ], [ -89.277715000118903, 37.036140000135099 ], [ -89.304752000365198, 37.047564999731797 ], [ -89.310818999910296, 37.057897000208698 ], [ -89.308289999840298, 37.0683709997083 ], [ -89.259934999636499, 37.064069999832398 ], [ -89.254930000098398, 37.072014000359303 ], [ -89.234053000181902, 37.037276999986602 ], [ -89.200792999856503, 37.016163999655198 ], [ -89.192096999784098, 36.979994999688003 ], [ -89.185491000288806, 36.973518000001199 ], [ -89.170008999897703, 36.970297999740197 ], [ -89.1253519999009, 36.983529000248502 ], [ -89.110945999760403, 36.977797000132398 ], [ -89.099802999633894, 36.964668999985001 ], [ -89.100923000265496, 36.943744000181297 ], [ -89.117115000311102, 36.888684999982502 ], [ -89.131934000005103, 36.857596000151297 ], [ -89.138109000403503, 36.847322999832102 ], [ -89.1526810002253, 36.847105000257002 ], [ -89.159004999688307, 36.842728999713003 ], [ -89.171900000283102, 36.841106000132697 ], [ -89.179201000262694, 36.8298959996756 ], [ -89.179132999592298, 36.810892999763503 ], [ -89.170562999916598, 36.797537999705298 ], [ -89.157136999767403, 36.789568999823302 ], [ -89.124380000305607, 36.785825999728999 ], [ -89.116568999789806, 36.774509999897496 ], [ -89.117075999953002, 36.765768999979301 ], [ -89.125967000019102, 36.751809000307702 ], [ -89.169784999591698, 36.7596409999123 ], [ -89.1853199996863, 36.753348999675701 ], [ -89.197856000255896, 36.739772000214501 ], [ -89.201399999578896, 36.7258810000883 ], [ -89.199310999725, 36.715624000354097 ], [ -89.170461999634199, 36.690048000048499 ], [ -89.167971000097396, 36.6790889996903 ], [ -89.171884000389596, 36.672598000188103 ], [ -89.159117999666194, 36.666353999811498 ], [ -89.1977530003238, 36.628970999958298 ], [ -89.202771000280705, 36.601664999742297 ], [ -89.211183999597495, 36.584058000148701 ], [ -89.219035000296302, 36.575057000205803 ], [ -89.236307999717098, 36.566881000268999 ], [ -89.263489999728407, 36.566269000334501 ], [ -89.294675000443505, 36.593778999942202 ], [ -89.314656999859395, 36.621843999666901 ], [ -89.324636999696594, 36.631022999748801 ], [ -89.343901999785302, 36.631888000293401 ], [ -89.365797000226195, 36.625125999776401 ], [ -89.376143999586205, 36.614131999932297 ], [ -89.382709999796901, 36.5837219999909 ], [ -89.395832999997396, 36.559324999921301 ], [ -89.398625999657995, 36.5422759999365 ], [ -89.417274999803496, 36.499011000067902 ], [ -89.443734999566402, 36.4691609998697 ], [ -89.464433000281105, 36.457747000187098 ], [ -89.486193000104507, 36.462114000292601 ], [ -89.493946999820494, 36.473559000248301 ], [ -89.486686999848899, 36.4949920003016 ], [ -89.473255999676795, 36.512415999849097 ], [ -89.4659129998645, 36.530015000274602 ], [ -89.467820000143504, 36.546973999642098 ], [ -89.479929999842497, 36.569086999742098 ], [ -89.530638000389203, 36.581709999980099 ], [ -89.551118999572296, 36.578074000204097 ], [ -89.567004000369593, 36.565047999665502 ], [ -89.571024999718404, 36.550201000337204 ], [ -89.5604120002196, 36.524406000153903 ], [ -89.519922000059907, 36.477052999827698 ], [ -89.523426999923103, 36.4565720002185 ], [ -89.543405999864106, 36.438770000353401 ], [ -89.545255000416802, 36.427079000285701 ], [ -89.513955999898897, 36.384891000220101 ], [ -89.509722000114607, 36.373626000136198 ], [ -89.518999999795, 36.3485999999996 ], [ -89.531821999696604, 36.339246000166199 ], [ -89.545005999996505, 36.336808999783997 ], [ -89.581635999567496, 36.342357000299998 ], [ -89.605668000441099, 36.342234000271397 ], [ -89.6158409997239, 36.3360850001622 ], [ -89.620255000331497, 36.323006000088299 ], [ -89.611818999651803, 36.309088000067 ], [ -89.578492000277606, 36.288316999730696 ], [ -89.554296000270696, 36.2777530000415 ], [ -89.5447969997591, 36.280458000341099 ], [ -89.539486999724204, 36.277368000356802 ], [ -89.536441000343601, 36.272826999912901 ], [ -89.534676000354807, 36.252770999808099 ], [ -89.544743000230795, 36.247484000222002 ], [ -89.562205999622407, 36.250909000040799 ], [ -89.577544000073502, 36.242261999848502 ], [ -89.602373999566893, 36.238106000247399 ], [ -89.651406999638098, 36.250682999772799 ], [ -89.678043000026506, 36.248287000168197 ], [ -89.695235000154796, 36.252765999889903 ], [ -89.701820999558606, 36.2460040001721 ], [ -89.705250000152105, 36.236568000096902 ], [ -89.692629999916804, 36.224959000179503 ], [ -89.607004000084501, 36.1711789999788 ], [ -89.593582999958201, 36.154005000116904 ], [ -89.591632000196597, 36.142135000334399 ], [ -89.593548999622996, 36.128137999673001 ], [ -89.601935999898899, 36.1194699996772 ], [ -89.628305000323607, 36.106852999774503 ], [ -89.666597999776101, 36.095802000229099 ], [ -89.678821000351306, 36.084636000362501 ], [ -89.688576999882599, 36.029237999966497 ], [ -89.706932000300199, 36.0009810002135 ], [ -90.377900000313005, 35.995745000001897 ], [ -90.351781999958504, 36.025057000180396 ], [ -90.354284000264201, 36.030325000332702 ], [ -90.348275000445497, 36.0350509997768 ], [ -90.348207999600007, 36.041573000236099 ], [ -90.336873999677707, 36.047237999733099 ], [ -90.333345000423407, 36.067475999962603 ], [ -90.320621000431103, 36.071319999740403 ], [ -90.318237999950995, 36.076133999873001 ], [ -90.319612000127506, 36.089569999828598 ], [ -90.300184999657205, 36.097718999752402 ], [ -90.2930600003031, 36.114430000059102 ], [ -90.2729769997066, 36.116810999773698 ], [ -90.260861999984797, 36.127257000087198 ], [ -90.253267000277404, 36.1273120003153 ], [ -90.245556000218997, 36.136187999674497 ], [ -90.235444999962198, 36.139395000272899 ], [ -90.231230000444597, 36.153589999748299 ], [ -90.235347000052897, 36.159540000200003 ], [ -90.231207999804994, 36.163761000223303 ], [ -90.229612999695505, 36.173156000135201 ], [ -90.220345999885794, 36.184539999707397 ], [ -90.211358999560204, 36.183099000128998 ], [ -90.2044149999561, 36.186854999979403 ], [ -90.200238000073199, 36.196459000019097 ], [ -90.196456000200598, 36.196372000213003 ], [ -90.188130000024103, 36.205461000033402 ], [ -90.177633999802794, 36.207266000302603 ], [ -90.169471999657702, 36.214123999817502 ], [ -90.155715999795603, 36.213821999690502 ], [ -90.149015999690704, 36.221788999851299 ], [ -90.145718000415101, 36.220849000102596 ], [ -90.141851999978499, 36.2276540003595 ], [ -90.132410000266603, 36.226431999892498 ], [ -90.126256999609495, 36.229213999666101 ], [ -90.124799999592298, 36.235263000155001 ], [ -90.130882999929199, 36.241371999812998 ], [ -90.124002000074299, 36.2431449997257 ], [ -90.118374000022001, 36.253273000250601 ], [ -90.117067999617603, 36.263487000140998 ], [ -90.096297999831194, 36.271305000158002 ], [ -90.083528999633003, 36.2721220002718 ], [ -90.075719999665395, 36.281052999726803 ], [ -90.079015000364606, 36.289867999954602 ], [ -90.071501999774696, 36.293205999858202 ], [ -90.064193000297493, 36.302502000307697 ], [ -90.069487000438997, 36.313253999849699 ], [ -90.082382000135496, 36.321996999820797 ], [ -90.075459000447793, 36.334345000158599 ], [ -90.078323000253505, 36.337709000074703 ], [ -90.074188000203407, 36.343370000213 ], [ -90.078032000000306, 36.349292999842497 ], [ -90.068037999919397, 36.3565380003255 ], [ -90.063466999851201, 36.367081999954401 ], [ -90.062778999938104, 36.377163000255898 ], [ -90.066744999933704, 36.378006000288799 ], [ -90.063503999661194, 36.384080999790399 ], [ -90.068125999782893, 36.385149000342203 ], [ -90.065848999608093, 36.3874520000847 ], [ -90.068997999819103, 36.388234000165298 ], [ -90.070536999852095, 36.393520000241601 ], [ -90.074194000051193, 36.392984999931798 ], [ -90.081520000145105, 36.401096000088302 ], [ -90.098434000438999, 36.4040109997377 ], [ -90.101550999964701, 36.401970000137901 ], [ -90.104340000325607, 36.405429000233198 ], [ -90.110322000380194, 36.4041650002222 ], [ -90.1108250003454, 36.407743999914203 ], [ -90.115597000254994, 36.405815999793802 ], [ -90.113644999770202, 36.409562000261303 ], [ -90.118503999718399, 36.409429000193697 ], [ -90.118886000208093, 36.412513000243202 ], [ -90.128744999671596, 36.411446000281103 ], [ -90.127404000005299, 36.416736000220098 ], [ -90.138502999750997, 36.413725999758199 ], [ -90.134402999860995, 36.422877000187398 ], [ -90.139302999817104, 36.421319999810301 ], [ -90.144311999553196, 36.426018000233 ], [ -90.143011000069905, 36.430948000359301 ], [ -90.137947999907198, 36.431562999769397 ], [ -90.138896000111302, 36.435106999674304 ], [ -90.134259999745893, 36.436454000174301 ], [ -90.137268000389895, 36.450189000341197 ], [ -90.133952999599202, 36.453780999661497 ], [ -90.140962000399, 36.458538000208101 ], [ -90.143006999871901, 36.467959999747897 ], [ -90.145032000151701, 36.462851000067602 ], [ -90.150498999647098, 36.4654639999601 ], [ -90.155406999999201, 36.463795000141999 ], [ -90.152985000059402, 36.4707710000635 ], [ -90.145662000338504, 36.469054999954402 ], [ -90.142391999753698, 36.471399000241803 ], [ -90.144181000031907, 36.476196000099797 ], [ -90.159543999698997, 36.480243999678599 ], [ -90.1572060003231, 36.484310999999302 ], [ -90.160099000441093, 36.487503999823403 ], [ -90.156150999988796, 36.4890969999853 ], [ -90.160066999755699, 36.494377999926698 ], [ -90.153450000389796, 36.493048000302799 ], [ -90.152307000191897, 36.497982000327802 ], [ -92.772339000173304, 36.497838999991103 ], [ -92.764869000139399, 36.806097000227297 ], [ -92.909336000351104, 36.809178000030897 ], [ -92.903273000105699, 37.070651000175303 ], [ -92.685867000244102, 37.067050999724202 ], [ -92.6789699995973, 37.263148999886504 ], [ -92.692302999860104, 37.263514000262397 ], [ -92.686670999609902, 37.481544999690698 ], [ -92.252260999569501, 37.472943999714303 ], [ -92.249462999886006, 37.604542999788798 ], [ -92.029257999617698, 37.602542000138399 ], [ -92.021164999967993, 38.010639000064899 ], [ -91.966333000140196, 38.009682999738899 ], [ -91.958719999991203, 38.035592999736998 ], [ -91.953703999684194, 38.040155000155302 ], [ -91.941851999728001, 38.041591999714797 ], [ -91.935247000057601, 38.030870000348997 ], [ -91.915218999712707, 38.042441999989599 ], [ -91.896943999661005, 38.047864000116597 ], [ -91.895346999901804, 38.051198999811803 ], [ -91.747389000070498, 38.053320000103199 ], [ -91.632431000273698, 38.050950999905098 ], [ -91.630554000131895, 38.153518999695201 ], [ -91.525024999628201, 38.152432999812099 ], [ -91.528797000353407, 37.788988999753897 ], [ -91.308310999877705, 37.787186000344903 ], [ -91.310654999999699, 37.700047999990197 ], [ -91.146972000103105, 37.697197999732801 ], [ -91.146521000016406, 37.740810999731998 ], [ -90.982510999881697, 37.740338999780001 ], [ -90.874134000364094, 37.734196000086698 ], [ -90.762091000426494, 37.738517000047601 ], [ -90.645135000114095, 37.734812999909998 ], [ -90.639979999889803, 38.076547999876198 ], [ -90.618065000255697, 38.073322000148899 ], [ -90.617539999650901, 38.089872000311097 ], [ -90.603546000137399, 38.088237000055699 ], [ -90.603788999811698, 38.084592999886901 ], [ -90.592932999740299, 38.086838000043201 ], [ -90.593155000396393, 38.083138000225702 ], [ -90.5845920003934, 38.082486999725703 ], [ -90.585744999738694, 38.091088000074997 ], [ -90.577017999704097, 38.0993999998067 ], [ -90.561300000209798, 38.102079999875201 ], [ -90.560069999973294, 38.106190000287903 ], [ -90.564020000075402, 38.1087600003234 ], [ -90.560623999992103, 38.114254999664503 ], [ -90.537799999613696, 38.107519999704202 ], [ -90.538130000224896, 38.124119999782003 ], [ -90.544699999735201, 38.129430000186197 ], [ -90.527419999743302, 38.130936000345997 ], [ -90.528720000299998, 38.140862999745899 ], [ -90.532658999633099, 38.144899000261397 ], [ -90.506540000352004, 38.138869999689703 ], [ -90.491899999859896, 38.138620000130501 ], [ -90.505629999782698, 38.140339999781702 ], [ -90.517930000350802, 38.150530000268603 ], [ -90.518650999876002, 38.155677000007799 ], [ -90.509670000296495, 38.154469999756898 ], [ -90.509477999777602, 38.175575999677399 ], [ -90.516827000335994, 38.175970999804399 ], [ -90.519233000382201, 38.183772000352398 ], [ -90.512838999700705, 38.306730999907501 ], [ -90.512522000406605, 38.501453999905102 ], [ -90.405262000249294, 38.501153000027003 ], [ -90.407948999604599, 38.483328000044999 ], [ -90.413631999908503, 38.480704000006803 ], [ -90.422518999776599, 38.483118000018003 ], [ -90.411793000299895, 38.454286000205599 ], [ -90.403210000205306, 38.453950999794401 ], [ -90.394709999951502, 38.4584859996856 ], [ -90.390960999690805, 38.456377000265803 ], [ -90.391031000011097, 38.450560999957197 ], [ -90.353630999612804, 38.458216999742604 ], [ -90.336442999682404, 38.453977999981703 ], [ -90.335744999723602, 38.4481949997448 ], [ -90.347117000178997, 38.435952999699303 ], [ -90.348122000284604, 38.430592000020802 ], [ -90.347938999986397, 38.405356999879402 ], [ -90.341445999570695, 38.388297999729801 ], [ -90.371476000392505, 38.330897000027399 ], [ -90.372658999875, 38.286230000068301 ], [ -90.365138999612398, 38.240723999942198 ], [ -90.355793000159906, 38.216887000207898 ], [ -90.334172000253702, 38.189856999893401 ], [ -90.3239709995852, 38.182405000143497 ], [ -90.290629000142403, 38.170363000205001 ], [ -90.274842999977693, 38.157559000132302 ] ] ] } }
]
}
