{"type":"FeatureCollection", "features": [
{"type":"Feature","geometry":{"type":"Polygon","coordinates":[[[-90.72183,39.22411],[-91.17801,39.5982],[-91.30668,39.68488],[-91.43548,39.94528],[-91.49726,40.24876],[-91.72911,40.61364],[-91.94311,40.60584],[-92.35081,40.59727],[-92.7146,40.58956],[-93.37439,40.58033],[-93.77434,40.57758],[-94.23224,40.57191],[-94.63203,40.57119],[-95.20226,40.57853],[-95.76564,40.58521],[-95.55482,40.26446],[-95.20573,39.90828],[-94.99341,39.89779],[-94.87659,39.82088],[-95.10289,39.53335],[-94.82379,39.20987],[-94.60173,39.1596],[-94.60735,39.11344],[-94.60803,38.84721],[-94.61287,38.4776],[-94.61405,38.06006],[-94.61758,37.65358],[-94.61754,37.36417],[-94.61787,37.0568],[-94.61831,36.76656],[-94.61792,36.49941],[-94.07709,36.49873],[-93.58426,36.4989],[-93.31532,36.49841],[-92.77233,36.49777],[-92.12039,36.49886],[-91.67234,36.49946],[-91.12653,36.49771],[-90.57618,36.49845],[-90.21769,36.4978],[-90.08373,36.27233],[-90.37786,35.99572],[-89.95938,35.99902],[-89.70693,36.00098],[-89.54501,36.33681],[-89.32759,36.63219],[-89.11757,36.88736],[-89.31327,37.00956],[-89.48873,37.25151],[-89.52173,37.56621],[-89.51201,37.68553],[-89.93819,37.87511],[-90.25266,38.12781],[-90.34133,38.38821],[-90.25777,38.53201],[-90.16671,38.77227],[-90.11771,38.80575],[-90.45081,38.96776],[-90.66343,38.93422],[-90.72183,39.22411]]]},"properties":{"state":"MO"}}
]}